City,State,ZipCode,Country
Ewloe,Flintshire,CH5 3YB,GB
Calgary,AB,,CA
DeLand,FL,32724,US
,,,GB
New York,NY,10003,US
San Francisco,CA,94133,US
Boulder,CO,80302,US
Bay Shore,NY,11706,US
,,,
Avondale,AZ,85392,US
Romsey,HAMPSHIRE UNITED KINGDOM,so51 0QA,US
Paris,IDF,75014,FR
Cumming,GA,30041-9180,US
Falkirk,,,GB
Mount Pleasant,SC,29464,US
Corpus Christi,TX,78411,US
Newark,NJ,7102,US
Utrecht,Utrecht,,NL
,,,
London,Ontario,,CA
,,Zip/Postal,
Leeuwarden,FR,8934 CJ,NL
,,,
Novato,CA,94949,US
Royal Wootton Bassett,Wiltshire,SN4 7HH,GB
Alella,CT,8328,ES
Parkside,SA,5063,AU
,,,
,,,
Calgary,Alberta,T2R0B4,CA
Chino,CA,91710,US
Chicago,IL,,US
Wickenburg,AZ,85390,US
La Jolla,CA,92037,US
Chicago Illinois,,60601,
New York,NY,10038,US
,,,
,,,
Cleveland,OH,,US
Washington,DC,20001,US
,,,
Canterbury,Kent,CT1 1QU,GB
Monroeville,PA,15146,US
Seattle,WA,98101,US
Bengaluru,Karnataka,,IN
,,,
,,,
,,,
Vancouver,British Columbia,V6H 3Y4,CA
London,Greater London,N18 1QX,GB
Charlotte,NC,,US
Ontario,CA,91764,US
,,,
Seaside,CA,93955,US
Silao,GTO,,MX
Arlington,TX,76011,US
Johnson City,TX,78636,US
Beachwood,OH,44122,US
Union City,NJ,7083,US
,,,
Leicester,Leicester,LE1 1RE,GB
New York,NY,10019,US
Valley Stream,NY,11580,US
Pisgah Forest,NC,28768,US
Washington,DC,20001,US
Providence,RI,2903,US
Clayton,VIC,3800,AU
Baytown,TX,77523,US
Hannover,NDS,30169,DE
Bangor,,BT20 4BT,GB
,,,
Mount Clemens,MI,48043,US
,,,
South Euclid,OH,44121,US
New York,NY,10018,US
Nottingham,Nottingham,NG1 1HW,GB
Cooks Hill,NSW,2300,AU
New York,NY,10011,US
Newark,NJ,7102,US
Mercerville,NJ,8619,US
Golden Point,VIC,3350,AU
Fitzroy North,VICTORIA,3068,US
Rochester,MN,,US
Greenwood Village,CO,80111,US
Pittsburgh,PA,15216,US
Miami,Florida,33136,US
Blue Ash,OH,45242,US
Flint Township,MI,48507,US
,,,
Eugene,OR,97403,US
Manhattan,NY,10019,US
Memphis,TN,38103,US
Raleigh,NC,27603,US
West Covina,CA,91792,US
Bend,OR,97702,US
Padova,Veneto,35129,IT
Santa Cruz,CA,95060,US
Lake in the Hills,IL,60156,US
Indianapolis,IN,46202,US
Weston-super-Mare,North Somerset,BS23 2UR,GB
London,Gt Lon,NW1 2QP,GB
Chicago,IL,60606,US
Spring,TX,77389,US
High Wycombe,Buckinghamshire,HP13 6QT,GB
Austin,TX,78703,US
Simpsonville,SC,29681,US
Ottignies-Louvain-la-Neuve,Région wallonne,1348,BE
Hilliard,OH,43026,US
Romeoville,IL,60446,US
Gainesville,GA,,US
Austin,TX,,US
,,,
Los Angeles,CA,90036,US
,,,GB
Chicago,IL,60601,US
Verscio,TI,6653,CH
New York,NY,10472,US
League City,TX,77573,US
Salina,KS,67401,US
Redwood City,CA,94062,US
London,England,WC2E 7EG,GB
,,,
,,,
,,,
London,London,EC4Y ,GB
Sacramento,CA,95819,US
New York,NY,10019,US
Dublin,Dublin,,IE
"Bellevue ,WA",,,US
,,,
Tempe,AZ,85282,US
Puyallup,WA,98373,US
Chicago,IL,60608,US
Troy,MI,48333,US
Memphis,TN,38104,US
San Rafael,CA,94903,US
Bangkok,Krung Thep,,TH
Shawnee,OK,74801,US
San Francisco,CA,94103,US
Detroit,MI,48201,US
Playa Del Carmen,Quintana Roo,,MX
Saint-Etienne,,42100 FRANCE,
St. Cloud,MN,56301,US
Valencia,Comunidad Valenciana,,ES
Harrisonburg,VA,22801,US
Minneapolis,MN,55404,US
Mount Pocono,PA,18344,US
Lyons,CO,80540,US
Houston,TX,,US
,,,
Atlanta,GA,30309,US
Ealing,,,GB
New York,NY,10031,US
Grand Rapids,MI,49503,US
Arlington,VA,22203,US
Washington,DC,20009,US
,,,
Cochrane,AB,T4C,CA
London,,WC1E 7AE,GB
,,,
,,,
Sacramento,CA,95814,US
1,LA,71446,US
Waldorf,MD,20602,US
Chesapeake,VA,23322,US
Stockbridge,GA,30281,US
Cocoa,FL,32926,US
Vancouver,BC,V6R 3C9,CA
,,,
Lansing,WV,25840,US
Nairobi,,,KE
Vancouver,BC,V6B 1G8,CA
Las Vegas,NV,89109,US
"Washington, D.C.",DC,20052,US
Las Vegas,NV,89101,US
Birmingham,Birmingham,,GB
,,,
Magdeburg,SA,39114,DE
,,,
Edmonton,AB,T6G 2R3,CA
,,,
New York,NY,10112,US
Kuala Lumpur,Kuala Lumpur,,MY
New York,NY,11206,US
Cupertino,CA,95014,US
,,,
London,London,SE24,GB
Rincon,GA,31326,US
Newcastle Upon Tyne,Newcastle Upon Tyne,NE1 4ST,GB
,CA,94930,US
,,,
Pella,IA,50219,US
Lake Forest,CA,92677,US
London,England,W1W 7BY,GB
Norman Park,QLD,4170,AU
,,24460,
,,,
San Rafael,CA,94903,US
México,D.F.,6100,US
Nottingham,Nottingham,NG7 5JA,GB
,,WA,
Alexandria,VA,,US
,,,
Birmingham,AL,35203,US
Cheshire,MA,1225,US
Lynwood,CA,90262,US
New York,NY,10468,US
Cambridge Ma,,2139,
Jacksonville Beach,FL,32250,US
Arundel,West Sussex,BN18 0LS,GB
Mississauga,Ontario,,CA
Glenside,PA,19038,US
Tórshavn,Tórshavn,,FO
Durham,NC,27701,US
Goodlettsville,TN,37072,US
Roanoke,VA,24011,US
Chesapeake,VA,23323,US
Atlanta,GA,,US
New York,NY,10017,US
Cabo San Lucas,BCS,,MX
Doylestown,PA,18901,US
,England,ME1 1EH,GB
Austin,TX,78744,US
,,,
Göktürk Merkez Mh.,Istanbul Province,34075,TR
Portland,OR,97201,US
Santa Clara,CA,95052,US
Dallas,TX,75201,US
Wichita,ks,,US
Ocoee,FL,34761,US
New York,NY,10003,US
New York,NY,94001,US
,,,
Malibu,CA,90265,US
Camden,NJ,8102,US
Melaka,Melaka,75250,MY
San Jose,CA,95113,US
West Palm Beach,FL,33411,US
,,,
,RI,,US
Bangkok,Bangkok,10110,TH
Milton Ontario,, L9T6J5,
Nabeul,nabeul,8000,
Florence,SC,29501,US
Yanbu,Al Madinah Province,,SA
Bronx,NY,10461,US
Barcelona,,8001,ES
Houston,TX,77056,US
San Francisco,CA,94107,US
Johnson City,TN,37615,US
Aurora,CO,80014,US
Tampa,FL,MSC 2100,US
,,,
Los Angeles,California,90019,US
Benton Harbor,MI,49022,US
Gilroy,CA,95020,US
Surrey,British Columbia,V4A 3G2,CA
Wichita,KS,67260,US
London,England,N7,GB
Norcross,GA,30071,US
Henrico,VA,23233,US
Fairview Heights,IL,62208,US
Sarasota,FL,34231,US
,,,
Toronto,ON,M5S 1K6,CA
Smithtown,NY,11787,US
Mona Vale,NSW,2103,AU
Ilkley,York,LS29 9BG,GB
San Diego,CA,92106,US
North Boarhunt,Hampshire,PO17 6JH,GB
Charlotte,NC,28202,US
Fort Valley,VA,22652,US
Atlanta,GA,30338,US
London,London,NW1 7JE,GB
Fort Washakie,WY,82514,US
Edmond,OK,73034,US
Heeia,HI,96744,US
Riverside,CA,92501,US
,,,
,,,
Rosemead,CA,91770,US
Belfast,Northern Ireland,BT9 5DY,GB
,,"Powell, Ohio 43065",
Guadalajara,JAL,44160,MX
Waxhaw,NC,28173,US
,,,
London,London,EC2A 3BE,GB
,,,
,,,
Vancouver,BC,V6C 3A8,CA
Burney,CA,96013,US
Newtown,Wellington,6021,NZ
Keswick Terminal,SA,5031,AU
Irvine,CA,92606,US
Colton,CA,92324,US
,,,FR
Encinitas,CA,92024,US
Henrico,VA,23294,US
Dallas,TX,75205,US
,,,
Las Vegas,NV,,US
Roselle,IL,60172,US
Arlington,GA,39813,US
Fresno,CA,,US
Willow Grove,PA,19090,US
Albuquerque,NM,87123,US
,,30306,
Pikesville,MD,21208,US
Philadelphia,PA,19106,US
Anaheim,CA,92802,US
Dakar,Dakar,,SN
Shanghai,Shanghai,,CN
,,,
Bogotá,Cundinamarca,,CO
Redding,CA,96003,US
Mount Kisco,NY,1549,US
Croydon,Croydon,CR0 3SL,GB
Lisbon,Lisbon,1990-203,PT
Shaker Heights,OH,44122,US
Helsinki,,100,FI
Stoke-on-Trent,,ST4 1HH,GB
,,,
Silver Spring,MD,20906-1948,US
Las Vegas,NV,89119,US
,,,
West Drayton,Gt Lon,UB7 0EQ,GB
Locust Grove,VA,22508,US
Albuquerque,NM,87102,US
Devon,PA,19333,US
San Francisco,CA,94103,US
Southampton,Southampton,SO30 3XH,GB
Chicago,IL,60608,US
Ferndale,MI,48220,US
London,London,W1U 2BB,GB
Cheltenham,England,,GB
Toronto,ON,M9W 3X8,CA
Kansas City,MO,64108,US
Destin,FL,32541,US
Peoria,AZ,85383,US
Reggio Calabria,Calabria,89132,IT
Elk River,MN,55330,US
,,BS9 4AL,
Cincinnati,OH,45207,US
Simpsonville,SC,29607,US
Vienna,VA,22182,US
Boston,MA,,US
Willowbrook,IL,60527,US
Halifax,NS,B3P 1C7,CA
,,,
Boston,MA,2134,US
London,Greater London,W1J 9LN,GB
Brooklyn,NY,11225,US
San Diego,CA,92101,US
Paris,IDF,75003,FR
Southbank,VIC,3006,AU
Toronto,Ontario,M5V 3B1,CA
Lehman,PA,18612,US
Salt Lake City,UT,84116,US
Grande Ronde,OR,97347,US
Goldsboro,NC,27530,US
Stadt,,80000,DE
Austin,TX,78746,US
Slippery Rock,PA,16057,US
Washington,DC,20016,US
Matthews,NC,28104,US
,,,
Houston,TX,77074,US
Glebe,NSW,2037,AU
Tunbridge Wells,Kent,TN1 1LG,GB
,,,
,,,
Tacoma,WA,98023,US
New York,NY,10002,US
Whistler,British Columbia,V0N 1B8,CA
Clemson,SC,29631,US
London,"London, City Of",W1S 4BS,GB
Nashville,TN,37203,US
Denver,CO,80204,US
London,,,GB
Chandigarh,Chandigarh,,IN
,,,
Gilbert,AZ 85297,,US
Libertyville,IL,60048,US
Inverness,Highland,IV3,GB
Hollywood,FL,33019,US
San Francisco,CA,94105,US
Hartsville,SC,29550,US
Portland,OR,97214,US
Philadelphia,PA,19119,US
,,,
Billings,MT,59101,US
Cambridge,MA,,US
Winona Lake,IN,,US
,,flFL,
Paris,IDF,75006,FR
,,,
Cleveland,OH,,US
Winnipeg,Manitoba,R3Y 1A1,CA
Chicago,IL,,US
Clovis,NM,88101,US
London,London,,GB
Raleigh,NC,27616,US
,,,
Phoenix,AZ,85012,US
London,London,TW6 2GD,GB
Columbus,OH,43206,US
Los Angeles,CA,90017,US
Austin,TX,78726,US
Santa Ana,CA,,US
Eugene,OR,97405,US
,,E8 1JS,GB
,,,
Cincinnati,OH,45246,US
,,,
Vicksburg,MS,39180,US
Fresno,CA,93721,US
Mesa,AZ,,US
,,,
Sedalia,MO,65301,US
New Brighton,MN,55112,US
,,,
Bowie,MD,20715,US
Port Adelaide,,5015,AU
Glen Allen,VA,23060,US
Raleigh,NC,27612,US
Shenton Park,Western Australia,6008,AU
Washington,DC,,US
,,2903,
Wantirna,VIC,3152,AU
,,,
,,,
Ottawa,ON,K1S 5R5,CA
,,,CN
Maidstone,Kent,ME17 1JZ,GB
,,,
Blue Mound,TX,76131,US
Madrid,Comunidad de Madrid,28046,ES
,,,
Penryn,Cornwall,TR10 9EZ,GB
Savannah,GA,31401,US
Treviso,Veneto,,IT
Northampton,England,,GB
Anchorage,AK,99599,US
Houston,,77098,US
Birmingham,AL,35203,US
São Paulo,Sao Paulo,,BR
Washington,DC,20001,US
Montréal,QC,H2T,CA
,,,
Santa Monica,,90401,US
Las Vegas,NV,89119,US
Atlanta,GA,30305,US
Los Angeles,CA,90089,US
Rowlett,TX,75089,US
Pittsburgh,PA,16046,US
London,Gt Lon,WC2R 0RN,GB
Maplewood,MN,55109,US
New York,NY,11377,US
Seattle,WA,98101,US
Boston,MA,2115,US
Plymouth,MN,55441,US
London,Gt Lon,E2 8AA,GB
Ventura,CA,93001,US
Arlington,,22201,US
,,,
Jacksonville,FL,32224,US
Houston,TX,77082,US
Pensacola,FL,32514,US
Dallas,TX,75254,US
,,,
Pt Pleasant Boro,NJ,8742,US
Tulsa,OK,74135,US
Edmonton,AB,,CA
Oakland,CA,,US
Dallas,TX,75215,US
Worcester,MA,1604,US
,,,
Bonney Lake,WA,98391,US
,,,
Nottingham,Notts,NG1 2DT,GB
North Olmsted,OH,44070,US
Washington,DC,20001,US
Purcellville,VA,20132,US
Philadelphia,PA,19151,US
Southend-on-Sea,Southend-on-Sea,SS0 0BJ,GB
Honolulu,HI,96813,US
South Bend,IN,46615,US
Wood Dale,IL,60191,US
New York,NY,10012,US
Washington,DC,20006,US
Hollywood,CA,90028,US
New York,NY,10011,US
Philadelphia,PA,,US
Chicago,IL,60611,US
,,,
Atlanta,GA,30306,US
Southend-on-Sea,Southend-on-Sea,SS1 1DG,GB
Los Angeles,CA,90027,US
Scottsdale,AZ,85255,US
Cheyenne,WY,82001,US
San Diego,CA,92109,US
,,,
San Francisco,CA,94103,US
New York,NY,10036,US
Kalamazoo,MI,49008,US
Toronto,Ontario,,CA
Antioch,CA,94509,US
Oakland,CA,94602,US
Plymouth,MI,48170,US
,,,
San Diego,CA,92101,US
Middleton,WI,53562,US
Memphis,TN,38103,US
Santa Cruz,CA,,US
Milpitas,CA,95035,US
Markham,Ontario,L3R 5X5,CA
Memphis,TN,38018,US
,,,
San Francisco,CA,94105,US
Denver,CO,80206,US
Cripple Creek,CO,80813,US
Honolulu,HI,96813,US
Warrington,PA,18976,US
Arlington,VA,,US
Rickmansworth,Hertford,WD3 1QN,GB
Nashville,TN,37209,US
Fairfax,VA,22030,US
Mexico City,D.F.,6000,MX
Chicago,IL,60606,US
New Orleans,LA,70114,US
,Singapore,427990,SG
,,,
Calgary,Alberta,T2R 0G9 ,CA
San Francisco,CA,94109,US
New Orleans,LA,70130,US
Winnipeg,MB,R3B 1M3,CA
Kiev,Kyiv city,,UA
Los Angeles,CA,90067,US
Grand Rapids,MI,49503,US
Brookfield ,CT,,US
Cancún,QROO,,MX
,,,
Singapore,Singapore,409961,SG
Chicago,IL,,US
Richmond,VA,23220,US
Grand Rapids,MI,,US
Crows Nest,New South Wales,,AU
San Diego,CA,92037,US
Plano,TX,75075,US
Dewhurst,WI,54456,US
York,York,YO23 3FT,GB
Montreal,QC,H3B 4C9,CA
Vancouver,,,CA
Des Moines,IA,50314,US
"Phoenix, AZ",,,US
Austin,TX,78702,US
London,London,WC1A 1EP,GB
Baton Rouge,LA,70809,US
Decatur,GA,30034,US
,,,
Houston,TX,77002,US
San Francisco,CA,94109,US
Denham Springs,LA,70706,US
Portland,OR,97209,
Cleveland,OH,44115,US
Buenos Aires,Argentina,,AR
Londonderry,Derry,SW10 0DR,GB
Glendale,CA,91203,US
Pergine Valsugana,Trentino-Alto Adige,38057,IT
Leeds,England,ls7 4lt,GB
,,,
Darlington,NSW,2006,AU
Raleigh,NC,27606,US
Malaga, WA, 6090 ‎,AU
Bristol,"Bristol, City Of",BS8 1UB,GB
Cranford,NJ,7016,US
Middletown,DE,19709,US
Lake Charles,LA,,US
Surrey,BC,V3S 5M8,CA
,,,
Newport News,,23605,US
Westbrook,CT,6498,US
Gainesville,FL,FL,US
Lexington Fayette,KY,40504,US
Columbus,OH,43210,US
Dublin,Dublin,,IE
Berlin,Berlin,12043,DE
Vancouver,British Columbia,,CA
Grand Pré,NS,B0P 1M0,CA
Giddings,TX,78942,US
,,BT1 4QG,
Mansoura,Nicosia,35511,CY
,,7065,
Santa Clara,CA,95054,US
Bournemouth,Dorset County,BH1,GB
Wellesley,MA,2482,US
Kampala,Kampala,,UG
Fargo,ND,58103,US
Secaucus,NJ,,US
Vancouver,British Columbia,V6C 2X1,CA
Universal City,CA,91608,US
Los Angeles,CA,90036,US
,,,
New York,NY,10001,US
Menomonee Falls,WI,53051,US
,,,
Indianapolis,IN,46220,US
Atlanta,GA,30313,US
Singapore City,Singapore City,,SG
Seattle,WA,98109,US
Croydon,Surrey,CR9 4LT,GB
London,England,NW1 4SA,GB
,,,
Lake Mary,FL,32746,US
San Jose,CA,,US
Johor Bahru,Johor,80300,MY
Smyrna,GA,30080,US
Loveland,CO,80538,US
Providence,RI,2904,US
Bath And North East Somerset,,BA2 7BJ,GB
Fremont,CA,,US
,,,
Clarksburg,MD,,US
Birmingham,West Mids,B34 7HR,GB
Vancouver,BC,V6R,CA
Austin,TX,78758,US
Atlanta,GA,,US
Los Angeles,CA,90028,US
Dallas,TX,75206,US
Portland,OR,97204,US
,,,
Auburn Hills,MI,,US
Rotherham,South York,S61 4JW,GB
Montreal,Quebec,H1N 1C1,CA
Culver City,CA,90232,US
Seattle,WA,98188,US
Los Angeles,CA,90036,US
,,,
Washington,DC ,20003,US
Chicago,IL,60653,US
Toronto,Ontario,,CA
Belfast,County Antrim,BT7 1JQ,GB
,,E1 1DU,
Sacramento,CA,95818,US
St. Louis,MO,63103,US
Liskeard,Cornwall,PL14 6BW,GB
New York,NY,10023,US
Boston,MA,2116,US
,,,
Lunenburg,NS,B0J 2C0,CA
Dublin,Dublin,14,IE
New York,,,US
Boling,Texas,77420,US
London,England,W1W 5PN,GB
Charlotte,NC,28202,US
Dunwoody,GA,30346,US
Dallas,TX,75208,US
VEGUITA,NM,87062,US
Ultimo,NSW,2007,AU
,,,
9623393,,NN1 4AZ ,
Chicago,IL,60642-2396,US
Elk Grove Village,IL,60007,US
Palo Alto,CA,94303,US
,,,
Göteborg,Vastra Gotaland,41501,SE
Ciudad de México,D.F.,6500,MX
Columbia,MD,21045,US
Stafford,VA,22554,US
Waterloo ,NSW,2017,AU
,,,
Wyomissing,PA,19610,US
West Hollywood,CA,90069,US
Melbourne,Victoria,3052,AU
Thornbury,England,BS35,GB
Manila,Manila,,PH
Hong Kong,New Territories,,HK
Chicago,IL,60603,US
Long Island City,NY,11101,US
Flintshire,,CH5 2HX ,GB
San Francisco,CA,94102,US
Vista,,,US
Sidney,OH,45365,US
Seattle,WA,98101,US
Indianapolis,IN,46202,US
,,,
Saint Paul,MN,55443,
,,,IT
Atlanta,GA,30313,US
Kent,Gt Lon,BR3 5HS,GB
Tucson,AZ,85706,US
Cambridge,MA,2142,US
,,,
Cranbury,NJ,8512,US
,,,
Los Alamitos,CA,90720,US
New York,NY,10004,US
Cape Town,Western Cape,7708,ZA
Canoga Park,,91304,US
Brighton And Hove,,BN1 1GE‎,GB
Washington,DC,20052,US
Philadelphia,PA,,US
New Orleans,LA,70130,US
Houston,TX,77241,US
Nashville,TN,,US
Sharon,MA,2067,US
Drysdale,VIC,3222,AU
New Orleans,LA,70113,US
,,,
Lombard,IL,60148,US
Pennington,NJ,8534,US
San Jose,CA,95112,US
Fall River,MA,2723,US
Cincinnati,OH,45249,US
Apple Valley,MN,55124,US
Denver,CO,80210,US
Colorado Springs,CO,80907,US
New York,NY,10003,US
Richmond,BC,V7C 4N1,CA
Melbourne,Victoria,3188,AU
,,,
Collaroy,New South Wales,2099,AU
,,,
Los Angeles,CA,90064,US
Montgomery,AL,36104,US
Louisville,KY,40202,US
,,,
,,,
Dallas,TX,75228,US
,,,
Brighton,The City of Brighton and Hove,BN2,GB
Vaughan,ON,,CA
,London,W2 3NS,GB
New York,NY,,US
Sydney,NS,B1P 1C6,CA
Toronto,ON,M4W 3C7,CA
Brisbane,Queensland,4101,AU
Antwerpen,Flemish Region,2100,BE
Dallas,TX,75236,US
Gothenburg,Västra Götaland County,41107,SE
Mesa,AZ,85202,US
Los Angeles,CA,90013,US
London,Gt Lon,EC2M,GB
Galloway,NEW JERSEY,8205,US
London,England,EC2A 3QR,GB
Washington,DC,20515,US
New York,NY,10018,US
Austin,TX,78735,US
London,Gt Lon,SE1 7UT,GB
Appley Bridge,England,WN6 9EP,GB
Coral Gables,FL,33134,US
Rocky Mount,NC,27804,US
Athens,TX,,US
NY,NY,,US
New York,NY,10022,US
Beverly Hills,CA,90210,US
Boston,MA,2114,US
,,,
Houston,TX,77056,US
Rochelle Park,NJ,7662,US
Oakland,CA,94608,US
New Braunfels,TX,78130,US
Rancho Santa Fe,CA,92067,US
Los Angeles,CA,90048,US
Ottawa,ON,K1S 5R5,CA
Kamarkundu,,712407,
Atlanta,GA,30303,US
Coplay,PA,18037,US
Corbin,KY,40701,US
St. Paul,MN,55102,US
Montréal,QC,H1Z 4P3,CA
Washington,DC,20057,US
Jersey City,NJ,7302,US
New York,NY,10036,US
,,,
Howell,MI,48843,US
Belton,MO,64012,US
San Clemente,CA,92673,US
St Petersburg,FL,33709,US
Nampa,ID,,US
Barneveld,NY,13304,US
,,,GB
The Mandarin Oriental Hotel ,New York,,US
Accra,Greater Accra,233,GH
Minneapolis,MN,55435,US
Casablanca ,Grande Casablanca,2222222,US
,,,
,,,
San Francisco,CA,94107,US
Quezon City,NCR,,PH
San Francisco,CA,94108,US
Oxford,England,,GB
New York,NY,,US
,,,
Boston,Massachusetts,,US
Washington,DC,20007,US
Winnipeg,Manitoba,R3H 0G3,CA
Burbank,CA,91505,US
Santa Monica,CA,90401,US
,,2308,
Charlotte,NC,28202,US
Phoenix,AZ,85012,US
Chicago,IL,60611,US
Long Beach,NY,,US
Fresno,CA,93704,US
,,,
,,,
Santa Cruz,CA,95060,US
Vancouver,BC,V6B 1G8,CA
Pullman,WA,,US
Liverpool,England,L3,GB
Beverley,East Riding of Yorkshire,HU17 8QG,GB
Boston,MA,2199,US
,,,
Spalding,Lincolnshire,PE11 2XE,GB
Orangeville,ON,L9W 1J7,CA
Orcutt,CA,93455,US
Oradell,NJ,7649,US
College Park,,,US
Bakersfield,CA,93309,US
Austin,TX,78701,US
,,,
PERNUMIA,PD,35020,IT
,,,
,,,
Brussels,Brussel Hoofdstedelijk Gewest,1020,BE
Antibes,,,FR
Las Vegas,NV,89101,US
Fort Myers,FL,33966,US
Sydney,NSW,2000,AU
Kalamazoo,MI,49007,US
Brooklyn,NY,11217,US
Longvalley ,SD,,US
Atlanta,GA,30327-3009,US
Newtown,NSW,2042,AU
Raleigh,NC,27603,US
Gonzales,LA,70737,US
Everett,WA,98201,US
Olney,IL,62450,US
Raleigh,NC,27607,US
Los Angeles,CA,90013,US
Toronto,ON,,CA
London,London,WC2N 5,GB
London,,,GB
Canterbury,VIC,3126,AU
,,,
New York,NY,10027,US
Rigaud,QC,J0P,CA
,,,
Suitland,MD,20746,US
,,,
Amsterdam,Noord Holland,,NL
London,Gt Lon,EC3V 3ND,GB
New York,NY,,US
London,,E1 1JQ,GB
Clarksville,MD,21029,US
Chicago,IL,60621,US
Philadelphia,PA,19107,US
Portland,OR,97209,US
Essex Junction,VT,5452,US
Miami Beach,FL,33140,US
,,,
Bristol,England,BS16 1QY,GB
Milton,LA,70508,US
,Essex,SS13 1DQ,GB
Canberra,Australian Capital Territory,,AU
New York,NY,11369,US
,,,
Richmond,VA,23284,US
Evans,GA,30809,US
Tottenham,England,N15 4,GB
Rosemead,CA,91770,US
Toronto,ON,M6K,CA
Santa Fe,NM,87501,US
Milwaukee,WI,53201,US
Sacramento,,95814,US
New York,NY,10023,US
New Rochelle,NY,10801,US
North Hollywood,CA,91601,US
Xochitepec,Morelos,62790,MX
Pendleton,IN,46064,US
Roseville,CA,,US
Bridgewater,NS,B4V 1B4,CA
Concord,CA,94518,US
Perrysburg,OH,43551-2451,US
Vienna,VA,22180,US
London,City of London,EC1A 9PT,GB
Denver,CO,80110,US
,Campania,80142,IT
,London,EC1V 0HB,GB
Toronto,ON,,CA
New York,NY,10036,US
San Francisco,CA,94103,US
San Mateo,CA,94402,US
Berkeley,CA,94720,US
Ellicott City,MD,21043,US
Burnaby,British Columbia,V5A 2H5,CA
Wilmington,DE,19801,US
Leeds,Leeds,LS6 1SN,GB
Naperville,IL,60540,US
Huntington Park,CA,90255,US
Miami,FL,33130,US
Matteson,IL,60443,US
,,,
Greensboro,NC,85233,US
,Quebec,H3B 2L7,CA
Virginia Beach,VA,23462,US
Cambridge,MA,2139,US
New York,NY,10010,US
Nantes,Pays de la Loire,44003,FR
Washington,DC,20001,US
Liverpool,,L3 1BG,GB
Dallas,TX,75206,US
,,,
San Francisco,CA,94103,US
Southend-on-Sea,England,SS2,GB
,IL,60160,US
West Hollywood,CA,90069,US
,,,
Houston,TX,,US
Brooklyn,NY,11201,US
Franklin Square,NY,11010,US
,,,
New York,NY,10003,US
Liverpool,England,L3 5UL,GB
Cupertino,,,US
Newstead,QLD,4006,AU
,,,
Vrbnica,,7216,SK
,CA,,US
,,,
Cromford,Derbyshire,DE4,GB
Conway,AR,72034,US
Montréal,QC,H2L 0A4,CA
Palmdale,NSW AUSTRALIA,2258,US
Charlotte,NC,28205,US
Woodstock,GA,30188,US
Lima,,,
,,,
Alameda,CA,,US
Charleston,SC,29492,US
Miami,FL,33161,US
,,,
Brighton,East Sussex,BN1 4GQ,GB
Atlanta,GA,,US
New York,NY,10011,US
Hale,Gt Man,WA14 3HP,GB
,Dorset,BH2 5BH,GB
Irwindale,CA,91706,US
Bronx,NY,10457,US
Dublin,Dublin City,Dublin 1,IE
Mountain View,CA,94043,US
New York ,NY ,10018,US
Bristol,,BS4 1NL,GB
Minneapolis,MN,55415,US
Centennial,WY,82055,US
,,,
South Padre Island,TX,78597,US
,,817-329-6917,
Seattle,WA,,US
Sydney,New South Wales,2000,AU
Brighton,The City of Brighton and Hove,BN1 4AJ,GB
Chicago,IL,60611,US
,,,
Los Angeles,CA,90012,US
Amsterdam,Noord Holland,,NL
,,2478,
Vizag,AP,,IN
Lee&#039;s Summit,MO,64063,US
,,Zip/Postal,
Odenton,MD,,US
New York,NY,10025,US
Malibu,CA,,US
London,Gt Lon,SE10 0DX,GB
Grandville,MI,49418,US
,,,
Darlington,,DL1 1RR,GB
,,NW1 5LS,GB
Baltimore,MD,21218,US
Boston,MA,2111,US
Tavares,FL,32778,US
Augusta,GA,30901,US
Shoreline,WA,98133,US
Lodi,CA,95240,US
Mississauga,,L5E 1E4,CA
Jenks,OK,74037,US
Jackson,MS,39204,US
Pittsburgh,PA,15217,US
Springfield,OR,97477,US
Salt Lake City,UT,84106,US
Caroline Springs,,3023,
Austin,TX,78701,US
Swansea,IL,SA1 6JY,US
Zaragoza,,,ES
Douglasville,GA,30134,US
Haverhill,MA,1830,US
Detroit,MI,48213,US
Hockenheim,BW,68766,DE
Aix En Provence,,,FR
State College,PA,16801,US
Chicago,IL,60617,US
San Diego,CA,92103,US
Wickenburg,AZ,,US
Pasadena,CA,91101,US
,,,
,,,
Henderson,NV,89011,US
Pittsburgh,PA,15220,US
Bridgeton,MO,63044,US
Toronto,,M1T 3G2,CA
Las Vegas,NV,89154,US
London,London,,GB
Grove City,,16127,US
,,N112BS,GB
Sacramento,CA,95814,US
Riverside,CA,92506,US
Austin,TX,78758,US
Mars,PA,16046,US
Springfield ,VA,22151,
Milano,Lombardia,20157,IT
Atlanta,GA,30318,US
Arlington,VA,22204,US
Huntington Station,NY,11746,US
New York,NY,10019,US
Hampton,VA,23666,US
West Milford,NJ,7480,US
Fairfax,VA,22033,US
San Francisco,CA,,US
,,,
Vancouver Bc Canada,,,
Torrance,CA,90503,US
Los Angeles,CA,90013,US
,,,
London,ON,N6A3K7,CA
STUDIO CITY ,CA,91604,US
San Diego,CA,92115,US
London,London,NW4 4BT,GB
Noosaville,QLD,4566,AU
,,,
Redwood City,CA,94063,US
Irvine,CA,92697,US
Boonville,MO,65233,US
Inverness,Highld,IV1 1DX,GB
Macquarie Park,NSW,2113,AU
Atlanta,GA,30340,US
San Jose,CA,95112,US
Philadelphia,PA,19120,US
Cheltenham,Gloucestershire,GL51 6PN,GB
,Distrito Federal,14380,MX
Fallowfield,Greater Manchester,M14 6ZT,GB
Albuquerque,NM,87106,US
Hindmarsh,SA,5007,AU
,Lagos,,NG
Arlington ,TX,76101,US
Chicago,IL,60642,US
Huddersfield,Kirklees,HD1 3DH,GB
Woodside,CA,94062,US
Orlando,FL,32807,US
New Brunswick,,8901,US
Shakopee,MN,55379,US
Toronto,ON,,CA
Washington,DC,20009,US
Bradford,England,BD1,GB
Seattle,WA,98101,US
London,London,NW5 2AE,GB
Houston,TX,77005,US
Brooklyn,NY,11201,US
Bellevue,WA,98004,US
Uttoxeter,Staffordshire,ST14 8BD,GB
,,,
England,,WC1E 6BT,GB
Miami,FL,33131,US
Grange over Sands,Cumbria,LA11 6LE,GB
Warsaw,,,PL
Indianapolis,IN,46256,US
,,,
,Walloon Region,4000,BE
New York,NY,10001,US
,,,
Arlington,VA,22207,US
Vacaville,CA,95687,US
Roswell,NM,,US
Chicago,IL,60611,US
,,34491,
Houston,TX,77004,US
Ottawa,ON,K2L 2L2,CA
 Douglas,Isle of Man,,IM
London,Gt Lon,SW1V,GB
South Windsor,CT,6074,US
,,,
Atlanta,GA,30316,US
,,,
Salt Lake City,UT,84106,US
,,,
,,,
Wilmington,DE,DE,US
Woodland Park,CO,80863,US
Brooklyn,NY,11228,US
Harrogate,North Yorkshire,HG1 1SP,GB
Richmond,VA,23219,US
Chicago,,60655,US
Milan,Lombardia,20124,IT
Chilliwack,British Columbia,,CA
Princeton,NJ,8540,US
Vancouver,British Columbia,V5T 4T5,CA
,,,
,,,
Philadelphia,PA,19104,US
New York,NY,10019,US
Marietta,GA,30067,US
Kansas City,MO,64129,US
,Texas,75201,US
,,,TD
Bristol,England,BS1,GB
Brighton,East Sussex,BN1 1RH,GB
San Francisco,CA,,US
,,WC2B 5DA,GB
,,,
Columbia,TN,38401,US
,WA,6019,AU
Geelong,VIC,3220,AU
Hollywood,CA,90038,US
Cincinnati,OH,45219,US
Charlotte N,,28227,
Toronto,Ontario,,CA
,,,
Ottawa,ON,K1R 6H4,CA
Chicago,IL,60604,US
Upper Marlboro,MD,20772,US
,,,
Normal,IL,61761,US
Louisville,KY,,US
London,,,GB
Milton Keynes,Buckinghamshire,MK17 8LU,GB
Boston,MA,2467,US
,,,
Greenville,SC,29601,US
,VIC,3000,AU
,,SW9 7AY,GB
Phoenix,AZ,85008,US
,Gt Lon,EC2A 2BB,GB
New York,NY,,US
,,,
Feira De Santana,Bahia,,BR
Victoria,BC,V8N 5R3,CA
,,,
Culver City,CA,,US
Newport Beach,CA,CA,US
San Francisco,CA,94105,US
Liverpool,Merseyside,L1 4LN,GB
New York,NY,10009,US
St. Augustine,FL,,US
Palo Alto,CA,94304,US
Philadelphia,PA,19102,US
Walnut Creek,CA,94596,US
,,,
Brighton,The City of Brighton and Hove,BN1,GB
London,Gt Lon,W1G 9LQ,GB
Natick,MA,1760,US
Hayward,CA,94541,US
San Francisco,CA,,US
San Diego,CA,92101,US
Pleasanton,CA,,US
Palo Alto,CA,,US
Loughborough,Leics,LE11,GB
,,,
Dearborn,MI,48126,US
Denver,CO,80237,US
College Park,MD,20742,US
Santa Barbara,CA,93101,US
,,,
,,82551,
Miami,FL,33157,US
,,,
Silver Spring,MD,20910,US
,,,
London,Greater London,E8 4AA,GB
Seattle,WA,98133,US
,,,
London,Greater London,H7,GB
London,,NW1 2NB,GB
Kansas City,MO,64145,US
San Francisco,CA,94105,US
Grand Rapids,MI,49503,US
Reserve La ,,70084,
Clemmons,NC,27012,US
Dallas,TX,75220,US
Los Angeles,,90012,US
,,,
,,,
Harrisburg,,17101,US
New Orleans,LA,70130,US
Brisbane,QLD,4000,AU
Palo Alto,CA,,US
London,England,,GB
Hamburg,HH,20457,DE
Lancaster,PA,17603,US
Norwood South Australia,,5067,
Glasgow,Glasgow City,G20 6NQ,GB
Berkeley,CA,94709,US
London,,SE3 0RW,GB
Brooklyn,NY,,
Lakewood Ranch,FL,34211,US
,,,
Chicago,IL,60654,US
Bracknell,Bracknell Forest,RG12 1DF,GB
Vienna,Vienna,,AT
,,ME1 1LN,
City of Industry,CA,91746,US
Los Angeles,CA,90025,US
,Gt Lon,WC1A 1BH,GB
Minneapolis,MN,55403,US
Central City,PA,15926,US
Visalia,CA,93292,US
,,,
Denver,CO,80227,US
,,,
Greenville,SC,,US
Boston,MA,2215,US
Syracuse,NY,13210,US
Atlanta,GA,30303,US
Wichita,KS,67209,US
San Antonio,TX,78205,US
Cincinnati,OH,,US
San Francisco,CA,94109,US
Pawleys Island,SC,,US
New York,NY,10118,US
Studio City,CA,91604,US
Santa Monica,CA,,US
Orlando,FL,32801,US
Dakota Dunes ,SD,57049,US
,,BA6 8DH,
Tampa,FL,33607,US
Melbourne,Victoria,3000,AU
Charlotte,NC,28207,US
Kennesaw,GA,30144,US
Milano,Lombardia,,IT
Washington ,DC,,US
Seattle,WA,98122,US
Chicago,IL,60604,US
,,,
Riverhead,NY,11901,US
,,,SG
Paris,IdF,75003,FR
Paramus,NJ,7652,US
Mountain View,CA,94043,US
Chicago,IL,60654,US
Bronx,NY,10459,
San Juan Puerto Rico,,725,
Toronto,Ontario,M5J 2H5,CA
Bethesda,MD,20814,US
Galway,Galway,,IE
,,,
,,,
,,,
Las Vegas,NV,89109,US
OXFORDSHIRE,England,OX1 4AS,GB
Boston,MA,2116,US
Toronto,Ontario,M4M 2P2,CA
,,,
Tauranga,Tauranga,,NZ
Los Angeles,CA,90006,US
Washington,DC,20005,US
Schaumburg,,60173,US
Oakland,CA,94612,US
Miami,FL,33125,US
Austin,TX,78703,US
Anderson,CA,96007,US
Columbia,MD,21044,US
London,Herts & London,,GB
Berkeley,CA,94709,US
,,,
,,,
Purcellville,VA,20132,US
,,,
Saint Louis,MO,63103,US
Philadelphia,Pennsylvania ,Z19139ip/Pos,US
Troy,NY,12180,US
Canberra,Australian Capital Territory,200,AU
Toronto,ON,M5S 1W4,CA
New Orleans,LA,,US
New York,NY,,US
Pinner,Gt Lon,HA5 4JN,GB
,,,
Sint-Truiden,Flanders,3800,BE
Madison,WI,53706,US
Leeds,Leeds,LS1 5AP,GB
,,,
Cincinnati,OH,45208,US
,,,
Lansing,MI,48912,US
Altadena,CA,91001,US
Sachse,TX,,US
Clovis,CA,93612,US
Albuquerque,NM,87105,US
,,,
Fairbanks,AK,,US
San Francisco,CA,94107,US
Forest Hill,MD,21050,US
Verona,NY,13478,US
Raleigh,NC,27608,US
Matthews,NC,28105,US
Montreal,QC,H2L 2G2,CA
Washington,DC,20005,US
Springfield,IL,62704,US
Washington,DC,20045,US
Garland,TX,75044,US
,,,
Tulsa,Oklahoma,74107,US
,,,
Randallstown,MD,21133,US
Duncanville,TX,75116,US
Indianapolis,IN,46240,US
Geelong,VIC,3220,AU
,,,
Memphis,TN,38115,US
Indianapolis,IN,46204,US
Boulder,CO,80302,US
Cambridge,MA,2142,US
7798638,,DN34 5BQ,
Concord,NSW,2137,AU
,,,
Tampa,FL,33610,US
Atlanta,GA,30311,US
Bristol,England,BS1,GB
Atlanta,GA,30342,US
Nags Head,NC,27959,US
Somerville,MA,2144,US
Brisbane,Queensland,,AU
Pittsburgh,PA,15222,US
Sunbury,Middlesex,TW16 5QF,GB
London,Gt Lon,EC2A,GB
St Charles,MO,63303,US
Brooklyn,NY,11216,US
Northbrook,IL,60062,US
Baltimore,MD,21213,US
Charlotte,NC,28210,US
Nashville,TN,37203,US
Madison,WI,53703,US
Sacramento,CA,95834,US
Montreal,QC,H2J 1M3,CA
Boca Raton,FL,33433,US
Norfolk,VA,23504,US
Boston,MA,2210,US
Atlanta,GA,30331,US
Souderton,PA,18964,US
New York,NY,,ZM
Cambridge,MA,2142,US
Hartford,CT,6105,US
Denver,CO,80218,US
Washington,DC,20036,US
Detroit,MI,48226,US
Kansas City,MO,64110,US
Richmond Hill,GA,V6X 3P8,US
,,,
Tampa,FL,33602,US
Lake Forest,CA,92630,US
Philadelphia,PA,19106,US
Raleigh,NC,27609,US
Folsom,CA,95630,US
Palaiseau,IDF,91120,FR
Los Angeles,CA,90045-5614,US
Sugar Land,TX,77479,US
,,,
Washington,DC,20003,US
London,,,GB
Houston,TX,77072,US
,England,SE10,GB
,,,
Barcelona,CT,8026,ES
Charlotte,NC,28202,US
Swansea,South Wales,SA4 9HN,GB
Sydney,NSW,2000,AU
Melbourne,Victoria,3000,AU
,,,
London,Greater London,EC4A 1DE,GB
Cleveland,OH,44113,US
Siracusa,Italia,96017,IT
,,,
Lake Forest,CA,92630,US
East Brunswick,NJ,8816,US
New York,NY,10011,US
,,,
San Francisco,CA,94110,US
Hanover,MD,20716,US
Milano,Lombardia,20127,IT
Fort Collins,CO,,US
Pasadena,CA,91105,US
Sun City,AZ,85373,US
Houston,TX,77027,US
Rome,Lazio,153,IT
San Juan Capisrano,CA,92675,US
San Francisco,CA,94103,US
Weston-Super-Mare ,North Somerset,BS23 2AL,GB
,,,
Alexandria,VA,22309,US
Lakeside,CA,,US
Hartford,CT,,US
Fresno,CA,93711,US
,,,
,,,
Boston,MA,2115,US
Santa Cruz,CA,95062,US
Kissimmee,FL,34744,US
Atlanta,GA,30363,US
Asheville,NC,,US
Montreal,QC,H3A 1L6,CA
San Francisco,CA,94105,US
Jim Thorpe,PA,18229,US
New York,NY,10003,US
,,,US
Hamilton,NEW SOUTH WALES,2303,US
,,EC4A 3TW,
Saratoga Springs,NY,12866,US
,,,
San Jose,CA,95113,US
Annapolis,MD,21401,US
Charlotte,NC,28217,US
Honolulu,HI,96814,US
Columbia,TN,38401,US
Lansing Charter Township,MI,48906,US
,,,
Sleat,Highland,IV44 8RQ,GB
London,London,NW1 8AH,GB
Gulfport,MS,,US
,,,
Ottawa,Ontario,,CA
Palm Springs,,92262,US
Athens,OH,45701,US
Irving,TX,75063,US
Chicago,IL,60611,US
,,,
Atlanta,GA,30331,US
Charleston,SC,29412,US
Manly,NSW,2095,AU
Bogota,,,CO
,,,
San Francisco,CA,94133,US
,,,US
Hackney,KS,N15 4DQ,US
Sandy Springs,GA,30350,US
,,,
,,,
Philadelphia,PA,19107,US
Torrance,CA,90503,US
Atlanta,GA,30308,US
Wilmington,DE,0,US
Ottawa,Ontario,K1Y-2X5,CA
Houston,TX,77031,US
Oakland,CA,94612,US
Nantes,,44000,FR
Toronto,ON,,CA
Mississauga,ON,,CA
Mexico City,Distrito Federal,,MX
,,,
Ontario,CA,91764,US
Canton,OH,6019,US
Houston,TX,77024,US
Redfern,NSW,2016,AU
,,,
Chattahoochee,FL,32324,US
San Antonio,TX,78205,US
Chicago,IL,60607,US
,,,
New York,NY,10003,US
Telford,Telford And Wrekin,tf2 9ft,GB
Santa Barbara,CA,93109,US
Paris,IDF,75013,FR
Greensboro,NC,27406,US
,,SW1A 0AA,GB
Austin,TX,78758,US
New York,NY,11233,US
Rock Springs,,,US
New York,NY,10018,US
Chicago,IL,60607,US
Washington,District of Columbia,20016,US
Washington,,,US
Belo Horizonte,MG,,BR
Caracas,Dto. Capital,,VE
Toronto,Ontario,M5B2K3,CA
,,,
Kansas City,MO,64106,US
Exeter,Devon,EX4 3SR,GB
,,Australia,
,,,
,,,
Oakland,CA,94607,US
New York,NY,10039,US
Leeds,West Yorkshire,LS11 9QG,GB
Austin,TX,78701,US
Los Angeles,CA,90035,US
Bridgewater,MA,,US
El Paso,TX,79912,US
,,,
Bethesda,MD,,US
San Diego,CA,92106,US
Indianapolis,IN,46219,US
Deptford,Gt Lon,SE8,GB
Washington,DC,20009,US
,,,
Vienna,Wien,1020,AT
Indianapolis,IN,46203,US
,,CF10 1FE,
Toronto,Ontario,M5A 3C4,CA
Atlanta,GA,30308,US
Shepparton,Vic,3630,AU
,,28277,
Rochester,,14607,US
,,CA,
Nairn,Highld,IV12 4BQ,GB
Shelton,CT,6484,US
Boston,MA,2118,US
Bogota,Cundinamarca,,CO
Dallas,TX,75201,US
Guelph,ON,,CA
Leh,,,
Pretoria,Gauteng,,ZA
Sydney,New South Wales,2042,AU
Cape Town,WC,7806,ZA
Hampton,Greater London,TW12 3HD,GB
Oak Park,IL,60302,US
Roanoke,VA,24016,US
,,,
Washington,DC,20006,US
Denver,CO,80020,US
,,,
Milton Keynes,Buckinghamshire,MK7 6AA,GB
,,,
Sydney,New South Wales,2000,AU
Boulder Hill,IL,80302,US
,,,
Smyrna,GA,30082,US
Balmain,New South Wales,2041,AU
San Francisco,,,US
,,,
North Charleston,SC,29406,US
Oakland,CA,94602,US
,,74136,
Guelph,Ontario,N1G 2W1,CA
4150-702,,Porto,
Edmonton,AB,T6C 4S8,CA
San Francisco,NY,,USA
London,,W1T 7QG,GB
Covington,KY,41011,US
,,,SG
Columbia,,29212,US
Atlanta,GA,30313,US
Saint Petersburg,Saint Petersburg,,RU
Yarmouth,ME,4096,US
Longwood,FL,,US
Tempe,AZ,85282,US
Cedar Park,TX,78613,US
Linthicum,MD,21090,US
North Shields,T & W,NE30 1DS,GB
London,London,,GB
Maroochydore,Queensland,4558,AU
Columbus,OH,43210,US
Santa Clara,CA,95054,US
Irving,TX,75062,US
Dallas,TX,75225-3297,US
Hermosa Beach,CA,90254,US
London,London,,GB
London,London,WC1H 0AP ,GB
San Francisco,CA,94133,US
,,43219,
Chapel Hill,NC,27514,US
,,,
Aiea,HI,96701,US
Ashburn,VA,20147,US
Houston,Tx,77027,US
Ann Arbor,MI,48104,US
Norwich,Norfolk,NR3 1UB,GB
Roanoke,VA,24016,US
,,,
Dubai,Dubai,,AE
Richmond,VA,,US
Los Angeles,CA,90089-0871,US
Milano,Lombardia,,IT
,,,
London,London,WC1N 1HX,GB
Whistler,British Columbia,V0N 1B4,CA
Ayr,South Ayrshire,KA7 1LL,GB
Seattle,WA,98121,US
Sandy Springs,GA,30328,US
,,,
Saint Petersburg,Saint Petersburg,,RU
Boston,MA,2116,US
Santa Monica,CA,90401,US
Delft,Zuid Holland,2628 AL,NL
East Palo Alto,CA,94303,US
,,,
Flushing,MI,48433,US
Montreal,Quebec,,CA
Cleveland,OH,44106,US
Madison,WI,53703,US
Salt Lake City,UT,84101,US
Houston,TX,77030,US
London,England,EC1R 5DF,GB
Chicago,IL,60603,US
Phoenix,AZ,85016,US
Coral Gables,FL,33146,US
Pearl City,HI,,US
Boulder,CO,80304,US
,,,
Philadelphia,PA,19125,US
 New Orleans,Louisiana,70130,US
Memphis,TN,,US
,,,
San Jose,CA,,US
Orlando,FL,32819,US
New York,,10020,US
White Plains,NY,10601,US
Charlotte,NC,,US
Culpeper,VA,22701,US
Riverside,CA,92504,US
New York,NY,10017,US
,CO,,US
St Helens,England,WA10,GB
El Segundo,CA,90245,US
Bloomington,IL,61701,US
,,,
,,,
Stevenage,Hertfordshire,SG1 3EF,GB
New Orleans,LA,70125,US
San Francisco,CA,94133,US
,,,
Salt Lake City,,84115,US
Waltham,MA,2451,US
San Francisco,CA,94102,US
Darlington,Durham,DL1 1ND,GB
Chapel Hill,NC,27514,US
denver,co,,US
Boston,MA,2215,US
Ft Lauderdale,,33334,
Seattle,WA,98109,US
Seattle,WA,98115,US
Walnut Grove,MN,56180,US
,,,
Dallas,TX,75204,US
Toronto,Ontario,M4N2G9,CA
Atlanta,GA,30311,US
Smyrna,GA,30080,US
Cudahy,WI,53110,US
Kapaa,HI,96746,US
Chicago,IL,60619,US
,,,
Columbus,OH,43240,US
Milwaukee,WI,53212,US
Austin,TX,78744,US
Bedford,NH,3110,US
Honiton,Devon,EX14 4RW,GB
Honolulu,HI,96819,US
Berlin,Berlin,12053,DE
Detroit,MI,48206,US
,,BS1 6QH,GB
Los Angeles,CA,90014,US
Clarkston,Ga,30021,US
Mendocino,CA,95460,US
Dallas,TX,75237,US
Hartford,CT,6114,US
Chicago,IL,,US
Airdrie,AB,T4A 2H7,CA
New York,NY,11215,US
Decatur,GA,30030,US
New York,NY,10004,US
Atlanta,GA,30318,
Brooklyn,NY,11236,US
Cleveland,OH,,US
Austin,TX,78758,US
Cambridge,Cambridgeshire,CB2 3EJ ,GB
Shanghai,Shanghai,200031,CN
Grenchen,SO,2540,CH
Toronto,ON,,CA
,,,
New York,NY,,US
London,Gt Lon,N1 5JB,GB
Paris,IDF,75001,FR
Fort Washington,MD,,US
New York,NY,11201,US
Plainfield,CT,6374,US
San Francisco,CA,94104,US
Wiesbaden,HE,65183,DE
Sarasota,FL,34236,US
asdfasd,sdf,94132,CA
Fort Myers,FL,33912,US
tianjin,,300400,CN
Newport Beach,CA,92660,US
,,,
,,,
Portsmouth,VA,23704,US
London,City of Westminster,,GB
,,,
Lancaster,CA,93536,US
New Orleans,LA,70130,US
,,,
Washington,DC,20052,US
,,,
Meridian,ID,,US
Indianapolis,IN,,US
Elizabeth,NJ,7201,US
Atlanta,GA,30309,US
,,,US
Brooklyn,NY,11238,US
Nashville,TN,37201,US
Norwalk,CA,90650,US
Leeds,Leeds,LS11UR,GB
,,,
Singapore,,768928,SG
Ithaca ,NY ,14850,US
London,London Borough of Islington,N1 1LN,GB
,,,
San Francisco,CA,94102,US
,,,
Washington,DC,,US
Shoreview,MN,55126,US
Sydney,New South Wales,2010,AU
,,,
Chatsworth,CA,91311,US
Upper Marlboro,MD,20774,US
Iselin,NJ,8830,US
New York,NY,10022,US
Bangalore,Karnataka,560012,IN
,,,
Saint Petersburg,Saint Petersburg,,RU
Sacramento,CA,,US
Chilliwack,British Columbia,V2P 8G1,CA
Columbus,OH,43229,US
Kula,HI,96790,US
Albuquerque,,87106,US
Houston ,Tx ,,
,,,
Las Vegas,NV,89109,US
,,,
,Mari El Republic,,RU
Washington,DC,,US
,,,
,,,
Indianapolis,IN,46250,US
Tehran,Tehran,,IR
Aberdeen,Scotland,,GB
San Francisco,CA,,US
Salt Lake City,UT,,US
Miramar,FL,33025,US
,,,
Columbus,OH,,US
Memphis,TN,38107,US
Wheeling,IL,60090,US
Hohen Sprenz,MV,,DE
Tempe,AZ,85282,US
Philadelphia,PA,,US
Birmingham,West Midlands,B31 2TW,GB
Las Cruces,NM,88001,US
Kirkland,WA,98033,US
Vancouver,BC,V6Z 2B6,CA
Piobesi Torinese,Piemonte,,IT
Sydney,New South Wales,2000,AU
Honolulu,HI,96813,US
Redlands,CA,92374,US
Philadelphia,PA,19107,US
Bellevue,WA,98005,US
Northampton,,NN2 7AL,GB
San Diego,CA,92109,US
New York,NY,10016,US
Corvallis,OR,97330,US
,,,
,,,GB
Jupiter,FL,33477,US
Boulder,CO,80303,US
"Crown Center Amphitheatre, Independence",OH.,44131,US
Brooklyn,NY,11206,US
Indore,Madhya Pradesh,452005,IN
Asfordby,England,LE14,GB
Honolulu,HI,96813,US
Adelaide,SA,,AU
Santa Clara,CA,95050,US
Cheyenne,WY,82009,US
Birmingham,AL,,US
Mernda,Victoria,3754,AU
Lahore,Punjab,,PK
Fullerton,CA,92832,US
Indianapolis,IN,46222,US
Vancouver,BC,V6E 4J9,CA
Brussel ,,1120,
Pensacola,FL,32514,US
,Hertfordshire,AL3 7AF,GB
Adelaide,SA,5000,AU
,,,
Somerville,MA,2144,US
Quebec,Quebec,G1R 2B5 ,CA
Charlotte,NC,28202,US
Chicago,IL,60601,US
Edmonton,Alberta,T6C 4L8,CA
,,,
Edinburg,TX,78542,US
 Logan,UT,84341,US
London,Gt Lon,SE1 9LR,GB
Barco,NC,27917,US
Hollywood,FL,33020,US
Newcastle Upon Tyne,,NE1 4HF,GB
Orem,UT,84057,US
,,,US
Nuevo Laredo,TAMPS,,MX
Chicago,IL,60623,US
Avon,IN,46123,US
Davison,MI,48423,US
Taylor,MI,48180,US
Rotterdam,ZH,3012 CL,NL
Bologna,Emilia-Romagna,40136,IT
Chicago,,60647,US
Swarthmore,PA,19081,US
New York,NY,10014,US
,St Peter Port,,GG
Scottsdale,AZ,85253,US
New York,NY,10018,US
,,,GB
Auckland,Auckland,1010,NZ
Düsseldorf,NRW,40233,DE
Wentzville,MO,63385,US
Somerville,MA,,US
,,,
,,,
Amana,IA,52203,US
,,,
Covington,VA,24426,US
Atlanta,GA,30303,US
Blue Ash,OH,45242,US
New York,NY,10010,US
Indialantic,FL,32903,US
Toronto,Ontario,,CA
Los Angeles,CA,90012,US
,,,
Mt Eliza,Australia,3930,AU
Singapore,,560233,SG
,,,
St Paul,MN,55104,US
,,,
Palm Beach Gardens,FL,,US
Peterborough,ON,K9J 2K9,CA
Fond du Lac,WI,54935,US
Austin,TX,78750,US
,,,US
Warangal,Andhra Pradesh,,IN
Wauwatosa,WI,53213,US
Wilmington,DE,19801,US
Fishers,IN,46038,US
Melbourne,VIC,3000,AU
,,,RU
Miami,FL,33199,US
Sydney,NSA,2107,
Robina,QLD,4226,AU
Vaughan,ON,L4C,CA
Mullica Hill,NJ,8062,US
Springdale,,,US
Galena,IL,61036,US
Melbourne,Victoria,3052,AU
Vancouver,British Columbia,V6B 5K3,CA
,,,
Prosper,TX,75078,US
Tyne And Wear,,NE1 1SG,GB
London,Gt Lon,SW2 1AU,GB
"Orange,",CA,92867,US
Rochester,MN,55901,US
South Miami,FL,33143,US
Los Angeles,CA,90046,US
Vancouver,British Columbia,,CA
San Francsico,CA,94110,US
London,England,NW1 2FB,GB
,,658065,
Geneva,Geneva,1299,CH
Birmingham,,35203,US
New Delhi,Delhi,,IN
Peoria,AZ,85382,US
Clovis,CA,,US
,,,AU
Madrid,Community of Madrid,28039,ES
Rockwood,,N0B 2K0,CA
Atlanta,,30303,US
Portsmouth,NH,3801,US
Worcester,MA,,US
Cardiff,Cardiff,CF10 1BS,GB
Toronto,Ontario,,CA
Upper Marlboro,MD,,US
,EX,10680,ES
London,England,E1 6QL,GB
Austin,TX,78759,US
Mcdonough,GA,30253,US
Nr Halifax,,HX4 8LR,
Austin,TX,78701,US
Northbrook,IL,60062,US
Adelaide,SA,5000,AU
Scottsdale,AZ,,US
Los Angeles,CA,90033,US
Little Baddow,Essex,CM3,GB
New York,NY,10018,US
Blythewood,All of South Carolina,29016,US
Augusta,GA,30907,US
Ottawa,ON,K1P 5B4,CA
,,,
Edmonton,AB,T6G,CA
Chicago,IL,60642,US
Anvers,Région Flamande,5820,BE
Wauwatosa,WI,53213,US
New York,NY,,US
Newark,NJ,7102,US
McLean,VA,22102,US
Phoenix,AZ,,US
Orlando,FL,,US
,,,
Dublin,OH,43017,US
Lake Forest,CA,92630,US
Saratoga,CA,95070,US
Adelaide,SA,5000,AU
Brooklyn,New York,,US
Port Of Spain,Port Of Spain,,TT
Piscataway,NJ,,US
 San Francisco,CA,94102,US
Saddle Brook,NJ,,US
Holyoke,MA,1040,US
Bristol,City of Bristol,,GB
Sacramento,CA,95825,US
Amarillo,TX,79101,US
Portola Valley,CA,94028,US
London,Gt Lon,W4 5TS,GB
New Orleans,LA,70130,US
,,,
Framingham,MA,,US
,,,
Deerfield,IL,60015,US
Macomb,IL,61455,US
Geneva,IL,,US
Orlando,FL,32806,US
Hampshire,,GU51 2UZ,GB
New York,NY,10020,US
Dublin,Dublin,,IE
Chula Vista ,Ca,91910,
Lewiston,ID,83501,US
Ennis ,Tx,75119,US
Winter Park,FL,32792,US
Riverton,UT,84065,US
Portland,OR,97217,US
Melbourne,FL,32901,US
Chicago,IL,60630,US
Montreal,Quebec,H2Y 2Z9,CA
New York,NY,,US
Paterson,NJ,7501,US
Virginia Beach,VA,23454,US
Frenchtown,NJ,8825,US
San Antonio,TX,78219,US
London Borough of Hackney,England,EC2A 3AY,GB
Honolulu,HI,96815,US
Grand Cayman,,,KY
Houston,TX,77005,US
Toronto,Ontario,,CA
Auckland,Auckland,624,NZ
Ixelles,Brussels,1050,BE
London,Gt Lon,SE1 9DT,GB
Chicago,IL,60601,US
Chicago,IL,60613,US
,,,
San Antonio,,78216,US
Glasgow,Glasgow City,,GB
New York,NY,10012,US
San Diego,CA,92108,US
Wichita,KS,67210,US
Boston,MA,2116,US
,,,
,,EC2M 6UR,
Washington,DC,20006,US
Bozeman,Mt,59715,US
,,,
Atlanta,GA,30339,US
Huntington Beach,CA,92646,US
London,Greater London,WC2E 7DN,GB
San Francisco,CA,94102,US
Camarillo,CA,93012,US
Bethesda,MD,20814,US
New York,NY,10017,US
Sunnyvale,CA,94089,US
French Lick,IN,47432,US
London,London,E1 6LT,GB
San Francisco,CA,94107,US
,,,
Vancouver,BC,V6H 3S5,CA
Bundaberg ,QLD,4670,AU
Saint Paul,MN,,US
Hooton,,CH66 1QU,GB
Vancouver,BC,V6B 1L6,CA
Toowoomba,QLD,4350,AU
Leicester,,LE1 1SB,GB
Blacksburg,VA,24060,US
Boston,MA,,US
Niles,IL,60076,US
Sacramento,CA,95814,US
Philadelphia,PA,19125,US
Lexington,SC,29073,US
,,,
,,,
Birmingham,AL,35211,US
Potts Point,,2010,AU
New Orleans,LA,,US
Calgary,AB,,CA
Orlando,FL,,US
,,,
Worthington,OH,43085,US
Ensenada,BC,22785,MX
Glasgow,Glasgow City,G5 8JN ,GB
Orlando,FL,32811,US
Chicago,IL,60614,US
,,,
Helena,MT,59601,US
,,,
Cleveland,OH,44115,US
,,,
New York,NY,10010,US
Kota,RJ,,IN
,,,
,,96813,
Ontario,CA,91762,US
,,,
,,,
Milan,Lombardy,,IT
Milan,Lombardy,20123,IT
St. Louis,MO,63117,US
,,,
Strongsville,OH,44136,US
New York,NY,10467,US
Nsw Australia,,2776,
Kansas City,MO,64134,US
Mount Pleasant,SC,29464,US
Poteau,OK,74953,US
Los Angeles,CA,90045,US
Buffalo,NY,14218,US
Charlotte,NC,28209,US
(888) 236-2427,,,
Toronto,ON,M5C 2R9,CA
Washington,DC,20008,US
Mansfield,TX,76063,US
Orange,CA,92866,US
London,"London, City Of",WC1N 1HT,GB
Leicester,England,LE1,GB
Raleigh,NC,27616,US
Atco,NJ,8004,US
Charleston,SC,29409,US
Chesapeake,VA,23320,US
New York,NY,10018,US
Minneapolis,MN,55454,US
New Orleans,LA,70115,US
Munich,BY,80636,DE
Icel,Mersin Province,33140,TR
Neenah,WI,54956,US
,,EH99 1SP,GB
Delta,UT,84624,US
Buenos Aires,Distrito Federal,1900,AR
Irving,TX,75063,US
Alexandria,VA,22310,US
Verona,Veneto,37138,IT
University Place,WA,98466,US
Copenhagen,Copenhagen K,1455,DK
Paris,IdF,75012,FR
Melbourne,Victoria,3000,AU
Houston,TX,77042,US
Los Angeles,CA,90047,US
,,,
Seattle,WA,98107,US
Airdrie,AB,T4B 2W2,CA
,,,
Carlsbad,CA,92009,US
Sarasota,FL,34240,US
New York,NY,10001,US
Norwich,Norfk,NR7 0UB,GB
Beijing,,100044,CN
Los Angeles,CA,90028,US
Marietta,GA,30066,US
London,London,WC1H 9EF,GB
Toronto,ON,M5H 0A3,CA
Washington,DC,20018,US
New York,NY,10031,US
Bellevue,WA,98005,US
Atlanta,GA,30346,US
Jerez de la Frontera,"C/Platino, 12",11405,ES
Santa Monica,CA,90401,US
Orange,CA,92868,US
,,,US
San Francisco,CA,94103,US
,,,
Chicago,IL,60628,US
Omaha,NE,68182,US
,,,GB
Middlesbrough,Teeside,TS5 7JY,GB
St Louis Park,MN,55416,US
Utica,MI,48315,US
Copenhagen,Capital Region of Denmark,1256,DK
Mount Rainier,MD,20712,US
Buena Park,CA,90620,US
Dallas,TX,75244,US
Cape Coral,FL,33991,US
Weston,FL,33326,US
,,,
Minneapolis,MN,55415,US
Godo,Emilia-Romagna,48026,IT
Kennebunkport,ME,4046,US
Toronto,ON,M5A 1B6,CA
Salinas,CA,93908,US
Chicago,,60605,US
Tempe,AZ,85281,US
Belmont,CA,94002,US
Edinburgh,City of Edinburgh,EH6 6EX,GB
Sydney,New South Wales,2000,AU
Charleston,SC,29401,US
Washington,DC,20001,US
San Francisco,CA,94110,US
Lethbridge,AB,,CA
Brighton And Hove,,bn1 1we,GB
San Francisco,CA,94111,US
Brooklyn Park,MN,55445,US
Chicago,IL,60602,US
Houston,TX,77021,US
Lille,,59000,FR
Lynchburg,VA,24501,US
Smyrna,GA,30082,US
,,,
,,,
San Antonio,TX,78217,US
Chicago,IL,60605,US
,,,
Rocky River,OH,44116,US
Lemont,IL,60439,US
New Britain,CT,6052,US
Madison,WI,53703,US
Decatur,IL,62521,US
Wellington,Wellington,6011,NZ
Manchester,Greater Manchester,M14 4SQ,GB
Indianapolis,IN,46208,US
Southington,CT,6489,US
Cordova,TN,38018,US
Stamford,CT,6902,US
Breckenridge,CO,80424,US
,,,
Wilmington,DE,19801,US
Washington,DC,20010,US
New York,NY,,US
,,,
Madrid,Community of Madrid,,ES
Tampa,FL,,US
Purley,Gt Lon,CR8 1DP,GB
Lancaster,PA,17601,US
Orlando,FL,,US
Lane Cove North,NSW,2066,AU
Norfolk,VA,23517,US
Stanford,CA,94305,US
Dagenham,Barking And Dagenham,RM10 8PS,GB
Providence,RI,2912,US
Westminster,MD,21158,US
Knoxville,TN,37912,US
Minneapolis,MN,55415,US
Glenroy,Victoria,3046,AU
Boston,MA,2129,US
Oro-Medonte,Ontario,,CA
Montgomery,AL,,US
San Francisco,CA,94105,US
Paris,IDF,,FR
Ridgeland,MS,39157,US
Northcote,Victoria,3070,AU
New York,NY,10023,US
Farmers Branch,TX,75234,US
Houston,TX,77007,US
Ann Arbor,Michigan,48109,US
Brooklyn,NY,11215,US
New York,NY,10019,US
Morrisville,PA,19067,US
DUQUESNE,PA,15110,US
Redwood City,CA,94065,US
Bristol,"Bristol, City Of",BS1 2EL,GB
Tempe,AZ,85281,US
Linthicum Heights,MD,,US
,,,
Bronx,NY,,US
Varese,Lombardia,21100,IT
Spartanburg,SC,29306,US
Lake Worth,TX,76135,US
Burien,WA,98148,US
Madrid,Madrid,28006,ES
Mesa,AZ,85282,US
,,,QA
Farmington Hills,MI,48334,US
Irvine,CA,92618,US
New York,NY,10001,US
,,,
Atlanta,GA,30327,US
Albany,NY,12202,US
Antioch,CA,94509,US
Chicago,IL,,US
Saskatoon,Saskatchewan,,CA
Warwick,NY,10990,US
Henrico,VA,23233,US
San Francisco,CA,94110,US
New York,NY,11201,US
Hoeilaart,Flemish Region,1560,BE
Port Coquitlam,BC,,CA
Chicago,IL,60604,US
Piscataway Township,NJ,8854,US
Brooklyn,New York,11210,US
Bucharest,Bucharest,20961,RO
Swansea,Swansea,SA1 1DW,GB
New York,NY,,US
,Cork,,IE
Iowa City,IA,52246,US
Stowe,VT,5672,US
Knoxville,TN,37902,US
,,,
Airway Heights,WA,99001,US
Chicago,IL,60647,US
Airdrie,AB,T4B 2W2,CA
Toronto,ON,M5S 2R5,CA
,,,
,,,
Sainte-Julie,QC,J3E 1R3,CA
Cardiff,Wales,CF15 7QX,GB
Miami,FL,33131,US
Richmond Heights,MO,63117,US
Media,PA,19063,US
San Antonio,TX,78254,US
Sheffield,England,S1 2NS,GB
Tamarac,FL,33319,US
Foggia,Puglia,71121,IT
Stone Mountain,GA,30083,US
Sabadell,CT,8205,ES
Vancouver,BC,V6Z 2E7,CA
,,,
Las Vegas,NV,89117,US
,,,
Austin,TX,78702,US
,,,
Brentwood,CA,94513,US
,,,
Livingston,West Lothian,EH54 7EP,GB
Boiling Springs,NC,28152,US
Bethesda,MD,20814,US
Lyneham,Australian Capital Territory,2602,AU
Mt Juliet,TN,37122,US
Austin,TX,78704,US
,,,
Miami,FL,33136,US
Weymouth,Dorset,DT4,GB
Tulsa,OK,74145,US
Falls Church,VA,22046,US
Staten Island,NY,10303,US
Calgary,Alberta,T2J 3B3,CA
Chicago,IL,60654,US
Vienna,VA,22182,US
Scottsdale,AZ,85256,US
Wolli Creek,NSW,2205,AU
San Antonio,TX,78205,US
,Akershus,1420,NO
New York,NY,10011,US
Louisville,KY,40220,US
Morningside,QLD,,AU
,,,
Orange Couty,CA,,US
,,,
,,,
New York,NY,10110,US
Blue Springs,MO,64014,US
Dallas,TX,75204,US
,,,
Miami Beach,FL,33139,US
Lima,Lima,,PE
Pleasanton,CA,94588,US
London,ON,N6C 4P9,CA
Naperville,,,US
Pontiac,MI,,US
,,,
Indianapolis,IN,46237-8583,US
Southampton,England,SO14 7LW,GB
Virginia Beach,VA,23464,US
Manhattan Beach,CA,90266,US
Laguna Beach,CA,92651,US
Vancouver,BC,V5T 3G1,CA
Grosse Pointe Woods,MI,48236,US
Vancouver,BC,V6E 4J6,CA
Brooklyn,NY,11211,US
Melbourne,Victoria,3010,AU
Montgomery,AL,36104,US
Adelaide,SA,5000,AU
Milwaukee,WI,53207,US
Guayaquil,Guayas,,EC
San Antonio,TX,78205,US
Babson Park,MA,2457,US
Vilnius,Vilnius County,1112,LT
Rochester,NY,14607,US
Singapore City,Singapore City,,SG
Denver,CO,80202,US
Yonkers,NY,,US
North Richland Hills,TX,76180,US
Concord,CA,94520,US
Thonotosassa ,Fl,33592,US
Winnipeg,,R3B 2J2 ,CA
Minneapolis,MN,55455,US
Kingston,PA,18704,US
London,London,N1 9RL,GB
Daytona Beach,FL,32118,US
,,NN15 6ER,
Slough,,SL3 7EF,GB
Chermside,QLD,4032,US
Dar Es Salaam,Dar Es Salaam,9574,TZ
Baton Rouge,LA,70802,US
Bensenville,IL,60106-2697,US
Wichita,KS,67206,US
Barcelona,8,8030,ES
San Francisco,CA,94110,US
Morphett Vale,SA,5162,AU
Denver,CO,,US
Randolph,MA,2368,US
Hanford,CA,93230,US
Los Angeles,CA,90025,US
Luton,Bedfordshire,LU1 3JU,GB
Detroit,MI,48226,US
Austell,GA,30106,US
,,`,
Lewisville,TX,75067,US
Venice,FL,34293,US
,,CT2 7NF,
,,,
Guangzhou China ,,,
Irvine,CA,,US
,,,
Wrexham,Wales,LL13,GB
Tulsa,OK,74103,US
,,,BR
Dallas,TX,75215,US
Calgary,AB,T3E 0A3,CA
,Wien,1040,AT
Santa Rosa,CA,95403,US
New York,NY,10002,US
New York,NY,11249,US
Cleveland,OH,44106,US
Ahmedabad,GJ,,IN
Leeds,Yorkshire,LS15 8ZB,GB
Nairobi,,200,KE
Salida,CA,95368,US
,,,US
Ashburn,VA,20147,US
Durham,NC,27705,US
Escondido,CA,92029,US
,,,
Paris,IDF,75008,FR
Newark,NJ,7108,US
Calgary,Alberta,T2N 1N4,CA
Moonee Ponds,Victoria,3039,AU
Regent's Park,London,NW1 4LE,GB
BEVERLY HILLS,FL,,US
Orlando,FL,32804,US
Boston,MA,2115,US
Austin,Texas,78701,US
,,,
,,,
,Greater London,WC2A 3LJ,GB
Rossville,MD,21237,US
Tampa,FL,33602,US
San Francisco,CA,,US
Airdrie,Alberta,T4A 0C6,CA
Nashville,TN,,US
,,,
New York,NY,11225,US
,,,
,,,
Roseville,CA,CA,US
Barcelona,Catalonia,8005,ES
DEKALB,IL,60115,US
,,,
Bournemouth,Dorset County,BH2 5HE,GB
Kuala Lumpur,Kuala Lumpur,,MY
Beaverton,OR,97006,US
Longlea,VIC,3551,AU
Macgregor,ACT,2615,AU
New York,NY,10031,US
Zephyrhills,FL,33541,US
San Diego,CA,92103,US
Athens Clarke,GA,30606,US
San José,San Jose,,CR
Portland,ME,4101,
,,,
Springfield,IL,62701,US
Anaheim,CA,92806,US
Memphis,TN,38103,US
St. Louis Park,MN,55416,US
Lewisburg,PA,17837,US
,,,
San Francisco,CA,94110,US
Austin,TX,,US
Philadelphia,PA,19147,US
North Las Vegas,NV,89032,US
London,London,WC2H 9HQ,GB
New York,NY,,US
Cardiff,Cardiff,NP10 8FY,GB
Boston,,2110,US
Livonia,MI,48154,US
,,,
Atlanta,GA,,US
Memphis,TN,38117,US
Chandler,AZ,85225,US
Ridgeland,SC,29936,US
New York,NY,10011,US
Saint Louis,MO,,US
Hilton,England,DE65,GB
,,,
,,,
Los Angeles,CA,90013,US
Mankato,MN,56001,US
,,,US
Seattle,WA,98109,US
London,,SE1 6NX,GB
Salisbury North Sa,,5108,
Las Vegas,NV,NV 89109-4338,US
Toronto,ON,M6G 1C2,CA
,,,
Falmouth,Cnwll,TR11 4SZ,GB
,,,
Toronto,ON,M8V,CA
Ottawa,ON,,CA
Ottawa,ON,K2G 1V8,CA
Woodinville,WA,98072-6010,US
Brooklyn,NY,,US
Halifax,NS,B3J1G1,CA
Sacramento,CA,95823,US
,,,
New York,NY,10011,US
Denton,TX,76201,US
,,,
London,London,WC1A 1DU,GB
,,,
Tasmania,,7030,AU
,,,
London,Gt Lon,N1C,GB
Greenville Sc,,29605,
Seattle,WA,98101,US
Charlottesville,VA,22901,US
Chicago,IL,60657,US
Halifax,Nova Scotia,,CA
Woodinville,WA,,US
Boston,MA,2115,US
Little Rock,AR,72202,US
Evans,GA,30809,US
Oak Lawn,IL,60453,US
,,,
Pasadena,CA,91103,US
Charlotte,NC,28203,US
Orlando,FL,32801,US
San Jose,CA,95138,US
Houston,TX,77005,US
Santa Clara,CA,,US
Hasbrouck Heights,NJ,7604,US
London,,EC1Y 1AA,GB
New York,NY,10003,US
,,,
Indianapolis,IN,46202,US
Barcelona,Barcelona,8001,ES
North Haven,CT,6473,US
Lexington,VA,22450,US
Atlanta,GA,30308,US
,,,GB
Wichita,KS,,US
London,,SE11 5HY,GB
Louisville,KY,,US
Duncan Falls,OH,43734,US
Glasgow    ,,,
West Hollywood,CA,90046,US
Virginia Beach,VA,23451,US
Seattle,WA,98103,US
Raleigh,NC,27615,US
Toronto,Ontario,,CA
Montréal La Cluse,Rhone Alpes,H3B 4A5,FR
Los Altos,CA,94024,US
Boston,MA,2115,US
Potten End,Hertfordshire,HP4 2RZ,GB
Los Angeles,CA,90045,US
Brisbane Australia,,4064,
Columbia,SC,29210,US
Boston,MA,2116,US
Louisville,KY,40206,US
,,,
Ottawa,ON,K2B 6J6,CA
Braintree,MA,2210,US
Sugar Land,TX,77479,US
Durham,Durham,DH1 1TN,GB
,,,
,,,
,,,
Bar Mills,ME,4004,US
,,,
Knoxville,TN,37922,US
London,Gt Lon,W1T 4RR,GB
Jackson,MS,39201,US
,東京都,,JP
Kilkenny,IE,,IE
Grand Rapids,MI,49512,US
Nashville,TN,37204,US
Palo Alto,CA,94301,US
New York,NY,10003,US
San Francisco,CA,94105,US
San Jose,CA,94043,US
"Buckinghamshire, High Wycombe",,HP14,GB
West Dover,VT,5356,US
,,,
Santurce,Puerto Rico,914,PR
Durham,NC,27707,US
Villa Las Estrellas,ANTARTICA,,US
San Francisco,CA,94105,US
Portland,OR,97204,US
Atlanta,GA,30324,US
,,,
Melbourne,VIC,3000,AU
New York,NY,11212,US
Brisbane,Queensland,4000,AU
Conway,AR,72032,US
London,England,,GB
Sydney,New South Wales,2176,AU
Cobram,VIC,3643,AU
,,,
Philadelphia,PA,,US
Washington,DC,20012,US
Euless,TX,76040,US
,,,
Birmingham,AL,35022,US
Boston,MA,2115,US
London,Gt Lon,W8 5SY,GB
West Palm Beach,FL,33401,US
New York,NY,11203,US
Dakar,Dakar,,SN
,,,
,West York,,GB
Boston,MA,,US
Princeton,NJ,,US
Oelwein,IA,500662,US
New York,NY,,US
Austin,TX,78701,US
Thorold,Ontario,,CA
,,,
Folsom,CA,95630,US
London Borough of Islington,England,EC2A,GB
Lowell,NC,28098,US
Long Beach,CA,90813,US
,,,
,,,
,,,
Bogotá,Distrito capital,111311,CO
London,,,GB
Lake Buena Vista,FL,,US
London,Gt Lon,SW1Y 5AD,GB
Huntsville,AL,35803,US
Middleville,MI,49333,US
Philadelphia,PA,19107,US
Los Angeles,CA,90045,US
San Frnacisco,CA,94118,US
Barcelona,CT,,ES
Milford,MI,48381,US
New Orleans,LA,70119,US
Pereira,Risaralda,,CO
Brooklyn,New York,11226,US
Beltsville,MD,20705,US
,,,
Cincinnati,OH,45220,US
,,,
Kelowna,BC,V1W 4H9,CA
Palo Alto,CA,94306,US
,Gt Lon,W1J 9DZ,GB
St-Bruno-de-Montarville,QC,,CA
Huntsville,AL,35806,US
San Jose,CA,95192,US
,,,
O'Fallon,MO,63366,US
Ballwin,MO,63011,US
Los Angeles,CA,,US
,,,
Atlanta,GA,30303,US
Burbank,CA,91504,US
American Fork,UT,84003,US
,,,
Gardnerville,NV,,US
Cork,Cork,0,IE
Miami Shores,FL,33138,US
Houston,TX,77002,US
London,Gt Lon,E1 4HG,GB
Paris,IdF,75005,FR
Puerto Plata,Dominican Republic,,DO
Houston,TX,77027,US
,England,NN4,GB
Austin,TX,78758,US
,,,
,,Zip/Postal,
Choteau,MT,,US
Limassol,Limassol,,CY
,,,
Silver Spring,MD,20910,US
Philadelphia,,19106,US
Aspen,CO,81611,US
Se10 8ls,,,
Chicago,IL,60607,US
San Antonio,TX,78212,US
,,WC1H 9PN,GB
,,94583,
Redwood City,CA,94063,US
Mexico DF,,6140,MX
Laguna Hills,CA,92653,US
Berkeley,CA,94720,US
Albion,QLD,4010,AU
,,,
,,,
Tampa,FL,33607,US
Philadelphia,PA,19138,US
Happy Valley,OR,97086,US
,,,
St Louis,MO,43101,US
Wayne,PA,19087,US
San Diego,CA,92108,US
Northampton ,Northamptonshire,NN1 2LA,GB
Wichita,KS,67206,US
New York,NY,NY 10007,US
Atlanta,GA,30309,US
St Louis,MO,,US
Atlanta,GA,30303,US
Washington,DC,20009,US
Dallas,TX,75206,US
Adelaide,South Australia,5000,AU
Baltimore,MD,21202,US
Braintree,MA,02184-0219,US
Carroboro,NC,,US
Hermosa Beach,CA,90254,US
Indianapolis,IN,46254,US
Chicago,IL,60611,US
Merseyside,,L1 0BS,GB
,,,
Sheffield,South York,S1 2BS,GB
Glasgow,,,GB
Pune,Maharashtra,411038,IN
Vancouver,BC,,CA
Tempe,AZ,85281,US
Bangalore,Karnataka,,IN
New York,NY,10003,US
cali,CA,,US
Philadelphia,,19123,US
Fort Worth,TX,76107,US
London,England,EC2A,GB
Canton,MI,48188,US
Hailey,ID,83333,US
Roxbury,MA,2119,US
College Park,MD,20785,US
Wentzville,MO,63385,US
Richmond,VA,23233,US
San Francisco,CA,,US
New Orleans,LA,,US
Thousand Oaks,CA,91362,US
Fort Smith,AR,72916,US
Braselton,GA,30517,US
,,,
Olin 225,MA,2210,US
New York,NY,10022,US
Bucharest,Bucharest,10551,RO
Singapore City,Singapore City,188064,SG
North Platte,NE,69101,US
Los Angeles,CA,90012,US
Valencia,CA,91354,US
Wollongong,NSW,2500,AU
,,,
,,,
Parkville,VIC,3010,AU
London,London,W1G 0PP ,GB
Toronto,ON,,CA
Berkeley,CA,,US
Conyers,GA,30094,US
Louisville,KY,40202,US
Clovis,CA,93612,US
Londonderry,Derry,,GB
Austin,TX,78749,US
Nanaimo,British Columbia,,CA
Baton Rouge,LA,70802,US
Chandler,AZ,85224,US
Kelowna,British Columbia,V1W 4C2,CA
Conyers,GA,30012-3806,US
,,,
Brisbane,Queensland,4000,AU
,MO,,US
Bellevue,WA,98004,US
London,London,SW1P 4QP,GB
Longwood,FL,32750,US
Newport,,,US
,Perm Krai,,RU
Louisville,KY,40202,US
San Francisco,CA,CA,US
Dallas,TX,75214,US
London,,SE1 9UL,GB
Goodna,QLD,4300,AU
LONDON,,WC1E 7JE,GB
San Antonio,TX,78260,US
Exeter ,NH,3883,US
Vancouver,BC,V6B 6B1,CA
Saint Paul,MN,55104,US
Everett,WA,98201,US
Singapore,,18981,SG
Gold Coast,Queensland,4215,AU
Grosse Pointe Farms,MI,48236,US
Atlanta,GA,30345,US
Lake Worth,FL,33460,US
Euless,TX,76040,US
Gilbert,AZ,az,US
Dusseldorf,NRW,40215,DE
Chatham-Kent,ON,N7L,CA
San Francisco,CA,94103,US
Berkeley,CA,94707,US
San Diego,CA,92101,US
Baltimore,,21201,US
Quebec,QC,G1R 4H3,CA
Boca Raton,FL,33487,US
Sheffield,Sheffield,S65 1NG,GB
Beijing,Beijing,100084,CN
Cayenne,,97300,GF
,,,
Southfield,MI,48075,US
,,,
Melbourne,Victoria,,AU
Washington,DC,20007,US
London,Greater London,E8 2BT,GB
Bury St Edmunds,,IP31 3PQ,
San Diego,CA,92103,US
Hinckley,MN,55037,US
Luxembourg,Luxembourg,,LU
Cleveland,OH,44127,US
Chicago,IL,60615,US
,,,
Oconomowoc,WI,53066,US
Cincinnati,OH,,US
Zelienople,PA,16063,US
Timmendorfer Strand,Timmendorfer Strand,23669,DE
Winnipeg,Manitoba,R3H 0G3,CA
Nashville,TN,37212,US
Monroeville,PA,15146,US
New Bern,NC,28560,US
"- 6, route du Mahatma Gandhi",Paris,75116,FR
Charlottetown,PE,,CA
,,96028,
Sydney,NSW,2000,AU
San Francisco,CA,94103,US
Salt Lake City,UT,84101,US
,,,
Berkeley,CA,94720-7200,US
7054816,,,
Chicago,Illinois,60601,US
Leeds,West York,LS1 6PA,GB
Los Angeles,CA,90027,US
,,SC,
Roanoke,VA,24019,US
Quinte West,ON,K8V 1W6,CA
Falls Church,VA,22043,US
Radcliffe,Gt Man,M26 4PF,GB
Limerick,Limerick,,IE
Nairobi,Nairobi Area,,KE
Cambridge,Cambs,CB2 1LR,GB
Cannock,England,WS11 1SJ,GB
,,,
Sydney,NSW,2000,AU
,,,
Durham,NC,27703,US
London,London,SE1 2UP,GB
Auckland,Auckland,1025,NZ
Kelvin Grove,QLD,4059,AU
Duluth,GA,30096,US
Boston,MA,2110,US
,,,
,Kent,TN12 6PY,GB
Toronto,ON,M5A,CA
New Haven ,CT,,US
Sarasota,FL,34239,US
Brooklyn,NY,11201,US
Austin,TX,78758,US
Jackson,MS,39211,US
Houston,TX,77002,US
Orlando,FL,32803,US
,,,
San Jose,CA,95113,US
,,,
Chicago,IL,60015,US
Surat,GJ,,IN
Atlanta,GA,30339,US
New York,NY,10012,US
Rising Fawn,GA,30738,US
Longwood,,32750,US
San Francisco,CA,94111,US
,,NY 10003,
,,SK17 0PR,
Minneapolis,MN,55455,US
Belfast,Belfast,BT23 5rf,GB
Athens,OH,45701,US
Boston,MA,2108,US
Austin,TX,,US
Boston,MA,2120,US
Zürich,Zurich,8049,CH
Austin,TX,,US
American Fork,UT,84003,US
Eindhoven,NB,5611,NL
San Rafael,CA,94901,US
,,,
Nashville,TN,37215,US
Winnipeg,Manitoba,R3L 2C2,CA
Carson,CA,90745,US
,,,
Fullerton,CA,92831,US
London,"London, City Of",W1D 4RQ,GB
,,,
West Palm Beach,FL,,US
Murfreesboro,TN,,US
True Blue,St George,,GD
Hanoi,Hanoi,,VN
San Juan,Puerto Rico,,PR
Woolloomooloo,NSW,2011,AU
Boston,MA,2199,US
Austin,TX,78731,US
Charlotte,NC,28202,US
Toronto,Ontario,,CA
San Francisco,CA,94114,US
,,,US
Boston,MA,2115,US
Paradise Valley,AZ,85253,US
East Lansing,MI,48824,US
Geelong West,VIC,3218,AU
,,,TD
London,,EC1V,GB
Philadelphia,PA,19123,US
Las Vegas,NV,89109,US
Atlanta,GA,30305,US
Salt Lake City,UT,84111,US
Oshawa,ON,L1G 7A1,CA
Ithaca,NY,14850,US
San Mateo,CA,94402,US
Modesto,CA,95354,US
Los Angeles,CA,90095,US
Santiago,Region Metropolitana,,CL
,,,
Widnes,England,WA8,GB
Stirling,Stirlingshire,FK9 4NF,GB
,,,US
Invermere,British Columbia,,CA
Los Angeles,,91436,US
Hartford,CT,,US
Manhattan,NY,10010,US
Portland,OR,97214,US
Murarrie,Qld,4172,AU
Burlingame,CA,94010,US
Blue Bell,PA,19422,US
Newmarket,ON,L3Y 3Y9,CA
Saskatoon,Saskatchewan,S7N 1B2,CA
Toronto,ON,M6J 2Y7,CA
Indianapolis,Indiana,46204,US
Atlanta,GA,30311,US
Manchester,,M15 6BH,GB
,,,US
Elizabethtown,NC,28337,US
Dorking,England,RH5,GB
New Orleans,Louisiana,,US
Munich,BY,80636,DE
,,,
Leeds,Leeds,LS8 5HS,GB
Chicago,IL,60611,US
"Columbus, OH",,,
Ottawa,ON,K1P 5R7,CA
New York,NY,10001,US
Christchurch,Christchurch,,NZ
Philadelphia,PA,,US
Dublin 3,Dublin,3,IE
Acebo,EX,10857,ES
,,,
Berlin,Berlin,10179,DE
Metairie,LA,70006,US
,,,
Cincinnati,OH,45236,US
New Haven,CT,6511,US
Pembroke,Ontario,K8A 0C8,CA
Victoria,BC,,CA
Austin,TX,78750,US
,,,
Hillsboro,OH,45133,US
Portlaoise,,,IE
Colorado Springs,CO,80921,US
,,,
Totowa,NJ,7512,US
,,,
Wisconsin Rapids,WI,54494,US
Atlanta,GA,30326,US
Chicago,IL ,60610,US
Madison,WI,53713-2914,US
Oakland,CA,94612,US
,,,
Washington,DC,20024,US
Toronto,ON,M5V,CA
Laguna Beach,CA,92651,US
Boston,MA,2210,US
Marietta,GA,30067,US
Brisbane,,4101,AU
Providence,RI,,US
Vancouver,BC,V5Y 1M8,CA
Vancouver ,BC,V6G2M5,
,,,
Lexington,KY,40509,US
Dubai,Dubai,120084,
Brayford Pool,England,LN6 7TS,GB
Toronto,,,CA
Boston,MA,2110,US
Houston,TX,77068,US
Altamonte Springs,FL,,US
Tampa,FL,FL,US
,Northamptonshire,NN1 5RX,GB
Highlands Ranch,CO,,US
Seattle,Washington,98121,US
Novi,MI,,US
,,,
,,,
Irvine,CA,92612,US
Ewell Village,Surrey,KT17 4AF,GB
,Dublin,,IE
Malibu,CA,90265,US
Macerata,Marche,62100,IT
Euless,TX,76040,US
Montpelier,VT,5602,US
Kirtland,NM,87417,US
Blairsville,Georgia,30512,US
Austin,TX,78701,US
Montego Bay,Saint James,,JM
,,,
Norwich,Norfolk,NR2 4PA,GB
London,London,N1 0QH,GB
Copenhagen,Staden Kobenhavn,1620,DK
Asheville,NC,28806,US
,,,
New York,NY,10012,US
Atlanta,GA,30313,US
,,,
Enoch,AB,T7X 3Y3,CA
Oroville,CA,95965,US
,,,
,,7065,
London,,EC2A 3HJ,GB
Kitchener,ON,N2A 3Z7,CA
Mankato,MN,56001,US
Cardiff By The Sea,CA,92007,US
Greensboro,NC,27405,US
Calgary,AB,T2P 1J9,CA
,,,
San Diego,CA,92101,US
,,,
Blacksburg,VA,24060,US
,,,
Nashville,TN,37201,US
Seattle,WA,98107,US
St. Paul,MN,55101,US
Voorhees Township,NJ,,US
Louisville,KY,40206,US
New York,NY,,US
New York,NY,10036,US
Torrance,CA,90503,US
Brisbane,Queensland,4000,AU
Beijing,Beijing,,CN
,,CF37 1DL,
,,,
SF,CA,,US
Milpitas,CA,95035,US
Chicago,IL,,US
Hershey,PA,,US
,,,
Atlanta,GA,30328,US
Fort Washington,MD,20744,US
Katy,TX,77493,US
Liecester,Liecestershire,LE1,GB
,,,
Orlando,FL,32801,US
Tampa,FL,33605,US
Manchester,NH,3101,US
New York,NY,10001,US
Dublin,CA,94568,US
Virginia Beach ,VA ,23452,US
,,61054,
New York,,,US
Sydney,NSW,2000,AU
,,,
Monterey,CA,93940,US
San Antonio,TX,78212,US
Fort Worth,TX,76244,US
London,London,NW14RY,GB
Phoenix,AZ,85032,US
Goddard,Kansas,67052,US
Newark,DE,19713,US
Mandurah,WA,6210,AU
Perryton,TX,,US
City of Orange,NJ,7050,US
Jamaica,NY,11436,US
Grays,Thurrock,Essex,GB
Ballyconnell,Wicklow,,IE
New York,NY,10013,US
,,,
Minneapolis,MN,55455,US
St. Louis,MO,,US
San Francisco,,,US
Oakville,ON,L6L 2X4,CA
,,,
Pasadena,CA,91107,US
Riverside,CA,92507,US
King Of Prussia,PA,19406,US
Asheboro,NC,27203,US
,,,
Denison,TX,75020,US
Madison,WI,53704,US
,,,
Columbus,OH,43085,US
Irving,TX,75039,US
,,,
Middleburg,VA,22130,US
Edmonton,AB,T6A 0A2,CA
El Paso,TX,79968,US
Miami,FL,33132,US
Toronto,ON,M5S 3K7,CA
Marrakesh,Marrakesh-Tensift-El Haouz,,MA
,,,
Dublin,Dublin,,IE
Ardsley,NY,10502,US
Chico,CA,95928,US
Charlotte,NC,28278,US
Hamilton,ON,L9G 3K9,CA
Toronto,ON,,CA
Malvern,PA,19355,US
San Diego,CA,92103,US
El Dorado,KS,67042-9358,US
Madrid,Comunidad de Madrid,28028,ES
Salem,OR,97317,US
,,,
Pasadena,CA,91182,US
,,,
,,,SG
Bloomsbury,NJ,8804,US
BEDFORD,TX,76021,US
Los Angeles,CA,90048,US
Mississauga,Ontario,L5T2Z7,CA
Fontana,CA,92335,US
,State / Province / Region,Zip / Postal Code,
Coronado,CA,92118,US
San Juan,San Juan,,PR
Pescara,Abruzzo,65122,IT
Washington,DC,,US
Las Vegas,NV,89117,US
Chicago,,60607,US
,,,
San Francisco,CA,94104,US
Olde West Chester,OH,45069,US
Cambridge ,,CB3 9DT,GB
Paris,,75017,FR
Boise,ID,,US
Montreal,QC,,CA
,,,
Phoenix,AZ,85085,US
College Park,GA,30337,US
New York,NY,10001,US
New York,NY,10022,US
,,,
,,518457,
London,England,EC1M,GB
La Mesa,CA,91942,US
North Miami,FL,33181,US
Seaside,CA,93955,US
,,,
Anderlecht,Brussels Hoofdstedelijk Gewest,1070,BE
North Las Vegas,NV,,US
Cape Town,WC,7925,ZA
,,48170,
Toronto,,M5T 2G8,CA
College Park,MD,20740,US
Accra,Ghana,,KE
Cambridge,England,CB2,GB
Jeffersonville,OH,,US
,,,
Miami,FL,,US
Chicago,IL,60611,US
Austin,TX,78746,US
Irving,Texas,75039,US
Newmarket,ON,L3Y 4V9,CA
Edinburgh,Scotland,EH1 2QA,GB
Himrod,,14842,US
Tourcoing,Nord-Pas-de-Calais,59200,FR
London,Gt Lon,NW1 2EZ,GB
Austin,TX,78701,US
New York,NY,10001,US
,,,
Westbrook,CT,6498,US
Alfornelos,Lisboa,2715-311,PT
,,,
Newark,CA,94560,US
Claremore,OK,,US
Dunmurry,Northern Ireland,BT10 0NF,GB
Atlanta,GA,30303,US
Brighton And Hove,,BN2 1TF,GB
South Hurstville,NSW,,AU
Toronto,Ontario,,CA
New Orleans,LA,70125,US
Great Missenden,Buckinghamshire,HP16 0AX,GB
London,London,W1T 1JG,GB
Pittsburgh,PA,15212,US
Plymouth,MI,48170,US
Highland Park,Illinois,60035,US
,, ,
Carmel-by-the-Sea,CA,,US
Metairie,LA,70002,US
,,,
Luzern,Luzern,6003,CH
Honiton,Devon,EX14 3PG,GB
San Francisco,CA,94105,US
Sheridan,CO,80110,US
Crieff,Perth And Kinross,PH7 3LQ,GB
Houston,TX,77002,US
Baltimore ,MD ,21223,US
,,,
Hong Kong,,,HK
Philadelphia,PA,19153,US
New York,NY,10013,US
Kansas City,MO,64112,US
,,,
Cincinnati,OH,45219,US
Manchester,Manchester,M15 4GB,GB
Barcelone,CT,,ES
Philadelphia,PA,19146,US
Chicago,,60603,US
Nedlands,WA,6009,AU
Hollywood,CA,90028,US
London,,SW1P 3BT,GB
Irvine,CA,92618,US
London,London,N1 6NT,GB
Ipswich,Suffk,IP3 9BF,GB
Cleveland,OH,44120,US
Edinburgh,"Edinburgh, City Of",EH1 1QS,GB
Pittsburgh,PA,15224,US
,,,
Sarasota,FL,34201,US
Huntsville,AL,35810,US
,,,
Pensacola,FL,32504,US
Grapevine,TX,76051,US
,,,
San Diego,CA,77043,US
Hallandale Beach,FL,33009,US
Oakland,CA,94607,US
Norwalk,CT,6854,US
Boston,MA,2111,US
,,,
Warsaw,Warszawa,,PL
London,,SE1 6RU,GB
Xian,Shaanxi,,CN
Addison,TX,75001,US
Auckland,Auckland,2104,NZ
Cambridge,MA,2142,US
Newark,CA,94560,US
Washington,DC,20017,US
Stratford,ON,N5A,CA
Fort Washington,MD,20744,US
Orlando,FL,32810,US
Sandy Spring,Md ,29860,
Louisville,KY,40202,US
Chicago,IL,60608,US
,,,
Lafayette,CO,80026,US
Los Angeles,CA,90026,US
New York,NY,11201,US
,,,MA
成都,china,,
New York,NY,10023,US
Sherwood Park,Alberta,T8C 1J7,CA
,,SE1 9NH,
Portland,OR,97204,US
Kansas City,MO,64105,US
Ottawa,ON,K1N,CA
,,LS2 9JT,
Mackinac Island,MI,,US
St Louis,MO,63118,US
San Jose,CA,95129,US
Oporto,Porto District,4050-53,PT
Vejle,Vejle,7100,DK
Stone Mountain,GA,30088,US
Leeds,Leeds,LS2 8AJ,GB
,VIC,3280,AU
,,,
Newport Beach,CA,,US
Arlington,WI,53911,US
,,,
Lawrenceville,GA,30043,US
Tintern,Gwent,NP16 6SE,GB
,,,
Calgary,Alberta,T2E 3Z3,CA
McLean,VA,22102,US
Providence,RI,2903,US
Aberdeen,Aberdeen City,AB10 7QG,GB
Winston-Salem,NC,27105,US
San Frnisco,,94129,CA
Topanga,CA,,US
Philadelphia,PA,19148,US
,,,
,,,
,,,
Somerville,MA,2143,US
San Jose,CA,95110,US
Chicago,IL,60615,US
Kansas City,MO,64105,US
Birmingham,Birmingham,B15 2TT,GB
Chicago,IL,60611,US
Nepean,ON,K2H 8X3,CA
San Francisco,CA,94105,US
Sevenoaks,Kent,TN15 6NA,GB
,,60606,
New York,NY,10019,US
,,,
Los Angeles,Ca,90046,US
Wellington,Wellington,6242,NZ
Boca Raton,FL,33487,US
,,,
Seoul,,,KR
,Shropshire,SY5 6QG,GB
Saint Peters,MO,63376,US
Arlington,TX,76013,US
Santa Clara,CA,95054,US
New York,NY,10023,US
San Francisco,CA,94111,US
St Elizabeth,JAMAICA,12345,US
Mill Valley,CA,94941,US
Philadelphia,PA,19148,US
Las Vegas,NV,89169,US
,,,
Albuquerque,NM,87114,US
Oakville,Ontario,L6H 6E1,CA
Bristow,VA,20136,US
Portland,OR,97205,US
Miami,FL,33143,US
Villa Park,IL,60180,US
Ft. Lauderdale,FL,33309,US
Pigeon Forge,TN,,US
Atlanta,GA,30313,US
Manchester,Gt Man,,GB
Buenos Aires,Autonomous City of Buenos Aires,,AR
,,,
Edinburgh,"Edinburgh, City Of",EH21 6UU,GB
Plantation,FL,33313,US
Pittsburgh,PA,15203,US
Bondi Beach,New South Wales,2026,AU
Lisbon,Lisboa,1649-026,PT
Constantine,MI,49042,US
Saint Petersburg,Saint Petersburg,,RU
Lincoln,Lincs,LN5 7PJ,GB
,Cairo Governorate,,EG
Newhall,CA,91321,US
Largo,FL,33771,US
New York,NY,10013,US
Robina,QLD,4226,AU
Aurora,CO,80016,US
,,,
Fort Washington,MD,20745,US
Columbus,OH,43215,US
Glendale,CA,91203,US
Medellín,Antioquia,,CO
New York,NY,10016,US
Marblehead,MA,1945,US
Fredericksburg,VA,22401,US
Perth,Western Australia,6155,AU
,,Dublin 24,
Al Mina,North,,LB
,,,
Holland,MI,49424,US
Carbondale,IL,62901,US
Vancouver,BC,V2X 0T8,CA
Worcester,MA,1609,US
Bedford,England,MK43 7RE,GB
Woodbridge,VA,22193,US
,,,
Glastonbury,Somerset,BA6 9JX,GB
Surrey Hills ,,3127,
Melbourne,FL,32901,US
,,,
Delhi,Delhi,110030,IN
Rochester,MN,55902,US
Boston,MA,2467,US
,LA,70131,US
3260 Figueiró dos Vinhos ,,,PT
Brighton,The City of Brighton and Hove,BN1 1NE,GB
San Antonio,TX,78212,US
Berkeley,CA,94702,US
,,,
"Lismore, Newcastle, Orange and Wollongong",,,AU
Toronto,ON,,CA
Macclesfield,England,SK11 0AP,GB
Sunnyvale,CA,,US
Knoxville,TN,37922,US
Durham,NC,27703,US
Fayetteville ,NC,28303,US
Indianola,WA,98342,US
,,,
,,,
Redwood City,CA,94065,US
New York,NY,10018,US
Paris,Ile De France,75010,FR
Ottawa,Ontario,,CA
Washington,DC,20003,US
Houston,TX,77002,US
London,Greater London,SW1P 3AA,GB
Charlottesville,VA,22903,US
Freehold,NJ,7726,US
Costa Mesa,CA,92626,US
Phoenix,AZ,85040,US
Chicago,IL,60611,US
Atlanta,GA,30339,US
Toledo,OH,43615,US
Fresno,CA,93728,US
Dawsonville,GA,30534,US
York,,YO1 8RZ,GB
Ontario,CA,91764,US
London,London,SE1 2HZ,GB
Chicago,IL,60628,US
Duluth,MN,55802,US
Huntington Beach,CA,92648,US
Leicester,Leicester,LE1 7RH,GB
Vilnius,Vilnius County,1135,LT
Burlington,NJ,8016,US
Washington,DC,20004,US
Eastbourne,East Sussex,BN21 3XQ,GB
Calgary,AB,T2P 4K1,CA
Pacific Palisades,CA,90272,US
Apex,NC,27523,US
Surrey,,RH4 1DD,GB
Palo Alto,CA,94303,US
Montréal,QC,H3C 1L9,CA
Martin,WA,6110,AU
,,2030,
Schererville,IN,46375,US
Wilmington,DE,19801,US
San Francisco,CA,94103,US
West Haven,CT,6516,US
New York,NY,10010,US
Lausanne,VD,1007,CH
Houston,TX,77005,US
Spring Lake,NJ,,US
Ashtabula,OH,44004,US
Edmonton,Alberta,T5J 3S7,CA
Landau In Der Pfalz,Rheinland Pfalz,76829,DE
Los Angeles,CA,91403,US
San Francisco,CA,94118,US
Syracuse,NY,13210,US
Puchong,Selangor,47100,MY
,,VA,
,,,
Carrboro,NC,27510,US
,,,
Austin,TX,78701,US
Vennecy,Centre,,FR
Sheridan,AR,72150,US
Los Altos,CA,94024,US
Stockton-on-Tees,Stockton-on-Tees,TS18 1LL,GB
Omaha,NE,68102,US
Chicago,IL,60614,US
Neville Island,,15225,US
Los Angeles,CA,90089,US
Budapest,Budapest,,HU
San Francisco,CA,94103,US
San Francisco,CA,94111,US
,,,
,,,
New York,NY,10016,US
Toronto,ON,,CA
New York,NY,10019,US
,England,S1 2QQ,GB
Albany,GA,31701,US
Isla Vista,CA,93106,US
Philadelphia,PA,,US
Arcadia,CA,91007,US
Norwell,MA,2061,US
Huntsville,Alabama,35811,US
Lupton,Cumb,LA6 1PJ,GB
London,Gt Lon,E8 4AA,GB
Wheeling,IL,60090,US
,,,
,,,
Chicago,IL,60601,US
Sydney,New South Wales,2000,AU
Chicago,IL,60654,US
Kernersville,NC,27284,US
Jacksonville,FL,32246,US
New York,NY,10001,US
,,,
,,,
Arlington,VA,22203,US
East Palo Alto,CA,94303-2214 ,US
,,,
Yorkshire,UK,WF14 9EZ,GB
Mississauga,ON,L5N 2L3,CA
Long Beach,CA,,US
Livermore,CA,94550,US
New York,NY,11354,US
Atlanta,GA,30324,US
Lyn,ON,K0E 1M0,CA
,,,
Greensboro,VT,5841,US
Surrey,,CR9 5AA,GB
New York,NY,10002,US
Brooklyn,NY,11214,US
Cremorne,Victoria,3121,AU
Derby,,DE22,GB
San Antonio,TX,78245,US
Wyboston,Beds,MK44 3BY,GB
,,,
,,,ON
Seattle,WA,98122,US
Brooklyn,NY,11233,US
Atlanta,GA,30313,US
,,,
,Somset,TA6 6LQ,GB
Milford,DE,,US
New Orleans,LA,70130,US
Marietta,GA,30068,US
Milwaukee,WI,53202,US
Dublin,CA,94568,US
Portland,OR,97209,US
,,5033,
Sacramento,CA,95814,US
Menlo Park,CA,,US
London,London,SW1Y 5ED,GB
Chapel Hill,NC,27514,US
Dodworth,South York,S75 3JT,GB
Tinley Park,IL,60487,US
Lathrup Village,MI,48076,US
Forked River,NJ,8731,US
,,,
Brownsville,TX,78521,US
Frankfort,KY,40601,US
New York,NY,,US
Providence,RI,2906,US
Edmond,OK,,US
Birmingham,West Mids,B37 5DP,GB
Atlanta,GA,30306,US
Ullapool,Scotland,IV26,GB
Amsterdam,NH,1013 CR,NL
Miami Beach,FL,33140,US
Northampton,England,NN1 2DE,GB
,,,
Baltimore,MD,21202,US
"Ottawa, ",ON,,CA
,,,TD
,Federal Territory of Kuala Lumpur,50480,MY
Hamilton,NY,13466,US
Vicenza,,,IT
Chicago,IL,60601,US
Denver,CO,80205,US
Newquay,Cornwall,TR7 2NQ,GB
Braunschweig,NDS,38126,DE
Saint Helena,CA,94574,US
Selkirk,MB,,CA
Boston,MA,2210,US
Portsmouth,NH,NH,US
Toronto,ON,M4Y 2C9,CA
Pompano Beach,FL,33060,US
San Francisco,CA,94117,US
Philadelphia,PA,19148,US
New York,NY,10011,US
Madrid,Community of Madrid,28014,ES
,,,
Atlanta,GA,30331,US
Grand Rapids,MI,49503,US
Salem,MA,1970,US
Atlanta,GA,,US
San Mateo,CA,94401,
Haverhill,MA,1830,US
Edwardsville,IL,IL,US
Montreal,Quebec,,CA
Carmichael,CA,95608,US
Laguna Hills,CA,92653,US
Los Angeles,CA,90028,US
Lowell Township,MI,49331,US
Villeneuve-d'Ascq,Nord-Pas-de-Calais,59650,FR
Atlanta,GA,30303,US
,,,
Madrid,Madrid,28004,ES
,,,
Houston,TX,77027,US
Las Vegas,NV,89102,US
San Diego,CA,92101,US
Austin,TX,78701,US
Allendale,MI,49401,US
,,,US
Toronto,Ontario,M5H4E9,CA
Brentwood,CA,94513,US
Los Angeles,CA,90012,US
Modesto,CA,95351,US
Munich,BY,80687,DE
Grasonville,MD,,US
Quispamsis,,,
Stafford,VA,22554,US
New York,NY,10003,US
Austin,TX,78757,US
São Paulo,São Paulo,01005-000,BR
Wheaton,,,US
,,,
Montreal,QC,H2T1X6,CA
Marietta,GA,30067,US
,,,
Austin,TX,78712,US
Alexandria,VA,22309,US
New York,NY,10001,US
Memphis,TN,38117,US
Naperville,IL,60563,US
Tannersville,Pennsylvania,18372,US
Calgary,AB,T2G 0T4,CA
Houston,TX,77098,US
Bluff Point,WA,6530,AU
,,,
Pasadena,CA,91105,US
Los Angeles,CA,90015,US
Indianapolis,IN,46241,US
Manchester,Manchester,M17 8AS,GB
New Orleans,LA,70116,US
Sedona,Arizona,86336,US
New Orleans,LA,,US
,,,
New York,NY,10012,US
,,,
,,,
Palo Alto,CA,94306,US
Corona,CA,92881,US
Sheffield,,S1 1WB,GB
Concord,MA,1742,US
Leominster,MA,1453,US
Atlanta,GA,39312,US
San Francisco,CA,94114,US
Annapolis,MD,21403,US
Fairfield,CT,6824,US
Vettweiß,NRW,52391,DE
London,Greater London,N7 7AJ,GB
Phoenix,AZ,85015,US
Hamburg,NY,14075,US
Ponta Grossa,PR,84031-030,BR
Plano,TX,75024,US
Middleburg Heights,OH,44130,US
Manchester,England,M1,GB
Long Island City,NY,11101,US
Nashville,TN,37214,US
Phoenix,AZ,85016,US
,,,
Irvine,CA,,US
Sioux Falls,SD,777777,US
Seattle,WA,98104-3100,US
Atlanta,GA,30338,US
Seattle,WA,98106,US
Raleigh,NC,27603,US
Southport,QLD,,AU
,,,ON
,,,
Atlanta,GA,30305,US
Eau Claire,WI,54701,US
San Diego,CA,,US
Pont-de-Veyle,RA,1290,FR
Calgary,AB,T2G 5J2,CA
Indianapolis,IN,46203,US
Baltimore,MD,21205,US
Queens Dock,,L3 4BF,GB
Minneapolis,MN,55406,US
Huddinge,Stockholm County,14152,SE
Cincinnati,OH,45241,US
Herzliya,,46851,US
Southampton,Bermuda,,BM
Altamonte Springs,FL,32701,US
Biloxi,MS,39530,US
Indianapolis,IN,46202,US
Arlington,VA,22202,US
Miami,FL,33137,US
Ewing,NJ,,US
Auckland,Auckland,1010,NZ
Philadelphia,PA,19104,US
New York,NY,10304,US
London,England,E2 9LY,GB
,NSW,2000,AU
London,Gt Lon,,GB
Lafayette,CA,94549,US
Hamden,CT,,US
Paris,IDF,75008,FR
Cambridge,MA,2138,US
Newcastle upon Tyne,,NE1 8AG,GB
,,,
,,,
Philadelphia,PA,19107,US
Richmond,VA,23220,US
Birmingham,West Midlands,B16 8AE,GB
Medicine Hat,AB,T1A 8B1,CA
Indianapolis,IN,46202,US
Wauwatosa,WI,53226,US
,,,
London,London,N11 1NP,GB
Davis,CA,95616,US
Miami,FL,33157,US
,,600096,
Leeds,Leeds,LS11 5QP,GB
Columbus,OH,43240-2000,US
San Jose,CA,95113,US
,,,
Fond Du Lac,WI,54935,US
San Diego,CA,92109,US
Pittsburgh,PA,15219,US
,,,
Elk Grove,CA,95758,US
East Greenwich,RI,2818,US
Miami,FL,33133,US
Chapel Hill,NC,27517,US
,,,
Bend,OR,97701,US
King City,ON,L7B 1B3,CA
Coorparoo,QLD,4151,AU
Moscow,Moscow,123100,RU
Roswell,NM,88201,US
Tucson,AZ,85711,US
San Francisco,CA,94117,US
,,,
Birmingham,AL,35211,US
Livermore,CA,94550,US
San Jose,CA,95131,US
austin,TX,78701,US
Boston,MA,2132,US
,Federal Territory of Kuala Lumpur,,MY
New York,NY,10011,US
Chelmsford,Essex,CM1,GB
Morristown,NJ,7960,US
Markham,Ontario,L3R1K9,CA
,,,
,Republic of Tatarstan,,RU
Tempe,AZ,85281,US
Durham,NC,27701,US
Fremont,CA,94536,US
Dover,OH,44622,US
Lincoln,England,LN2 5HQ,GB
Corpus Christi,TX,78413,US
Lehi,UT,84043,US
King of Prussia,PA,19406,US
Melbourne,VIC,3000,AU
Las Vegas,NV,89103,US
Winston Salem,NC,27103,US
,,,
Pinellas Park,FL,33781,US
Fort Lauderdale,FL,33301,US
Miami,FL,33132,US
Mount Hope,ONTARIO,L0R 1W0,US
Somerville,MA,,US
Corte Madera,CA ,94925,US
Varese,Lombardia,21100,IT
Hyattsville,MD,20785,US
Houston,TX,77010,US
North Vancouver,British Columbia,V7R 2P1,CA
Greenville,NC,27834,US
,,,PT
Calgary,AB,T2P 0S5,CA
Narrandera,NSW,2700,AU
Jacksonville,FL,32207,US
,,,
Toronto,ON,M2J 2X5,CA
Adelaide,South Australia,5000,AU
South Melbourne,VIC,3205,AU
Madras,OR,,US
Belterra,INDIANA,47020,US
Bellevue,WA,98004,US
London,,N1 6NN,GB
,,55420,
Lancaster,PA,17601,US
Salt Lake City,UT,84103,US
Brampton,ON,L6W 1H9,CA
Chicago,IL,60642,US
Guaynabo,Puerto Rico,,PR
New Haven,CT,6511,US
,,,
Birmingham,,35243,US
Charleston,SC,29424,US
Wickham,Hampshire,PO17 5HT,GB
Honolulu,HI,96822,US
New York,NY,10010,US
Augusta,GA,30901,US
,,G2 8DL,GB
Portland,OR,97266,US
,,85254,
,,,
Bondi Beach,NSW,2026,AU
Fresno,CA,93721,US
Milwaukee,WI,53202,US
Middlebury,VT,5753,US
Los Angeles,CA,,US
,,94133,
kinshasa,kinshasa,,CD
Tampa,FL,33602,US
London,,E8 3DL,GB
St. Louis,MISSOURI,63108,US
Washington,DC,20003,US
,,,
Fairburn,GA,30213,US
Newark,NJ,7102,US
,,,
Lore City,OH,43755,US
Bad Reichenhall,South East Upper Bavaria / Südostoberbayern,83435,DE
,,,
Hong Kong,Hong Kong,,HK
,,,
Brisbane,Queensland,4074,AU
,,ex6 7aj,GB
Boca Raton,,33432,US
Las Cruces,NM,88011,US
Gainesville,FL,,US
Austin,TX,78702,US
,,,
,,E2 9DT,
London,England,NW1,GB
Carmel,IN,46032,US
Indianapolis,IN,46208,US
Los Angeles,CA,90026,US
London,England,SE1,GB
Atlanta,GA,30318,US
Los Angeles,CA,91367,US
New Orleans,LA,,US
Nashville,TN,37219,US
Icel,Mersin Province,33140,TR
Dunfermline,Fife,KY12,GB
San Diego,CA,92120,US
Schwäbisch Gmünd,Baden Wurttemberg,73527,DE
Mountain Dale,NY,12763,US
Saint-Barthélemy-d'Anjou,Pays de la Loire,49124,FR
Memphis,TN,38104,US
Ottawa,Ontario,K1P 5E9,CA
Oakland,CA,94612,US
Los Angeles,CA,90028,US
San Francisco,CA,94105,US
,,,
Harrisburg,PA,17101,US
East Grinstead,,RH19 4JU ,GB
Winston Salem,NC,27101,US
Seattle,WA,98109,US
San Diego,CA,92101,US
Hamilton,ON,,CA
Geneva,Geneve,1211,CH
San Francisco,CA,94105,US
Tempe,AZ,85281,US
Kepong,Kuala Lumpur,52100,MY
New York,NY,10019,US
Columbus,OH,43203,US
"Santiago de Compostela, La Coruña","Coruña, A",15704,ES
New York,NY,,US
,DC,,US
Tampa Fl,,33609,
Forest Glen,QLD,4556,AU
San Diego,CA,92101,US
San Francisco,CA,94133,US
Langley,BC,V3A,CA
Opoutere,Waikato,3691,NZ
Whittier,CA,90602,US
San Jose,CA,95128,US
Tampa,FL,,US
,CA,,US
,,,
Alamosa,CO,81101,US
,,85704,
Bartlesville,,74006,US
Pozuelo de Alarcon,Comunidad de Madrid,28223,ES
Washington,DC,,US
,,,TD
Oregon City,OR,97045,US
Carmichael,CA,,US
Calgary,AB,T2E 5T2,CA
Calistoga,CA,,US
Blacksburg,VA,24060,US
Jackson,CA,95642,US
Los Angeles,CA,,US
London,England,N1 9NL,GB
Paris,IdF,75013,FR
,,M2 3JL ,
Westlake,OH,44145,US
Atlanta,GA,30345,US
Langley,BC,V1M 3Y9,CA
New York,NY,10024,US
Brooklyn,NY,11212,US
HIGHLAND,CA,92346,US
Santa Clara,CA,95051,US
Birmingham,AL,35233,US
,,,
Oxford,Oxon,OX2 0NA,GB
,,,
White Bear Lake,MN,55110,US
Worth,IL,60482,US
Washington,DC,20008,US
Los Angeles,CA,90036,US
Studio City,CA,,US
San Francisco,CA,94129,US
Woodville,MS,,US
Marina del Rey,Ca,90292,US
hayward,CA,94523,US
Cambridge,MA,2139,US
Oshawa,ON,L1J 2K2,CA
Old Lyme,CT,6371,US
Austin,TX,78701,US
Columbus,OH,43209,US
Sydney,NSW,2000,AU
Perth,Western Australia,6000,AU
Ruislip,Greater London,HA4 9aa,GB
Hanover,MD,21076,US
,,,
Goulburn,NSW,2580,AU
,,,
Palmdale,,93551,US
Memphis,TN,38103,US
Miami,FL,33139,US
Hermosillo,Sonora,83010,MX
Dallas,TX,75248,US
,,,
,,,
Lakeland,FL,33813,US
Mackay,Queensland,4740,AU
Flintshire,,CH5 3YB,GB
San Francisco,,94102,US
Mississauga,Ontario,L4W 3A4,CA
Longlevens,Glos,GL2 9HW,GB
,,,
Scottsdale,AZ,85251,US
Omaha,NE,68114,US
Charlotte,NC,28223,US
Murfreesboro,TN,37130,US
,,,
Altamonte Springs,FL,32714,US
New York,NY,10036,US
Myrtle Beach,SC,29577,US
Manchester,Manchester,M20 2RR,GB
Fremont,CA,94536,US
Bogota ,,,
Normal,IL,61761,US
London,London Borough of Tower Hamlets,E1,GB
Riyadh,Riyadh Province,12642,SA
San Antonio,TX ,78258,US
Hollywood,CA,90038,US
Waycross,GA,,US
Creve Coeur,MO,63141,US
,,,
Saint Louis Park,MN,55426-3498,US
Nashville,TN,37212,US
Norman,OK,,US
Raleigh,NC,,US
London,England,WC2N 6RJ,GB
Huntsville,AL,35806,US
,,BB1 2QX,
Grapevine,TX,76051,US
Montreal,Quebec,,CA
Des Moines,IA,50312,US
San Francisco,CA,94103,US
,,,
Eisenstadt,Burgenland,7000,AT
Norwich,Norfolk,NR28,GB
Edinburgh,"Edinburgh, City Of",EH3 9BP,GB
Philadelphia,PA,19107,US
Atlanta,GA,30312,US
Houston,TX,77087,US
La Manga,Murcia,,ES
New York,New York,10013,US
New York,NY,10011,US
Melbourne,VIC,3053,AU
Orlando,FL,32801,US
Miami,FL,33131,US
London,England,E15,GB
Baltimore,OH,21202,US
,,,
Kuala Lumpur,WP,51000,MY
Portland,ME,,US
Toronto,ON,M5B 1N8,CA
Baltimore,MD,21231,US
Howard Beach,NY,11414,US
Rochester,NY,14623,US
Glasgow,Glasgow City,G1 1UL,GB
Alexandria,IN,46001,US
,,,
,,,
Las Vegas,NV,89135,US
Brisbane,Queensland,4064,AU
Vernon,BC,V1T 9G8,CA
,,,
,,,
,,,
London,SE1 ,9NH,GB
Denver,CO,80237,US
Surprise,AZ,85379,US
Drummondville,QC,J2B6A2,CA
Palo Alto,CA,94303,US
Chicago,IL,60654,US
Albuquerque,NM,87113,US
,,,
Tõstamaa,Pärnu County,,EE
Boston,MA,2115,US
San Fracisoc,CA,,US
Lake Charles,LA,70601,US
Fayette,AL,35555,US
Stockton On Tees,,TS18 2AA,GB
Boulder,CO,80304,US
Canberra,ACT,2601,AU
Houston,TX,77002,US
Chicago,IL,60641,US
Chicago,IL,60622,US
London,,SW5 9TA,GB
Richmond,IN,47374,US
Charlotte,NC,28216,US
Gävle,,,SE
Durham,NC,27703,US
Myrtle Beach,SC,29588,US
,WA,,US
Aurora,OH ,44202,US
Buenos Aires,Capital Federal,,AR
Baton Rouge,LA,70808,US
Veracruz,Veracruz-Llave,,MX
,,,
Chicago,Illinois,60622,US
Denver,CO,,US
Irvine,CA,92614,US
Hollywood,CA,90028,US
Portland,ME,4103,US
Los Angeles,CA,91601,US
,,,
,,84320,TH
Bowie,MD,20716,US
Boston,MA,2215,US
Dallas,TX,75203,US
,,,
Singapore,Singapore,308205,SG
Cupar,Fife,KY15 5EQ,GB
Toronto,Ontario,,CA
,,,
Bronx,NY,,US
Warrington,Warrington,WA2 7NE,GB
New Orleans,LA,70112,US
Burlington,VT,5401,US
Brookfield,WI,53045,US
Nashville,TN,37210,US
Madison,Wisconsin,53715,US
Calgary,AB,T2G 0C6,CA
Los Angeles,CA,90017,US
,,,
Irving,TX,75062,US
,CA,,US
Machesney Park,IL,61115,US
,,,
Dallas,,,US
,,,
Pisa,,,IT
Washington,DC,20009,US
Parafield Gardens,,5107,
,,,
London,,,GB
Jupiter,FL,33478,US
New York,NY,10014,
Beirut,Beyrouth,,LB
Robina,QLD,4226,AU
,,,
San Diego,CA,92101,US
Cordova,TN,38016,US
Kolkata,WB,,IN
Brisbane,QLD,4000,AU
Alexandria,VA,,US
,,,
New York,NY,10025,US
,,,
,,,
La Plata,MD,20646,US
,,,
Olds,Alberta,,CA
,,,
Oakland,CA,94603,US
Redding,CA,96001,US
Philadelphia,PA,19147,US
New York,NY,10016,US
Washington,DC,20006,US
,,,
,,,
Winterville,NC,28590,US
,,,
San Francisco,CA,,US
Atlanta,GA,30305,US
Gainesville,FL,32603,US
Los Angeles,CA,90015,US
Pearl City,HI,96782,US
Istanbul,,,TR
Manly,NSW,2095,AU
Chattanooga,TN,37402,US
,,,
Portland,OR,98201,US
,North York,BD23,GB
Rapid City,SD,57701,US
Hillside,NJ,7205,US
Reisterstown,MD,21136,US
,,,
,,se11 4ld,
Pasadena,CA,,US
Smithtown,NY,11787,US
,,,
Wilmington,DE,,US
Rockford,IL,61107,US
Atlantic City,,,US
Bordeaux,Aquitaine,33000,FR
Ann Arbor,MI,,US
Columbia,SC,29210,US
Philadelphia,PA,19103,US
Molfetta,Italia,70056,IT
,,89144,
Cleveland,OH,44114,US
Bridgewater,MA,2325,US
Boston,MA,2210,US
Miami Beach,FL,33139,US
Chicago,IL,,US
Detroit,MI,48206,US
Cleveland Heights,OH,44118,US
Washington,DC,20009,US
Hampstead,MD,21074,US
Los Angeles,CA,90043,US
New York,NY,10024,US
Little Rock,AR,72201,US
Madison,WI,53726,US
,,,
,, ,
Berkeley,CA,94720,US
Harrisonburg,VA,22802,US
Greensboro,NC,,US
Edison,NJ,,US
Adelaide,South Australia,5006,AU
Indianapolis,IN,46225,US
Dartmouth,MA,2747,US
Washington,DC,20019,US
Regina,SK,S4P 0H5,CA
Hyde Park,,12538,US
San Francisco,CA,94123,US
Buffalo,NY,14225,US
Tampa,FL,33604,US
Las Vegas,NV,89109,US
Barboursville,WV,25504,US
Singapore City,Singapore City,49178,SG
Jönköping,,,SE
,Greater London,SW3 4LY,GB
Boston,MA,2215,US
,,,
Bristol,,BS6 5BB,GB
Portland,OR,97204,US
,NC,,US
,,,
West Malling ,,ME19 4YU,
Austin,TX,78746,US
Hemel Hempstead,England,,GB
Salt Lake City,UT,84111,US
Victoria,BC,V8T 4L1,CA
Vancouver,BC,V6Z 2E7,CA
Chicago,IL,60611,US
Fremont,CA,94536,US
Benowa,QLD,4217,AU
London,London,EC1N 2PB,GB
Huntsville,AL,35805,US
,,,
Asheville,NC,28803,US
Las Vegas,NV,89108,US
Dallas,TX,75216,US
Birmingham,Birmingham,B1 3HE,GB
Loveland,CO,80538,US
La Mirada,CA,90638,US
Cave Spring,VA,24018,US
Salisbury,MD,21801,US
Santa Barbara,CA,93105,US
London,Gt Lon,WC2B 5BX,GB
Chicago,IL,60625,US
Abbotsford,VIC,3067,AU
Cincinnati,OH,45224,US
Lafayette,IN,47904,US
,NM,87110,US
Berlin,,10117,DE
Little Baddow,England,CM3,GB
Fortitude Valley,QLD,4006,AU
,,,
,,,
New York,NY,11217,US
Minnetonka,MN,55305,US
,,,
Breckenridge,CO,,US
,,,AU
Manchester,Manchester,M60 7HA,GB
Greensboro,NC,27455,US
Northampton  ,,NN2 7AL,GB
Waterloo,Ontario,N2L 3E9,CA
Chicago,IL,60653,US
Baltimore,MD,21202,US
Beverly Hills,CA,,US
Savannah,GA,31404,US
,,,
Ooty,Tamil Nadu,643001,IN
Carol Stream,IL,60188,US
Charlotte,NC,28262,US
Thermi,Makedonia Thraki,570 01,GR
Randolph,NJ,7869,US
,,,
Stadtsteinach,Bayern,95346,DE
Troyes,Champagne-Ardenne,10000,FR
Bolton,,BL1 1RU,GB
,,,
Alicante,Comunidad Valenciana,,ES
,,,
Washington,DC,20009,US
Saskatoon,Saskatchewan,S7K 5C7,CA
Duluth,GA,30097,US
Coeur D'alene,ID,83814,US
Richmond,VA,23284,US
,Scotland,EH1 1JX,GB
Socorro ,Tx ,79927,US
Austin,TX,78757,US
,Uppsala County,,SE
Richmond,VA,23219,US
Prineville,OR,97754,US
Belleville,MI,48111,US
London,London,,GB
New York,NY,,US
Naples,FL,34103,US
Menlo Park,CA,94025-1015,US
Fort Lauderdale,FL,33308,US
Dallas,TX,75232,US
Washington,DC,20004,US
Miami,FL,33133,US
,,,
San Francisco,CA,94107,US
Vancouver,BC,V5T 3G7,CA
Firenze,,50123,IT
Nashville,TN,37209,US
Tampa,FL,33607,US
London,England,SE10 0AX,GB
,,,US
Southfield,MI,48075,US
Woodbridge,New Jersey,,US
Beverly Hills,CA,910210,US
Philadelphia,PA,,US
Louisville,KY,40203,US
Memphis,TN,38105,US
Milan,Lombardia,20100,IT
Athens,GA,30605,US
Lady Lake,FL,32159,US
Toulouse,Midi-Pyrénées,,FR
Santa Rosa,CA,95404,US
Washington,DC,20001,US
,ON,M6P 1X8,CA
Tyler,TX,75708,US
London,London,,GB
London,London,EC1V 0HB,GB
London,England,WC2R,GB
Portland,OR,,US
Kenosha,WI,53142,US
Toronto,Ontario,M5V 2H5,CA
Memphis,TN,38125,US
Los Angeles,CA,90048,US
Chicago,IL,60649,US
Salford,,M5 3AW,GB
,,,
Orlando,FL,32819,US
Brighton,East Sussex,BN1 2FU,GB
,Singapore,59422,SG
Minneapolis,MN,55403,US
,,,
,,,
Indianapolis,Indiana,46204,US
Terre Haute,IN,47807,US
"Washington, D.C. 20006",DC,20006,US
Ben Lomons,CA,CA,US
,,PR1 8JT,
Washington,DC,20003,US
Houston,TX,77002,US
Dunkeld Birnam,Scotland,PH8 0DS ,GB
Chicago,IL,60612,US
,,,
Toronto,Ontario,M5V 1Y5,CA
Elk Grove,CA,95759,US
,,,
Jacksonville,FL,32204,US
London,London,,GB
,,,
,,,
Houston,TX,77030,US
Tba,Samtskhe-Javakheti,,GE
Pflugerville,TX,,US
Louisville,KY,40209,US
San Francisco,CA,94103,US
Alma,MI,48801,US
Bristol,"Bristol, City Of",BS8 2DJ,GB
Kalisz,Greater Poland Voivodeship,,PL
Toronto,Ontario,,CA
Ocoee,TN,37361,US
,,,
Barcelona,Barcelona,8008,ES
Denver,CO,80202,US
,,,
San Diego,CA,92093,US
Washington,DC,,US
Karachi,Sindh,,PK
New York,NY,10029,US
Chicago,IL,60614,US
Paris,Ile De France,75010,FR
,,CA,
San Francisco,CA,94107,US
Jonesboro,GA,,US
Manchester,Manchester,M3 3HF,GB
San Francisco,CA,94103,US
Chicago,IL,60634,US
,VA,22903,US
,,,
Greenville,NC,27834,US
New York,NY,10031,US
Elgin,IL,60120-6502,US
Queenstown,MD,21658,US
Superior,WI,54880,US
New York,NY,11215,US
Baton Rouge,LA,70816,US
London,London,E1 6RU,GB
Amsterdam Zuidoost,NH,1101 CJ,NL
Los Angeles,CA,90015,US
Wien,Wien,1090,AT
,,,
Decatur,GA,30032,US
London,,EC2A 4BX,GB
Indianapolis,IN,46218,US
Fond du Lac,WI,54935,US
Singapore,,179101,SG
El Paso,TX,79924,US
Fresno,CA,93721,US
Lowell,MA,1851,US
Concord,NC,28025,US
South Orange,NJ,7079,US
Cambridge,Cambridgeshire,CB22 4NL,GB
Dallas,TX,75201,US
Hampton,GA,30228,US
,,,
Louisville,KY,40209,US
Belfast,Northern Ireland,BT1 6JA,GB
Arlington,VA,,US
Paris,Ile De France,75012,FR
,,SN3 1SH,
Berkeley,CA,94704,US
S Francsico,CA,94110,US
Madrid,Comunidad de Madrid,28001,ES
Asheville,NC,28801,US
,,EC3R 6DX,
,,,
,,,
Las Vegas,NV,89147,US
San Diego,CA,92109,US
Chicago,IL,,US
Junction City,WI,54443,US
Chicago,IL,60613,US
Yakima,WA,,US
Buena Vista,,81211,US
,,,GB
Birmingham,,B15 2TT,GB
Nashua,NH,3060,US
,,SE1 2TZ,
,,,
New York,NY,10012,US
,,,
Algonquin,IL,60102,US
London,London,WC1H 0BW,GB
New York,NY,10036,US
San Francisco,CA,94133,US
Berkeley,CA,94704,US
La Jolla,CA,92037,US
Lecce,Italia,73100,IT
London,London,W1k 4ER,GB
Dublin 12,Ireland,,US
Boston,MA,2118,US
Wood Dale,IL,60191,US
Glen Ellyn,IL,60137,US
San Diego,CA,92106,US
North Richland Hills,TX,76180,US
Derby,Derby,DE24 8JE,GB
San Francisco,CA,94130,US
Long Beach,CA,,US
Riverside,CA,92507,US
,Holborn,WC2A 3LY,GB
Onalaska,WI,54650,US
Henderson,NV,89052,US
New York,NY,,US
London,Greater London,N7 6PA,GB
,,,
Fort Lauderdale,FL,33316,US
,,,
Oakland,CA,94607,US
Coloma Charter Township,MI,49038,US
Independence,OH,44131,US
New York,NY,11205,US
Hayward,CA,94541,US
Newark,DE,19711,US
Memphis,TN,38111,US
Monza,Lombardia,,IT
,,,
Atlanta,Georgia,30329,US
Smyrna,GA,30080,US
Howard Beach,NY,11414,US
Palmer,AK,99645,US
Atlanta,GA,30326,US
,,,
Roma,Lazio,198,IT
Cologne,NRW,50997,DE
Carmel,IN,46032,US
Ventura,CA,93003,US
Vienna,VA,22182,US
Nashville,TN,37203,US
Santa Clara,,95054,US
Richmond,VA,23284,US
Sofia,Sofia-city,1164,BG
Chicago,IL,60607,US
,,,
Niagara Falls,Ontario,w1n w1n,CA
Birmingham,,B1 2ND,GB
,,,
Springfield,MO,65809,US
Milsons Point,,2061,
,,,
Minneapolis,MN,55418,US
,,,
Pasadena,CA,91105,US
Philadelphia,PA,19122,US
Philadelphia,PA,19106,US
Groes-faen,Mid Glamorgan,CF72 8ND,GB
New Westminster,BC,V3M 4H2,CA
West Chester,PA,19380,US
Dallas,TX,75231,US
Falls Church,Virginia,22041,US
Port Adelaide,SA,5015,AU
Saint Petersburg,Saint Petersburg,,RU
,,,
Atlanta,GA,30309,US
Austin,TX,78704,US
Landover,Maryland,20785,
Paris,Ile De France,75004,FR
Mariposa,CA,95338,US
Atlanta,GA,30307,US
Des Moines,IA,50321,US
Philadelphia,PA,19123,US
Coshocton,OH,43812,US
Arlington,VA,22207,US
,,,
Brooklyn,NY,11223,US
Calais,Nord-Pas-de-Calais,62100,FR
MCRD Parris Island,SC,29905,US
Walnut Creek,CA,94596,US
Eugene,OR,97401,US
Pleasanton,CA,94588,US
Los Angeles,CA,90045,US
Wagga Wagga,NSW,2650,AU
Fairfax,VA,22030,US
Schaumburg,IL,60173,US
Saint Helena,CA,94574,US
San Francisco,CA,941015,US
Ottawa,Ontario,K1S 3V4,CA
Mitchell,IN,47446,US
London,London,WC1E 7DF,GB
Balzac,Alberta,T0M 0E0,CA
Brzozów,Podkarpackie Voivodeship,,PL
Hoboken,NJ,7030,US
Chadron,NE,69337,
,,,
Wadsworth,OH,44281,US
Mar del Tuyú,BA,,AR
Groton,CT,6355,US
Campbell,CA,,US
,,,
,,,
,,SN10 1DS,
Denver,CO,80202,US
,,,
Philadelphia,PA,19147,US
Kings Cross,England,NW1 2DB,GB
Brisbane,,,AU
,,,
,,,
Minneapolis,,55408,US
New York,NY,10017,US
Torino,Piemonte,10152,IT
Brooklyn,NY,11222,US
,,,PT
London,London,WC2H 7AQ,GB
Ellicott City,MD,21043,US
Memphis,TN,38115,US
Lakewood,OH,44107,US
Borutta,Sardegna,7040,IT
Richland,WA,99352,US
La Rochelle,PCh,17000,FR
Miami Beach,FL,33139,US
Clayton,MO,63105,US
Battle Creek,MI,,US
Ann Abor,MI,48014,US
San Francisco,CA,94103,US
Langley,British Columbia,,CA
London,London,EC1Y 8JJ,GB
Wheaton,IL,60187,US
awegaw,AZ,343453,US
Toronto,Ontario,M5S 1A1,CA
Oakland,CA,94607,US
San Francisco,CA,94118,US
Mexico City,D.F.,6000,MX
,,,
,,,
El Puerto de Santa María,AL,11500,ES
Sacramento,CA,95831,US
Burlington,ON,L7L,CA
Culver City,CA,90232,US
Budapest,Budapest,1075,HU
,,,
San Francisco,CA,94105,US
,,,
Tallahassee,,32301,US
Fort Worth,TX,76115,US
Woodbridge,VA,22192,US
Lakehurst,NJ,8733,US
Los Gatos,CA,95033,US
Washington,DC,,US
,,,
Kirkleatham,Redcar and Cleveland,TS10 5NW,GB
Austin,TX,78704,US
Macon,GA,,US
Lancaster,England,LA1,GB
Antrim,Antrim,BT41 2UB,GB
Little Rock,AR,72201,US
St Leonards,NSW,2065,AU
New York,NY,10019,US
Boston,MA,,US
Mumbai,Maharashtra,400037,IN
Saint Petersburg,Saint Petersburg,,RU
Lagos,,,NG
,,,
Ontario,CA,91762,US
San Francisco,CA,94105,US
Marlborough,Wiltshire,SN8 4AX,GB
Collingwood,VIC,3066,AU
,,,
Chicago,IL,60613,US
Henderson,NV,89015,US
Victoria,British Columbia,V8V3K3,CA
,,,
Westborough,MA,1581,US
Destin,FL,32550-7268,US
New York,NY,10036,US
,,48187,
,Scotland,,GB
,,,
,,,
Wainfleet,ON,L3K 2S6,CA
,,,
,,,
Birmingham,Worcestershire,B48 7AL,GB
,,,
Malibu,CA,90265,US
Lithonia,GA,30038,US
Pittsburgh,PA,15222,US
Donacaster,,DN4 9UX,GB
Bethel Park,PA,15102,US
Westborough,MA,1581,US
Nottingham,England,NG7,GB
Vancouver,BC,,CA
Bradley,CA,,US
Liverpool,Mersyd,L12 7JJ,GB
Nashville,TN,37205,US
Elka Park,NY,nj,US
Kirkintilloch,North Lanarkshire,G66 5DH,GB
Tampa,FL,33620,US
San Diego,CA,92101,US
Champaign,IL,IL,US
Montgomery,OH,45242,US
San Jose,CA,95118,US
Devon,,EX24 6HN,GB
Dallas,TX,75201,US
Bremerton,WA,98311,US
New York,NY,10018,US
,,,
East Brisbane,Queensland,4169,AU
Raleigh,NC,27612,US
London,,SW1A 2LW,GB
"New Delhi, ",Delhi,110001,IN
,,,
,,,LU
,,,
Richmond,TX,77469,US
Washington,DC,20009,US
Santa Cruz,CA,95064,US
Houston,TX,77056,US
London,Gt Lon,NW1 8TT,GB
Toronto,Ontario,,CA
Villeurbanne,RA,69100,FR
,MD,,US
Cleveland,OH,,US
Fernandina Beach,FL,32034,US
Rochester,MN,55904,US
Baltimore,MD,21244,US
Nashville,,,US
Santa Ana,CA,92705,US
Norfolk,VA,23510,US
Draper,UT,84020,US
Baltimore,MD,,US
New York,NY,,US
Las Vegas,NV,89119,US
,,,
Scottsdale,AZ,85257,US
Stockholm,Stockholm County,11153,SE
Mahwah,New Jersey,7495,US
,,1800-255,
Longview,WA,98632,US
,,,
Mountain View,CA,,US
Candler,NC,28175,US
New York,NY,10002,US
,,,
Jamaica,NY,11436,US
Indianapolis,IN,46202,US
New York,NY,10013,US
Blue Ridge,GA,30513,US
Rimini,Emilia Romagna,47921,IT
New York,NY,10014,US
San Jose,CA,95129,US
,,,
,,,
,,8822,
Orlando,FL,,US
Scarborough,ME,4074,US
Charlotte,NC,28269,US
London,London,EC4V 5AJ,GB
,,,
San Ramon,CA ,94583,US
Canton,MA,2021,US
Atlanta,GA,30303,US
Hookstown,PA,15050,US
Atlanta,GA,30305,US
London,London,WC2E 8QH ,GB
,,10027,
Vancouver,BC,V6B 1L6,CA
London,ON,N6C 3P6,US
Brooklyn,NY,11201,US
,,,
Brooklyn,NY,11217,US
Huntington Beach,CA,92646,US
Topeka,KS,66611,US
Istanbul,,,TR
Washington,DC,20052,US
Mason,OH,45040,US
Chicago,IL,60601,US
,,,
,,(859) 261-6777,
Stockton,CA,95203,US
Tacoma,WA,98402,US
Ruston,LA,71272,US
London,,NW2 6PG,GB
Fairbanks,AK,,US
Spring,TX,77380,US
,,,
Selma,AL,36703,US
Toronto,Ontario,M5V 2W6,CA
Saint Louis,MO,63101,US
Tacoma,WA,98402,US
Washington,DC,20006,US
,,,
Stanardsville,VA,22973,US
Tucson,AZ,85716,US
Singapore  307684,,,SG
Burlingame,CA,94010-9949,US
San Francisco,CA,94117,US
Singapore,Singapore,455266,SG
Oregon City,OR,,US
New York,NY,10012,US
Tulsa,OK,74145,US
Valley View,OH,44125,US
Adelaide,South Australia,5000,AU
Glasgow,Lanarkshire,G2 8DP,GB
,,,
Wooster,OH,44691,US
Charlotte,NC,28202,US
Greensboro,NC,27403,US
,,,
,,,
,Newtownabbey,BT36 4TQ,GB
Durham,NH,3824,US
Houston,TX,77095,US
San Jose,CA,95110,
Edinburgh,"Edinburgh, City Of",EH2 2HG,GB
Baton Rouge,LA,70801,US
,,,
Virginia Beach,VA,23462,US
Pinole,CA,,US
Sydney,New South Wales,2000,AU
,,10013,
Chicago,IL,60607,US
Bellevue,WA,98005,US
London,Gt Lon,,GB
Orangeburg,SC,29115,US
London,England,EC2A,GB
,,,
Boca Raton,FL,33431,US
Irving,TX,75062,US
Kuwait,Al Kuwayt,,KW
New York,NY,10017,US
New York,NY,10014,US
Edisto Beach,SC,29438,US
Williamsburg,VA,23185,US
Vancouver,British Columbia,V6J 1X6,CA
Chagrin Falls,OH,44022,US
Chicago,,60630,US
Greenville,SC,29609,US
Ottawa,Ontario,,CA
Boston,MA,2108,US
Woodland Hills,CA,91360,US
Redondo Beach,CA,90277,US
,,,
State College,PA,16803,US
Indianapolis,IN,46254,US
Toronto,ON,M3J,CA
Columbus,,43215,US
Ridgefield,WA,98642,US
Sydney,NSW,2000,AU
Penicuik,Midlothian,EH269DL,GB
,,,
,BC,,CA
,,,
,,,
Bedford,Nova Scotia,B4A 0C9,CA
,,,
Charlotte,NC,,US
Falls Church,VA,22041,US
Hampton,VA,23666,US
Boston,MA,2215,US
Edmonton,Alberta,,CA
Hull,Kingston upon Hull,HU3,GB
Richmond Hill,ON,L4C 3B7,CA
Valencia,Comunidad Valenciana,46002,ES
San Antonio,TX,78216,US
Midhurst,West Sussex,GU29 0HS,GB
Austin,TX,78741,US
,,,US
Burlington,Ontario,,CA
Inverness,Scotland,,GB
Birmingham,AL,,US
Benicia,CA,94510,US
Miamisburg,OH,45342,US
Greensboro,NC,27410,US
Washington,DC,20010,US
Redding,CA,96003,US
Sydney,New South Wales,,AU
Abbotsford,BC,V4X 2H5,CA
Temple Hills,MD,,US
Denton,TX,76207,US
,,WA,
,,,
Houston,TX,77088,US
Anchorage,AK,99508,US
Plano,TX,75074,US
Oakland,FL,34787,US
Falcon Heights,MN,55108,US
Brussels,Brussels,1000,BE
Downers Grove,IL,60516,US
,,,
London,London,WC1E 6AU,GB
Seattle,WA,,US
,,,
Waltham,MA,2452,US
Flagstaff,AZ,86001,US
Newport Beach,CA,92661,US
New York,NY,10022,US
Vancouver,BC,V6C 0C3,CA
Truro,England,TR1 1TH,GB
So. San Francisco,,94123,
Basingstoke,Hampshire,RG21 7LX,GB
Miami,FL,,US
,,,
Raleigh,NC,27612,US
Tuscaloosa,AL,,US
,,,
Peninsula,OH,44264,US
Lake Forest,CA,92630,US
Boston,MA,2115,US
Phoenixville,PA,19460,US
,,,
New York,NY,10038,US
,England,NE65,GB
,,NJ,
San Francisco,CA,94111,US
Denver,CO,,US
Airdrie,AB,T4B 3L8,CA
Washington,DC,,US
,,,
New York,NY,10010,US
Brooklyn,NY,11249,US
Houston,TX,77027,US
skokie,,60077,US
,,,
Chicago,IL,60614,US
Pittsburgh,PA,15224,US
,Wales,LL55,GB
Tomball,TX,77375,US
Frederick,MD,21701,US
Mansfield,ON,L0N,CA
New York,NY,10036,US
Oakland,CA,94607,US
Cambridge,Cambridgeshire,CB3 0EZ,GB
Cincinnati,OH,45202,US
Kingston Upon Thames,Kingston Upon Thames,KT1 2EE,GB
Sutton,Gt Lon,SM1 2RG,GB
Fridley,MN,55432,US
Bloomfield Hills,MI,,United States
Henrico,VA,23150,US
Carmel,IN,46032,US
Las Vegas,NV,89118,US
San Jose,CA,95118,US
Saratoga,,95070,US
Canyon Lake,CA,92587,US
,,,
St. Johns,MI,48879,US
San Marino,CA,91108,US
Houston,TX,77007,US
Bronx,NY,10453,US
Bangor,,4401,US
Tel Aviv,,,IL
Central London,,,
Mountain View,CA,94043,US
Paterson,NJ,7503,US
Dunwoody,GA,30338,US
Ann Arbor,MI,48104,US
Wakefield,Wakefield,WF4 3FL,GB
,,,
Paterson,NJ,7505,US
Minneapolis,MN,55405,US
Miami Beach,FL,,US
Lathlain,WA,6100,AU
Cambridge,MA,2139,US
San Francisco,CA,94110,US
Charlotte,NC,28202,US
,,,
Dearborn,MI,48126,US
,,E2 8DP,GB
Vancouver,BC,V5Y 1E4,CA
Royal Oak,MI,48067,US
New York,NY,10018,US
College Park,GA,30349,US
Atlanta,GA,30342,US
Chicago,IL,60611,US
Charlotte,NC,28209,US
London,London,E58BP,GB
Doncaster East,,,AU
,,,
Santa Barbara,CA,93111,US
Milton Keynes,Buckinghamshire,MK9 3BN,GB
Mount Pleasant,MI,48858,US
Arcadia,CA,91007,US
,,,
,,,US
,,,
San Francisco,CA,94111,US
Los Angeles,CA,90017,US
Seoul,,,KR
Brooksville,FL,34601,US
,,,
,,,
Mine Centre,ON,P0W 1H0,CA
Dearborn Heights,MI,,US
Philadelphia,PA,19104,US
St George,KS,66535,US
Atlanta,GA,30309,US
Singapore City,Singapore City,68900,SG
London,London,WC1H 0DG,GB
,,,
Westerville,OH,43082,US
Brisbane,Queensland,4005,AU
Chicago,IL,,
Waco,TX,76705,US
Oakland,CA,94621,US
Santa Barbara,CA,93101,US
,,,
Bonita,CA,91902,US
Columbus,OH,43229,US
Kingwood,TX,77339,US
Denver,CO,80205,US
West Long Branch,NJ,7764,US
Wilmington,DE,19801,US
Baltimore,MD,21218,US
Minot,ND,58703,US
Newton,SA,5074,AU
West Jordan,UT,84088,US
Kings Park,NY,11754,US
Vienna,Vienna,1010,AT
,,,
Wethersfield,CT,,US
San Francisco,CA,94111,US
,,,
Adelaide,SA,5000,AU
Denver,CO,80204,US
Eindhoven,Noord-Brabant,5656 AE,NL
Waterloo,IA,50701,US
San Diego,CA,92101,US
Bradford,West Yorkshire,BD7 3BZ,GB
,,,IN
San Francisco,CA,94117,US
Lisboa,Lisboa,1600-198,PT
Hoboken,NJ,7030,US
Raleigh,NC,27612,US
Sacramento,CA,,US
Fairfax,CA,94930,US
Plymouth,Plymouth,PL4 8AA,GB
Los Angeles,CA,91356,US
Cooper City,FL,33328,US
St. Thomas,VIRGIN ISLANDS,,US
Portland,OR,97209,US
,,,
Alexandria,LA,71301,US
,,,
Vienna,Vienna,1070,AT
Las Vegas,NV,,US
Boston,MA,,US
,,,
Beacon,NY,12508,US
Boston,MA,2108,US
Ottawa,Ontario,K1K 4E7,CA
Brookfield,WI,53186,US
Sydney,NSW,,AU
Southampton,Hampshire,SO14 1AR,GB
Toronto,Ontario,,CA
San Mateo,CA,,US
,,,
Oak Brook,IL,60523,US
Princeton,MN,55371,US
Columbus,OH,43210,US
Washington,DC,20019,US
,,249715,
New York,NY,10022,US
Elmhurst,IL,60126,US
Manchester,,M14 5LN,GB
Altamonte Springs,FL,32714,US
Spring,TX,77373,US
De Pere,WI,54155,US
,,,
London,,SW1E 5DU,GB
,,,
South Holland,IL,60473,US
Mississauga,Ontario,,CA
San Francisco,CA,,US
Washington,DC,20036,US
New York,NY,10002,US
Rancho Cordova,CA,95670,US
,,,
San Antonio,TX,78205,US
San Rafael,CA,94903,US
Melbourne,Victoria,3022,AU
,,CA,
San Francisco,CA,,US
Cambridge,England,CB2,GB
Saltburn-by-the-Sea,Redcar and Cleveland,TS12,GB
West Point,NY,10996,US
Bolton,England,,GB
Santa Ana,CA,92704,US
Lexington,KY,40505,US
Somerville,MA,,US
Coventry,England,CV1 2NE,GB
Denver,CO,,US
Tulsa,OK,74106,US
,,,
Stone Mountain,GA,30083,US
Cambridge,MA,,US
Scottsdale,,85250,US
,,WC2E 9NA,
,,,
Marysville,,43040,US
Chicago,IL,60638,US
Hindmarsh,SA,5007,AU
Cary,NC,27518,US
Atlanta,GA,30315,US
Northport,NY,11768-2200,US
Boston,MA,MA,US
Temecula,CA,92592,US
Brooklyn,NY,11201,US
Manchester,Manchester,M2 6HQ,GB
,,,US
,,,
,,,
New York,NY,,US
Miami,FL,33127,US
Jackson Heights,NY,11377,US
Katy,TX,77450,US
Boston,MA,2115,US
Hallandale,FL,33009,US
Winnipeg,Manitoba,R3C 3P5 ,CA
Salisbury,NC,28146,US
Washoe Valley,NV,89704,US
Toronto,ON,M4S 2B8,CA
Snoqualmie,WA,98065,US
New York,New York,12404,US
,,,
Edenbridge,Kent,TN8 7AR,GB
Mableton,GA,30126,US
Breukelen,UT,3621 ED,NL
,CA,,US
,,,
Manchester,Gt Man,,GB
Phoenix,AZ,85004,US
,,,
Nashville,TN,37212,US
,,,
Brighton And Hove,,BN2 1WP,GB
London,London,WC2N 5PE,GB
Omaha,NE,68178,US
Exmouth,Western Australia,,AU
Buc,IDF,78530,FR
Washington,DC,20016,US
Cupertino,CA,95014,US
Winchester,Hampshire,SO23 9LS,GB
San Francisco,CA,94110,US
Carrabelle,FL,32322,US
Liverpool,Merseyside,L3 9SJ,GB
Seattle,WA,98102,US
Mt. Juliet,TN,,US
Inverness,Highld,IV2,GB
Exeter,Devon,EX2,GB
Tel Aviv,,,IL
,,,
Phuket Thailand,,,
Boston,MA,2115,US
Ho Chi Minh City,Hồ Chí Minh,,VN
New York,NY,,US
,,,
North Parramatta,,NSW,
Tucson,AZ,85701,US
Sheffield,Sheffield,S1 2EW,GB
London,London,EC2V 5AE,GB
,,,
San Francisco,CA,,US
Highland,CA,,US
Petaluma,CA,94952,US
Irvine,CA,92618,US
Las Vegas,NV,89169,US
Melbourne,VIC,3000,AU
Pikesville,MD,21208,US
Irvine,CA,92614,US
Pau,Rhone Alpes,64000,FR
,,,
Livingston,NJ,7039,US
London,Gt Lon,NW1 8LL,GB
Oakland,CA,94607,US
Birmingham,AL,35216,US
St Louis,MO,63143,US
,,,
Washington,DC,20004,US
East Meadow,NY,,US
Oak Lawn,IL,60453,US
Middlesbrough,,TS1 3BZ,GB
Milano,Lombardia,20154,IT
York,York,YO1 9RY,GB
Americus,GA,3170,
Richmond Hill,ON,L4E 3G4,CA
Chicago,IL,60601,US
Brooklyn,NY,11215,
Petaling Jaya,Selangor,,MY
Washington,DC,20007,US
Vancouver,WA,98660,US
Somerset,CA,95684,US
Doha,Doha,,QA
Redmond,WA,98052,US
New York,NY,10011,US
Brooklyn,NY,,US
Suffolk,,IP1 1SL,GB
,,2000,
Los Angeles,CA,90049,US
Palisades Park,NJ,7650,US
Mililani,HI,96789,US
Wheat Ridge,CO,80033,US
,,,ID
Sydney,NSW,2027,AU
Chicago,IL,60608,US
Verona,Veneto,37132,IT
Portland,OR,97211,US
Baton Rouge,LA,70808,US
Oakland,CA,94610,US
London,London,WC1N 1HT,GB
Raleigh,NC,27609,US
New York,NY,10024,US
Portland,OR,97214,US
Milwaukee,WI,,US
Washington,DC,20008,US
Walnut Creek,CA,94598,US
Chicago,IL,60657,US
Marietta,,30062,US
Leeds,,LS9 0PJ,GB
La Romana,Dominican Republic,,DO
New York,NY,10011,US
San Francisco,CA,94107,US
Neutral Bay,NSW,2089,AU
,,,
Haifa,Hefa,34642,IL
Delray Beach,FL,33484,US
<b>Las Vegas,<b>Nevada,,US
Amman,Amman Governorate,,
Aylesbury,Buckinghamshire,HP19 8FF,GB
Las Vegas,NV,89109,US
Musswellbrook,NSW,,US
Suffolk,VA,23434,US
Philadelphia,PA,19107,US
Palo Alto,CA,94301,US
Paris,,75016,FR
,,178881,SG
Desoto,TX,75115,US
Oakland,CA,,US
West Columbia,SC,29172,US
Boston,MA,2210,US
Makawao,HI,96768,US
St Lucia,,4072,
,,,
Windsor,CA,95492,US
McLean,VA,22102,US
New York,NY,10001,US
,,,
Rocklin,CA,95765,US
Pocatello,ID,83201,US
Melbourne,Victoria,3130,AU
Washington,DC,20001,US
,,,
Bellevue,WA,98004,US
Dallas,TX,75210,US
Atlanta,Georgia,GA 30308,US
Berwyn,,19312,US
,,,
San Francisco,CA,94103,US
Fargo,ND,58102,US
Cleveland Heights,OH,44108,US
Calgary,AB,Postal Code,CA
Washington,DC,20009,US
San Antonio,TX,78212,US
,,,
Fort Washington,MD,20744,US
San Jose,CA,95113,US
Milwaukee,,53202,US
Washington,DC,20004,US
Tangerang,Banten,15211,ID
Bristol,,BS1,GB
Watford,County,Postcode,
Dublin,OH,43017,US
Newburyport,MA,1950,US
Newcastle Upon Tyne,Newcastle Upon Tyne,NE1 1SG,GB
Squamish,BC,V8B,CA
Reno,NV,89511,US
Galveston,TX,77550,US
,,,
Gallatin,TN,37066,US
Newburgh,NY,12550,US
Lynchburg,VA,24503,US
Chicago,IL,60603,US
East London,London,E2 9AP,GB
,,,
Long Beach,CA,90802,US
Bruxelles,,1210,BE
Mississauga,ON,L5B 2C9,CA
St. Charles,,63301,
Queens,NY,11102,US
Tustin,CA,92782,US
Waterloo,ON,N2L 3G1,CA
Cheltenham,England,GL50 1NN,GB
Evanston,IL,60201,US
Lakewood,CO,80401,US
Baton Rouge,LA,70802,US
Long Branch,NJ,,US
Manchester,Manchester,M60 2DS,GB
Los Angeles,CA,90026,US
,,,
Cheltenham,England,,GB
Longview,TX,75601,US
,,,
Toronto,Ontario,,CA
Surfside Beach,SC,,US
Acworth,GA,30101,US
Oxford,England,OX1,GB
Boulder,CO,80309,US
Albuquerque,NM,87107,US
Highgate,WA,6003,AU
Vallejo,CA,94592,US
281-334-1000,,,
,,,
Noblesville,IN,,US
Elizabeth City,NC,27909,US
Basking Ridge,NJ,,US
Horsham,Victoria,3400,AU
Cambridge,MA,2138,US
Bailey,NC,27807,US
Washington,DC,20045,US
Vancouver,British Columbia,V6C 2Y9,CA
"Washington, D.C.",DC,20045,US
Bronx,NY,10470,US
Kyiv,UKRAINE,1021,US
Amesbury,MA,1913,US
Troy,MI,48084,US
Lengede,NDS,38268,DE
Rockwall,TexasState,75189,US
Ciudad Obregón,,85132,MX
Austin,TX,78746,US
Lenox,MA,,US
Irvine,CA,92618,US
,,,
Paradise Valley,AZ,85253,US
Naples,FL,,US
Gatineau,QC,J9A,CA
,,,
Tempe,AZ,85281,US
Los Angeles,CA,90048,US
Northbrook,IL,60062,US
Trenton,NJ,8618,US
Portland,OR,97224,US
New York,NY,10017,US
,,,
Toronto,ON,M5G 2C5,CA
Los Angeles,CA,90012,US
Upper Marlboro,MD,20772,US
Stafford,TX,77477,US
Huddersfield,Kirklees,HD4 6EN,GB
Kansas City,MO,64111,US
Mt Vernon,NY,10550,US
San Luis Obispo,CA,93407,US
Cardiff,Cardiff,CF10 2EQ,GB
Houston,TX,77003,US
East Lansing,MI,48824,US
Kent,OH,,US
,,,
San Francisco,CA,94110,US
Detroit,MI,48201,US
Hollywood,CALIFORNA,,US
Verona,VA,24482,US
,,,
London,Gt Lon,SE10 0EW,GB
Huntington Beach,CA,92647,US
Washington ,DC,20008,US
Dubai,,,AE
Los Angeles,CA,90049,US
Caistor St Edmund,Norfk,NR14 8QN,GB
Spokane,WA,99202,US
London,London,W2 1JU ,GB
San Francisco,CA,94123,US
Los Angeles,CA,90028,US
Austin,TX,78724,US
Belfast,Belfast,BT1 5GB,GB
,,,
,,,
,,,
Anderson,IN,46016,US
Columbia,SC,29201,US
Winter Park,FL,32792,US
Bridgetown,Barbados,,BB
Norton,MA,2766,US
Berkeley,CA,94710,US
,,,
Palo Alto,CA,94304,US
Phnom Penh,Phnom Penh,,KH
Brisbane,QLD,4000,AU
Blackpool,,FY4 1BB,GB
Scottsdale,AZ,85250,US
Mexico City,Distrito Federal,6700,MX
Pittsburgh,PA,15213,US
Gulf Shores,AL,36542,US
Redwood City,CA,94061,US
Seattle,WA,98103,US
Grand Rapids,MI,49503,US
San Pablo,CA,94806,US
Atlanta,GA,30303,US
,,,
Newburyport,MA,1950,US
,,,
Austin,TX,78723,US
New York,NY,11201,US
Loughborough University,Leicestershire,LE11 3TU,GB
,,,
Calgary,AB,T2Z 3W4,CA
Castle Rock,CO,80108,US
,,,
,,,
Humble,TX,TX,US
Edinburgh,"Edinburgh, City Of",EH3 5NZ,GB
,,CF11 8AZ,GB
Palo Alto,CA,94301,US
Chicago,IL,60604,US
Denver,CO,80202,US
,,,
,,,
Milwaukee,WI,53207,US
Ormond Beach,FL,32176,US
Providence,RI,2906,US
Long Beach,CA,90802,US
Kendallville,IN,46755,US
Savannah,GA,31419,US
Stratford-upon-Avon,England,CV37,GB
Boston,MA,2121,US
Chicago,IL,60654,US
La Crosse,WI,,US
,,,
San Francisco,CA,94103,US
Riyadh,Ar Riyad,,SA
Leesburg,VA,20176,US
New Orleans,LA,70116,US
New York,NY,10011,US
Calgary,Alberta,,CA
Toronto,ON,M5H 1A1,CA
Carovigno,Puglia,,IT
Ashland,OR,97520,US
Moorhead,MN,56560,US
London,Gt Lon,EC2A,GB
,,,
Boston,MA,,US
Baltimore,MD,21202,US
Halifax,Nova Scotia,,CA
Aventura,FL,33180,US
Hong Kong,Hong Kong,,HK
Paris,IDF,75004,FR
Charleston,SC,29403,US
Alicante,Alicante,3013,ES
Fountain Hills,AZ,85268,US
New Orleans,LA,70118,US
Bouée,Pays de la Loire,44260,FR
Brooklyn,NY,11217,US
,,,
Dallas,TX,75216,US
Temecula,CA,92591,US
,,SO41 5QA,GB
Fort Lewis,WA,98433,US
London,England,W1S 4BS,GB
St Helier,JERSEY,JE2 3QE,US
Melbourne,Victoria,3199,AU
Moncton,NB,E1C,CA
New Delhi,Delhi,,IN
Oklahoma City,OK,73117,US
Oshkosh,WI,54902,US
Chicago,IL,60642,US
London,London,WC2B 4DD,GB
New York,NY,10001,US
,,,
Minneapolis,MN,55408,US
,,,
Cincinnati,OH,45236,US
Morrisville,PA,19067,US
San Francisco,CA,,US
Ridgeway,SC,29130,US
Chicago,IL,60612,US
,,,
Amherst,MA,1002,US
,,,
Los Angeles,CA,90012,US
Minneapolis,MN,USA,US
,,,
Chesapeake,VA,23323,US
,,,
,,,
Budapest,Budapest,,HU
,,,
Fort Wayne,IN,46706,US
,,,
Raleigh,NC,27616,US
,Greater London,NW1 7PN,GB
Silver Spring,MD,20910,US
Sydney,New South Wales,2000,AU
Clovis,CA,93611,US
London,Gt Lon,EC1Y 2AY,GB
Memphis,TN,38120,US
,,,
,VIC,3212,AU
Philadelphia,PA,19103,US
ALPHARETTA,,30009,US
Belding,MI,48809,US
Jacksonville,FL,,US
,,,
Chicago,IL,60613,US
,,,
Atlanta,GA,30338,US
,,,
St Simons Island,GA,31522,US
Perth,Western Australia,6010,AU
Indianapolis,IN,46204,US
Canmore,Alberta,T1W 3J4,CA
Chesapeake,VA,23323,US
Cambridge,,2163,US
London,Gt Lon,NW1 2AX,GB
Bellevue,WA,,US
Baltimore,MD,21201,US
,,,
,,British Columbia,
Dublin,OH,,US
Washington,DC,,US
,,,
Sarnia,ON,N7V 4J2,CA
Cohasset,MA,2025,US
Austin,TX,78701,US
Boston,MA,2111,US
Torrensville,SA,5031,AU
Anchorage,AK,99501,US
,,,
Jessup,MD,20794,US
Cedar Park,TX,78613,US
,AL,,US
Davao City,Davao Region,,PH
,,SL9 0QJ,
Palo Alto,CA,94301,US
Borger,TX,,US
,,,
,,,
London,,SE4 1UT,GB
Tournai,Région wallonne,7500,BE
Leon,kansas,,
Edmonton,AB,T5G 0N4,CA
Surfers Paradise,QLD,4217,AU
New Rochelle,NY,10801,US
Scottsdale,AZ,85260,US
,,,
Brighton,East Sussex,BN2,GB
Noventa Vicentina,Veneto,36025,IT
Plainview,NY,11803,US
,,,
Glendale,AZ,85305,US
Berlin,Berlin,,DE
Singapore,,187940,SG
Sydney,NSW,2035,AU
Oslo,Oslo,,NO
Los Angeles,CA,90731,US
,,,
,,6014,
Ankara,,,TR
Oakland,CA,,US
Schaumburg,IL,60173,US
Denver,CO,,US
San Francisco,CA,94105,US
Linden,NJ,7036,US
Tulsa,OK,,US
Roma,RM,185,IT
,,,
,,,TD
,,,
Lyndhurst,NJ,7070,US
Lincoln,England,LN1,GB
Las Vegas,NV,89109,US
Sebring,FL,33875,US
,,,
Miami Shores,FL,33161,US
Orlando,FL,32810,US
Chicago,IL,60608,US
,,,
,,,
San Rafael,CA,94901,US
Memphis,TN,38137,US
Aguascalientes,AGS,20328,MX
Naples,FL,34103,US
San Diego,CA,92114,US
,,,
Washington,DC,20007,US
Mountain View,CA,94043,US
,,,
Austin,TX,78701,US
London,London,SE1 8NJ ,GB
Irving,TX,75063,US
,,,
,,10017,
Lodi,CA,95240,US
New York,NY,10013,US
Newport News,VA,23606,US
Fredericton,NB,E3B 5H8,CA
Los Angeles,CA,90020,US
,,,
Oklahoma City,OK,73106,US
,,E1 4NS,GB
Flushing,NY,11354,US
,,,
Copenhagen,,2100,DK
Bucharest,Bucharest,30833,RO
Edinburgh,Scotland,,GB
New York,NY,10026,US
Anaheim,CA,92806,US
Mountain View,CA,94041,US
Coventry,Coventry,CV3 3DG,GB
,,,FJ
Saint Petersburg,Saint Petersburg,,RU
Washington,DC,20001,US
Denver,CO,80204,US
Boston,MA,2215,US
Milwaukee,WI,53221,US
Portland,OR,97205,US
Palo Alto,CA,94303,US
Las Vegas,NV,89119,US
Boston,MA,2116,US
Los Gatos,CA,95030,US
St. Charles,MO,63303,US
Chicago,IL,60612,US
Atlanta,GA,30305,US
MediaCityUK,England,M50 2ST,GB
Los Angeles,CA,,US
Princeton,NJ,8542,US
,,,VN
Oxon Hill,MD,20745,US
Macungie,PA,18062,US
Saint Petersburg,Saint Petersburg,,RU
San Francisco,CA,94158,US
Murfreesboro,TN,37130,US
,,77002,
Fairfield,New Jersey,7004,US
,,,
Front Royal,VA,22630,US
Atlanta,GA,30313,US
Everett,WA,98201,US
Willow Grove,PA,19090,US
San Antonio,TX,78251,US
Tulsa,OK,74146,US
Los Angeles,CA,90064,US
Washington,DC,20024,US
Cabo San Lucas,BCS,,MX
Jessup,MD,20701,US
San Francisco,CA,94115,US
Birmingham,AL,35229,US
,,,
North Canton,OH,44720,US
Leicester,Leicester,LE1 5YP,GB
Largo,MD,20774,US
"Newcastle upon Tyne, ",,NE1 5DF,GB
Chico,CA,95928,US
Belfast,Belfast,BT9 5FF,GB
Sylva,NC,28779,US
Great Western Road,Gloucester,GL1 3NN,GB
Tyne Valley,PE,C0B 2C0,CA
Denver,CO,80237,US
Atlanta,GA,30309,US
Greenville,SC,29601,US
Grand Rapids,MI,49525,US
Palm Beach Gardens,FL,33418,US
Toronto,Ontario,M1G 3T8,CA
London,England,,GB
Pombal,Leiria,,PT
,,,
New York,NY,10027,US
,,,
Seattle,WA,98107,US
Denver,CO,80205,US
Hollywood,CA,90027,US
,,EC4M 7DR,GB
,,,
Maple Grove,MN,55311,US
Playa del Carmen,QROO,77710,MX
Northfield,Illinois,60093,US
Methil,Fife,KY8 3RW,GB
Toronto,ON,M5G 1R1,CA
Brisbane,QLD,4000,AU
Toronto,Ontario,M5H 4B2,CA
Dundas,Ontario,L9H2S2,CA
New York,NY,,US
Rosemead,CA,,US
Glendora,CA,91740,US
Raleigh,NC,27614,US
San Diego,CA,92122,US
Glasgow,Glasgow City,,GB
Silverwater,NSW,2128,AU
Lawrenceville,GA,30046,US
Montgomery,AL,36117,US
Philadelphia,PA,19106,US
Cranston,RI,2920,US
Sanford,NC,27330,US
,England,RH6 0BA,GB
Boston,MA,2115,US
,,,
Winchester,VA,22601,US
Minnetrista,MN,55364,US
Toronto,ON,M5V 1J1,CA
Sydney,New South Wales,,AU
Cabot,AR,72023,US
London,England,EC4V 5AJ,GB
St Charles,IL,60174,US
,,,
,,,US
Atlanta<ga,,30318,
,CA,,US
New Orleans,LA,70119,US
Sydney,New South Wales,,AU
Winnipeg,Manitoba,,CA
,,,
Fairfield,IA,52556,US
Sheffield,Sheffield,S1 1WB,GB
,,,
Perth,WA,6000,AU
Austin,TX,78701,US
Valdosta,GA,31601,US
,,,
Elizabethtown,PA,17022,US
Vancouver,British Columbia,V6Z 1Y5,CA
Atlanta,GA,,US
Clermont,FL,34711,US
Bronx,,,US
,,,
Hobart,Tasmania,7000,AU
,,18062,
Sanford,NC,27330,US
Ypsilanti,MI,48197,US
London,Gt Lon,E15 2PF,GB
Needham,MA,2492,US
Chicago,IL,60601,US
Croydon,England,CR0,GB
Utrecht,UT,3581,NL
,,,
San Francisco,CA,94111,US
Carson,CA,90747,US
Liverpool,Merseyside,L3 1QZ,GB
Chicago,IL,60611,US
Kanata,Ontario,,CA
Encino/ Reseda,CALIFORNIA,91316/ 91335,US
Los Angeles,CA,,US
Warrington,,WA3 7PB,GB
Chicago,IL,,US
Brockville,ON,K6V 3P8,CA
Indianapolis,IN,46222,US
London,London,SW1Y 4UH,GB
"Zürich, Switzerland",ZH,8001,CH
Sydney,,2000,AU
Levittown,NY,11756,US
Center Line,MI,48015,US
Oklahoma City,OK,73104,US
,,,
Los Angeles,CA,90004,US
Austin,TX,78752,US
,,,
Mountain View,CA,94043,US
Makati City,PHILI,,US
,,,
Twentynine Palms Base,CA,92278,US
Maroochydore,Queensland,4558,AU
San Francisco,CA,94110,US
Chicago,IL,60610,US
Sanford,FL,32771,US
,,,
Claremont,CA,91711,US
Palo Alto,CA,,US
Kansas City,MO,,US
Grafton,WI,53024,US
Chicago,IL,60647,US
,,,
Salem,OR,97301,US
Cambridge,MA,2139,US
Dripping Springs,TX,78620,US
Makati City,NCR,,PH
Liphook,Hampshire,GU30,GB
Boca Chica,,,DO
Lee's Summit,MO,64064,US
London,ON,N6E 1M3,CA
Berkeley,CA,,US
,,,
Denver,PA,17517,US
,,,
Saint Petersburg,Saint Petersburg,,RU
Rancho Santa Fe,CA,92014,US
Suwanee,GA,30024,US
Excelsior,MN,55331,US
Santa Fe,NM,87507,US
Detroit,MI,48207,US
Buenos Aires,Capital Federal,,AR
Washington,DC,20008,US
,,,
,,,
New York,NY,10016,US
,,,
New York,NY,10036,US
Memphis,TN,38104,US
NEW YORK,NY ,10022,US
,,,
,,,
Bethesda,,20852,US
Honolulu,HI,96813,US
,,,
Austin,TX,78702,US
,,,US
Lake Zurich,IL,,US
Aledo,TX,76008,US
,,,
Heidesee,BB,15754,DE
Bend,Oregon,97701,US
Reading,Reading,RG1 8LG,GB
Atlanta,GA,30331,US
,,,
Ontario,CA,91761,US
Aberdeen,,AB11 5BY,GB
North Bay Village,FL,33141,US
Cary,NC,27518,US
Webster,TX,77598,US
Fremont,CA,94538,US
Hughesdale,VIC,3166,AU
Los Angeles,CA,90007,US
Bournemouth,Bournemouth,BH2 6BE,GB
Albuquerque,NM,87105,US
Oslo,Oslo,484,NO
Birmingham,AL,,US
Washington,DC,20007,US
Paris,IDF,75011,FR
,,,
,California,,US
Arlington,,22202,US
,,,
Perth,ON,K7H 1X7,CA
Fulton,MS,38843,US
Tallahassee,FL,32312,US
Millburn,NJ,7078,US
Mississauga,ON,L5L 3R8,CA
Mashantucket,,06338-3777 ,
Schaumburg,IL,60193,US
,,,
London,Gt Lon,NW1 2AJ,GB
Pasadena,CA,91101,US
Manhattan,New York,10004,US
Mission Viejo,CA,92691,US
Ithaca,NY,14850,US
Arden Hills,MN,55112,US
Boston,MA,2108,US
Sulaymaniyah,Kurdistan Region,,IQ
London,London,W4 1PR,GB
Chicago,IL,60612,US
,,,
Knoxville,TN,37902,US
New Orleans,LA,70115,US
,,,
Greenville,NC,27834,US
Savannah,GA,31405,US
Ottawa,ON,K2G 1V8,CA
Prescott ,AZ,86303,US
Portland,OR,97204,US
Alpharetta,GA,30004,US
Charlotte,NC,28226,US
Knoxville,TN,,US
Washington,DC,20017,US
New York,NY,10029,US
,,,
,,,
,,,
,,,
San Francisco,CA,94103,US
Hermosa Beach,CA,90254,US
Pasco,WA,99301,US
,,,
San Francisco,CA,94123,US
Washington,DC,20001,US
Croydon,Croydon,CR9 1DX,GB
,,,
Austin,TX,78704,US
London,,N7,GB
Rotterdam,ZH,3038,NL
,,,US
Panama City Beach,FL,Florida,US
Melbourne,VIC,3000,AU
Dallas,TX,75228,US
Omaha,NE,68102,US
Bristow,VA,20136,US
Munich,HH,,DE
,,,
South Kingstown,RI,2879,US
Boston,MA,2128,US
Timonium,MD,,US
Fond Du Lac,WI,54935,US
Melbourne,Victoria,3000,AU
North Vancouver,British Columbia,,CA
Bolingbrook,IL,60490,US
,,,
Winnipeg,MB,R3C 3N9,CA
New York,NY,10027,US
London,,,GB
,Gt Lon,,GB
Nashville,TN,37204,US
Tempe,AZ,85281,US
Fallston,MD,21047,US
Irving,TX,75038,US
New York,NY,10001,US
Barnstable,MA,2668,US
Denver,CO,80249,US
Melbourne,VIC,3000,AU
Celebration,FL,34747,US
,,,
Boston,MA,2114,US
Oklahoma City,OK,73119,US
Fort Washington,MD,20745,US
Echuca,VIC,3564,AU
West Hollywood,CA,90069,
Indianapolis,IN,46278,US
London,Gt Lon,E1 6BJ,GB
Florida City,FL,33781,US
London,,W13 9LA,GB
,,,FI
Chicago,IL,60613,US
McDonough,GA,30253,US
,,,
Clifton,NJ,7012,US
,,,
London,UK,WC2R 0RN,GB
Bournemouth,Bournemouth,BH2 5EJ,GB
Milton,ON,L9T 6H7,CA
Atlanta,,30309,US
Southampton,Southampton,SO16 6YD,GB
Las Vegas,NV,89119,US
London,London,WC2E 9LG,GB
Mountain View,CA,,US
,Greater London,N7 0NU,GB
Greenville,SC,29601,US
Atlanta,GA,30319,US
Washington,DC,20001,US
,,SW6 4HW,
Kathmandu,Central Region,44600,NP
Minneapolis,MN,55455,US
Lugo,Emilia Romagna,48022,IT
Taunton,Somerset,TA21 8SN,GB
North Haledon,NJ,7508,US
Ofallon,IL,62269,US
Glasgow,Glasgow City,G1 3LX,GB
Humble,TX,77338,US
Quebec,QC,G1K 3J2,CA
,,,
Lee's Summit,MO,64063,US
Washington,DC,20019,US
Ontario,CA,91764,US
Irving,TX,75060,US
San Jose,CA,95112,US
Farmington Hills,MI,48334,US
Spa,Région wallonne,4900,BE
San Francisco,CA,94109,US
West Hollywood,CA,90048,US
Atlanta,GA,30345-3125,US
Durham,NC,27701,US
Ankara,Ankara Province,6800,TR
Toronto,Ontario,,CA
Astoria,OR,97103,US
San Francisco,CA,,US
Concord,NH,3303,US
London,London,N15 4RX,GB
Kitchener,ON,N2G 4P3,CA
Austin,TX,78610,US
Berkeley,CA,94720,US
Fort Washington,PA,19034,US
,,,
Tullamarine,VIC,3043,AU
Kelowna,British Columbia,V1X 5E4,CA
Belvidere,NJ,,US
,,,
Fayetteville,AR,,US
Washington,DC,20004,US
Toronto,Ontario,M9W 1J3,CA
,,,
Grand Prairie,TX,75052,US
London,Ontario,SE16 6QL,CA
San Francisco,CA,94103,US
Malvern,PA,19355,US
Ruislip,,HA4 9XA,GB
Cape Coral,FL,33904,US
Hamburg,HH,20457,DE
El Paso,TX,79901,US
Santa Rosa,CA,95403,US
Waipahu,HI,96797,US
,,,
New York,NY,10011,US
Los Angeles,CA,90012,US
Irvine,CA,92603,US
Sausalito,CA,94965,US
Carmelley,IN,,US
,,,
,,,
Vilnius,Vilniaus Apskritis,,LT
Farnworth,Bolton,BL4 7PQ,GB
Russellville ,KY,42276,US
Knoxville,TN,37912,US
Byron Bay,NSW,2481,AU
,,,
California,PA,15419,US
New Orleans,LA,,US
Meridian,ID,83642,US
Columbus,OH,43229,US
Los Angeles,CA,90028,US
,,,
Nassau,NY,11021,US
Salem,OR,97301,US
Colorado Springs,CO,80917,US
Banksmeadow,NSW,2019,AU
Springfield,MO,65802,US
Amsterdam,NH,1068 LE,NL
,,,
,,413 01 Göteborg,
,,,
Austin,TX,78757,US
Ocala,FL,,US
Las Vegas,NV,89102,US
,,,
San Francisco,CA,94111,US
Copenhagen,Capital Region of Denmark,1172,DK
,,,
Charlottesville,VA,22903,US
New York,NY,,US
Walsall,England,WS1,GB
Newark,DE,19713,US
Irvine,CA,92614,US
,,,
Hatboro,PA,19040,US
Lexington,KY,40508,US
Lamont,CA,93241,US
South Haven,MI,49090,US
חיפה,,,
,,,DE
Manteca,CA,95336,US
Birkenhead,Mersyd,CH63,GB
Escondido,CA,92025,US
Richmond,VA,23230,US
,,,
New York,,10036,US
Winnipeg,MB,R3B 1M3,CA
Morehead City,NC,28557,US
,,,
Sandy,UT,84070,US
MILANO,ITALIA,,IT
Howard Beach,NY,11414,US
Hancock,NY,13783,US
Paris,IdF,75011,FR
Little Rock,AR,72201,US
Castle Rock,CO,80109,US
Vail,CO,81657,US
Punta del Este,Departamento de Maldonado,,UY
Toronto,ON,M5R,CA
Paris,Ile De France,75013,FR
Cedar Rapids,IA,52401,US
,,,
Wakefield,MA,1880,US
Kelowna,British Columbia,V1Y8S3,CA
San Francisco,CA,94123,US
Chicago,,60606,US
Pars Lès Romilly,Champagne Ardenne,75012,FR
South Melbourne,VIC,3205,AU
,,,
Berkeley,,,US
London,Gt Lon,EC1M 5NR,GB
Sea Girt,NJ,8750,US
,,,
Houston,TX,77003,US
London,,NW3 3HF,GB
San Francisco,CA,,US
St Louis,MO,63103,US
,,84014,
,,LS3 1DT,
Omaha,NE,68114,US
,,,
,,,
,Gt Lon,WC2B,GB
Singapore City,Singapore City,Singapore,SG
Edmonton,AB,T6E 4A4,CA
New York,NY,10003,US
ki,ki,ki,TZ
Faulkland,Somset,BA3 5WA,GB
Meridian,ID,83642,US
Goostrey,Cheshire,,GB
Baltimore,MD,21234,US
New York,NY,10012,US
London,Greater London,W1K 6ZD,GB
Northumberland,England,NE65 7BJ,GB
London,London,W1T 4BQ,GB
,GA,,US
,,,US
Glen Allen,VA,23059,US
Sharonville,OH,45241,US
Pleasant Grove,UT,,US
San Mateo,CA,94402,US
Philadelphia,PA,,US
London,Gt Lon,WC1N,GB
,,,
Los Angeles,CA,,US
Charleroi,Région wallonne,6041,BE
,,,
Sioux Falls,SD,57107,US
El Segundo,CA,90245,US
Fairplain,WV,25271,US
Lenexa,KS,66215-3637,US
,,,
Birdbrook,England,CO9,GB
,,,
Canton,OH,44705,US
Grapevine,TX,76051,US
Phoenix,AZ,85022,US
Kissimmee,FL,34744,US
London,Gt Lon,NW1,GB
Nottingham,England,NG1,GB
Ocean City,MD,21842,US
Montréal,Québec,H2H 1V4,CA
Montclair,NJ,7043,US
Charlotte,NC,28202,US
Galveston,TX,,US
,,,
Chicago,IL,60646,US
Jefferson,OR,97325,US
Dallas,TX,75231,US
San Francisco,CA,94105,US
,Gt Lon,SW9 0JJ,GB
Chicago,IL,60608,US
Carrollton,TX,75010,US
Las Vegas,NV,89109,US
Baltimore,MD,21217,US
,,,
Seattle,WA,,US
Boston,MA,,US
New York,NY,11368,US
Grenoble,RA,38000,FR
Clovis,CA,93612,US
Fredericksburg,VA,22407,US
 Madison,WI,53704,US
Austin,TX,78712,US
New York,NY,10013,US
Cincinnati,OH,,US
Rosalie,QLD,4064,AU
Chicago,IL,,US
,,,US
Los Angeles,CA,90012,US
,Greater Manchester,M4 3BG,GB
,,,
Durham,NC,27701,US
Brighton and Hove,East Sussex,BN1 4GH,GB
"Washington, D.C.",MD,20037-1522,US
Outremont,Quebec,H2V 4E1,CA
,,,
,,,
Tulsa,OK,74120,US
Melbourne,Vic,3000,AU
Santa Monica,CA,,US
Milano,Lombardia,20136,IT
Cedar Park,TX,78613,US
New York,NY,10011,US
San Francisco,CA,94115,US
New York,NY,10017,US
,,,
Houston,TX,77040,US
Door County,WISCONSIN,54209,US
Coquitlam,British Columbia,,CA
Seattle,WA,98109,US
Toronto,Ontario,M4W 2G8,CA
Detroit,MI,48214,US
Cordova,TN,,US
Ottawa,ON,K2G,CA
Grand Prairie,TX,75050,US
Seattle,WA,98101,US
Kyle,TX,78640,US
,,,
Singapore City,Singapore City,550129,SG
,,60610,
Denver,CO,80205,US
תל אביב,ישראל,,IL
Boston,MA,2125,US
,,,
Greenwood,SC, 400 Glenwoo,US
McComb,MS,39648,US
Chicago,IL,60601,US
,,,
New York,NY,10019,US
,,,
Mooloolaba,Queensland,4557,AU
Pune,Maharashtra,411004,IN
Houston Texas,,77098,
Balok,Pahang,26080,MY
Kitchener,ON,N2M 3S3,CA
Montreal,QC,,CA
Seattle,WA,98104,US
Nottinghamshire,,NG7 2RD,GB
London,London Borough of Camden,WC1H 0DG,GB
White Plains,NY,10606,US
Conroe,TX,77304,US
Gold Canyon,AZ,85118,US
,,,
Wasilla,AK,99654,US
Hamilton,ON,L8V 5B5 ,US
Cambridge,Cambridgeshire,CB39ET,GB
,,,
Exmouth,Devon,EX8 2AZ,GB
,,,
Culver City,CA,90230,US
Chorlton-cum-Hardy,Gt Man,M21,GB
London,,W1J 0BG,GB
Bethlehem,PA,18017,US
Hadleigh,Suffk,IP7 5DN,GB
Austin,TX,78724,US
Washington,DC,20057,US
Burnaby,British Columbia,v5c 0c7,CA
San Francisco,CA,94118,US
Geneva,IL,60134,US
Marion,IN,46953,US
Boston,MA,2215,US
Honolulu,,96815,US
,,,
Brisbane,Queensland,4000,AU
Tallahassee,Florida,32301,US
Munich,BY,81245,DE
San Francisco,,94107,US
V6M 2V9,British Columbia,,CA
,,,
,,,
Gaithersburg,MD,20877,US
Lilburn,GA,30047,US
,,TN25 4AJ. (For SatNav please use TN24 9JZ),
Prague,Hlavni Mesto Praha,,CZ
Wellington,Wellington,6011,NZ
Philadelphia,PA,19104,US
Boston,MA,2122,US
Bellflower,CA,90706,US
Houston,TX,77005,US
Houston,TX,77030,US
Atlanta,GA,30319,US
,,,
Raleigh,NC,27612,US
London,Greater London,NW4 1RL,GB
Stafford Township,NJ,8092,US
New South Wales,,2290,AU
,,sc,
Phoenix,AZ,85051,US
Oxon Hill,MD,20744,US
Belfast,Northern Ireland,BT1 1,GB
Aurora,CO,80014,US
Leipzig,SN,4328,DE
,,,
Dallas,TX,75254,US
San Francisco,CA,94107,US
Salem,OR,97301,US
Bournemouth,Dorset,BH4 9AE,GB
Sherman Oaks,CA,91423,US
Seattle,WA,98104,US
,,,
Seabrook Island,SC,29455,US
Decatur,GA,30030,US
New York,NY,10022,US
Philadelphia,,19131,US
Las Vegas,NV,89113-2157,US
Reims,,51100,FR
Ballsbridge,Dublin,,IE
Riverview,FL,33578,US
,,,
,,,
Troy,MI,48084,US
,,,
Leatherhead,England,,GB
Honolulu,HI,96818,US
 Chattanooga,TN,37402,US
West Midlands,,B90 4GW,GB
Covington,KY,41011,US
Scottsdale,AZ,85257,US
Wandal,QLD,4700,AU
Bristol,England,BS8 1SA,GB
boston,MA,2134,US
Vila de Rei,Castelo Branco,6110,PT
Kingston,Ontario,k7k6w8,CA
Kinder,LA,70648,US
Tilburg,NB,5038 ED,NL
Barnsley,Barnsley,S75 1DT,GB
Johor Bahru,Johor,80300,MY
San Mateo,CA,94402,US
Eugene,OR,97405,US
Boston,MA,2134,US
London London ,,W1T 1RJ,
Arlington,VA,22201,US
,,,
Houston,TX,,US
,,,
New York,NY,,US
Saint Louis,MO,63103,US
Southfield,MI,48033,US
Westminster,CO,80234,US
Cirencester,Gloucestershire,GL7 2NX,GB
Livonia,MI,48152,US
Adelaide,SA,5000,AU
Lacey,WA,98516,US
Royal Oak,MI,48067,US
Anaheim,CA,92804,US
,,,HK
Toronto,ON,M5T 1G4,CA
,,,
Manassas,VA,20110,US
,,,
Guelph,Ontario,N1H 6L3,CA
Bristol,Avon,BS1 5JG,GB
Bogotá,Cundinamarca,110231,CO
,,,
Chesterfield,MO,63017,US
Atlanta,GA,30337,US
Toronto,ON,M5S 2E8,CA
Orlando,FL,32826,US
,,,
Winter Park,FL,32792,US
London,London,NW1,GB
Santa Barbara,CA,93109,US
Denver,CO,,US
Cheverly ,MD,20720,US
Lakewood,WA,98498,US
Decatur,GA,30035,US
Squamish,BC,V8B 0N8,CA
New Orleans,LA,70130,US
Columbia,SC,29212,US
Langley,BC,V2Y 1Y1,CA
New Orleans,LA,70125,US
London,,EC1M 3HN,GB
Jamaica,NY,11434,US
Oaklands Park,SA,5046,AU
San Francisco,CA,94112,US
Rydalmere.,NSW,2116,AU
Columbia,SC,29201,US
Cincinnati,OH,45202-2393,US
Nashville,TN,37214,US
Nyon,Geneve,,CH
Ben Lomond,CA,95005,US
Savannah,GA,31401,US
Oakland,CA,94606,US
Colchester,Essex,cm9 8hg,GB
Loveland,OH,OH,US
London,Greater London,SE1 8DD,GB
Amsterdam,NY,1052 wj,US
New York,NY,11229,US
,,,
San Diego,CA,92108,US
Milwaukee,WI,53225,US
Golden,CO,80401,US
Toronto,ON,M3J 3P1,CA
Edinburgh,Midlothian,EH1 3EG,GB
Denver,CO,80202,US
Rock Hill,SC,29730,US
Columbus,OH,43203,US
Los Angeles,CA,90025,US
Brooklyn,NY,11201,US
,,,
Budapest,Budapest,1085,HU
Sackville,New Brunswick,E4L 1E4,CA
,,,
,,,
Brookville,NY,11548,US
Bracebridge,ON,P1L,CA
Vancouver,British Columbia,,CA
Winter Haven,FL,33881,US
Singapore,,139959,SG
London,Gt Lon,WC2H 9NE,GB
,,77063,
Guildford,Surrey,GU1 3RR,GB
Deerfield Beach,FL,33442,US
Allentown,PA,18103,US
Latham,NY,,US
,,,
,Galway,,IE
Portland,OR,97205,US
Boca Raton,FL,33432,US
Cape Town,WC,7700,ZA
,,,
MURSHIDABAD,,742137,IN
Manchester,Gt Man,M13 9WL,GB
,,,
Mont sur Marchienne,Walloon Region,6032,BE
Orlando,FL,32819,US
Oakland,CA,94612,US
Tampa,FL,33605,US
San Francisco,CA,94103,US
Nairobi,Nairobi Area,100,KE
,,,US
Washington,DC,20020,US
West Hollywood,CA,90046,US
Tucson,AZ,85712,US
Torre-Pacheco,Región de Murcia,30700,ES
Chicago,IL,60647,US
West Jordan,UT,84088,US
New York,NY,NY 10019,US
Odenton,MD,21113,US
Austin,TX,78704,US
Saint Louis,MO,63103,US
Ocoyoacac,Estado de México,52740,MX
Keller,TX,76248,US
,,,
Bethesda,MD,20814,US
,,,
,,,
Philadelphia,PA,19127,US
Columbus,OH,43229,US
Minneapolis,MN,55416,US
Cincinnati,OH,45243,US
Dallas,TX,75212,US
Washington,DC,20016,US
,,,
Durham,NC,,US
Austin,TX,78756,US
Miami,FL,33130,US
Lubbock,TX,79423,US
,,,US
Torrington,CT,6790,US
Mechanicsville,VA,23111,US
Belfast,Belfast,BT9 5DY,GB
San Francisco,CA,94129,US
,,,
Portland,IN,47371,US
Bradford,Bradford,BD9 5BD,GB
Portsmouth,NH,3801,US
Henderson,CO,,US
Henrico,NC,27482,US
Cambridge,ON,N1T 1W2,CA
Alhambra,CA,91801,US
,,,
Bellevue,WA,98004,US
London,London,SE1 9PH,GB
Philadelphia,PA,19123,US
Pescadero,CA,,US
Chelsea,MA,,US
Millerton,NY,12546,US
Milton Keynes,Bucks,MK9 1BB,GB
San Francisco,CA,94108,US
,,,
Riverside,CA,92505,US
St Leonards,NSW,,AU
,,,
Highland Park,IL,60035,US
Washington,DC,20004,US
,,,
Aspers,PA,17304,US
,,,
South Hadley,MA,1075,US
Elizabeth,SA,5112,AU
San Antonio,TX,78216,US
Montréal,QC,H3G 1Z3,CA
New York,NY,10016,US
Fort Wayne,IN,46802,US
Ada,OK,74820,US
Hamilton,,ML5 0DW,
Forest Hill,MD,21050,US
,,,
Washington,DC,20004,US
Wayne,WV,25570,US
New York,NY,10011,US
Pasadena,CA,91103,US
St. Petersburg,FL,,US
Fort Bliss,TX,79906,US
,,,
,,,
Bronx ,NY,,US
,,,
,WA,,US
,,,
San Diego,CA,92101,US
Sharonville,OH,45241,US
Paint Rock,AL,,US
Orange,New South Wales,2800,AU
Leeds,West Yorkshire,LS16 5PS,GB
,,92840,
Chicago,IL,60654,US
Laguna Woods,CA,92637,US
Burns Flat,OK,73647,US
Costa Mesa,CA,92626,US
Fredericksburg,VA,22401,US
Jonesboro,AR,72401,US
Raleigh,NC,27606,US
Driggs,ID,83422,US
,,317-255-4013,
Montrose ,CA,91020,US
Buffalo,NY,14213,US
Houston,TX,77056,US
Montreal,QC,H2Z 1Y1,CA
Marshfield,VT,5602,US
,,1700,
,,,
Londonderry,Derry,W1D 4DD,GB
South Padre Island,TX,78597,US
,,,
New York,NY,10001,US
Leeds,West Yorkshire,LS6 2EQ,GB
,,,
Englishtown,NJ,7726,US
Melbourne,VIC,3000,AU
Troy,MI,48084,US
Ripon,York,HG4 1UG,GB
Manchester,England,,GB
,,,
Kissimmee,FL,34744,US
,,W2 1JU,GB
Philomath,OR,97370,US
Herlev,,2730,DK
,,,
,,,
Singapore,,228210,SG
Sheffield,Sheffield,,GB
Raleigh,,27604,US
Kirkland,WA,98033,US
Tallahassee,FL,32301,US
Fayetteville,AR,72701,US
Stratfrord-on-Avon,Warks,CV37 0PY,GB
Hamilton,ON,L8P 4Y5,CA
Nashua,NH,3063,US
Palo Alto,CA,,US
Vancouver,BC,V6B 2M4,CA
Spokane,WA,,US
Aalborg,Nordjylland,9000,DK
Torino,Piemonte,,IT
,,,
,,,
Irving,TX,75062,US
Los Angeles,CA,91016,US
,,DL1 1NW,
Fort Washington,MD,,US
Heusden-Zolder,Vlaams Gewest,3550,BE
Toronto,ON,M5A2G7,CA
Towson,MD,21252,US
Pune,Maharashtra,411004,IN
Alma,IL,62807,US
Hampstead,MD,21074-1342,US
Greenville,NC,27858,US
,,,
Kitchener,ON,N2M 5N4,CA
,,,
Tel Aviv ,,63432,IL
Syracuse,UT,,US
Marietta,GA,30067,US
Ottawa,ON,,CA
,,,
Elk Grove Village,IL,60007,US
Budapest,Budapest,1111,HU
Los Angeles,CA,90049,US
Naples,FL,34109,US
Blue Ash,OH,45242,US
Twisp,WA,98856,US
Zierikzee,ZE,4301,NL
Chicago,IL,60606,US
Forest Park,IL,,US
,,,
Tucson,AZ,85714,US
Bath,AVON,BA2 4AA,GB
New York,NY,10025,US
Paris,Île-de-France,75004,FR
Schiphol,NH,1118 CP,NL
Boston,MA,2110,US
Toronto,ON,M5V 3M8,CA
Wausau,WI,54401,US
Orlando,,32835,US
London,Gt Lon,EC1V,GB
Dallas,TX,75235,US
Charlottesville,VA,22902,US
Chino,Ca,91710,US
San Francisco,CA,94110,US
,,,
Oxford,Oxon,OX1,GB
Knoxville,TN,37922,US
Saint Davids,PA,19087,US
Rajkot,GJ,360005,IN
New York,NY,10010,US
Espoo,Espoo,,FI
Hemingford Abbots,Cambridgeshire,PE28 9AH,GB
Saint Petersburg,Saint Petersburg,,RU
Dublin,,D2,IE
Cincinnati,OH,45249,US
Laramie,WY,82070,US
Liverpool,Liverpool,L12 0HB,GB
Mississauga,Ontario,L5B 3C6,CA
Bethesda,MD,20814,US
Harker Heights,TX,76548,US
Dayton,OH,45431,US
,Hampshire,PO11 9SR,GB
Highland Park,IL,60035,US
Inverness,,IV2 5BE,GB
Edmond,OK,73025,US
,,,
Hong Kong,,0,CN
Los Angeles,CA,90066,US
Omaha,NE,68102,US
Coalville,England,LE67,GB
West Palm Beach,FL,33412,US
Toronto,ON,M5B 2K3,CA
,,,US
Madison,WI,,US
,,PA,
Worcester,MA,1609,US
,,,US
Bristol,"Bristol, City Of",BS1 5TX,GB
Sarnia,ON,N6H 5G5,CA
"Egg Harbor Township,",,8234,
,,,
,,,
Oslo,Oslo,167,NO
London,,,GB
Tallahassee,FL,32306,US
Minneapolis,MN,55408,US
Baltimore,MD,,US
Poole,Dorset,BH15 1JN,GB
Bangalore,KA,,IN
Roanoke,,24016,US
Tangerang,Jawa Barat,15810,ID
Carman,Manitoba,R0G 0J0,CA
Nashville,TN,37212,US
Clinton,NY,13323,US
Roswell,GA,,US
San Francisco,CA,94103,US
Towson,MD,21204,US
New York,NY,10021,US
Santa Monica,CA,90403,US
Palm Bay,FL,32901,US
Fort Collins,CO,,US
Houston,TX,77077,US
Tampere,,33200,FI
Kigali,Kigali,,RW
Atlanta,GA,30316,US
,,,US
Houston,TX,77098,US
London,Gt Lon,NW1 4NS,GB
Crema,Lombardy,26013,IT
Mahomet,IL,61853,US
Marietta,GA,30067,US
,,,
Evanston,IL,60201,US
Bournemouth,Bournemouth,BH8 8EB,GB
Torquay,,TQ2 5LZ,GB
Atlanta,GA,30318,US
,,,
Los Angeles,CA,90046,US
Dubai,Dubai,,AE
Seattle,WA,98102,US
Hexham,,,GB
Detroit,MI,48214,US
Cumming,GA,30040,US
Columbus,IN,,US
New York,NY,10012,US
,,,
,,,
Carson,CA,90745,US
Atlanta,GA,,US
Newcastle upon Tyne,Newcastle Upon Tyne,NE1 6UQ,GB
,,,
Dublin,Dublin,,IE
London,London,WC2B 6AA,GB
Towson,MD,21204,US
,,,
Gent,Oost Vlaanderen,9000,BE
Chattanooga,TN,37404,US
,,,
Barcelona,Catalonia,,ES
,,,
London,London,EC4A 3DE,GB
,,OX1 3LD,GB
,,,
Austin,TX,78701,US
Denver,CO,80202,US
Indianapolis,IN,46225,US
,,LS17 8GS ,
Milwaukee,WI,53206,US
Baltimore,MD,21286,US
Montreal,Quebec,,CA
,,,
Jacksonville Beach,FL,32250,US
South Wharf,VIC,3006,AU
Milton,Ontario,L9T7Y9,CA
Los Angeles,CA,90017,US
Salt Lake City,UT,84101,US
 Los Angeles,CA,90039,US
Manhattan,NY,10028,US
Manly,New South Wales,2095,AU
Haarlem,NH,,NL
Portland,OR,97204,US
Manhattan,New York,10037-1801,US
,Essex,,GB
,,,
,,,
New York,NY,10001,US
Boise,ID,,US
,,,
Wilmington,NC,28403,US
Chittering,W.A.,6084,
Washington,DC,20004,US
Washington,DC,20005,US
,,,
San Marcos,CA,92069,US
Freehold Township,NJ,7728,US
San Diego,CA,92106,US
Chicago,IL,60653,US
Stretford,Gt Man,M32 0TB,GB
Fort Worth,TX,76107,US
Los Angeles,CA,90026,US
Mt Isa ,QLD,4825,AU
San Francisco,CA,,US
Vancouver,BC,V6E 4J6,CA
Kingston upon Thames,Gt Lon,KT1 2EE,GB
Mobile,AL,36601,US
Boston,MA,2118,US
Washington,DC,,US
San Antonio,TX,78212,US
Silver Spring,MD,20906,US
,,,
,,,
,,,
London,Gt Lon,EC2A 4JE,GB
Whitehorse,Yukon Territory,Y1A 2L8,CA
San Diego,CA,92101,US
Las Vegas,NV,89169,US
Alburquerque,Extremadura,6510,ES
Houston,TX,77021,US
,,5032,
Atlanta,GA,30318,US
Edina,,55435,US
Sussex,WI,53089,US
Dallas,TX,75214,US
,,,
New York,NY,10016,US
Indianapolis,IN,46202,US
,,,
Baltimore,MD,21230,US
Pretoria,GP,20,ZA
Fort Collins,CO,80524,US
Buellton,CA,93427,US
Hampstead,NH,3841,US
London,Gt Lon,E8 3DL,GB
Paris,,75011,FR
Waldorf,MD,20602,US
London,United Kingdom,WC1E 7EX,GB
Scarborough,York,YO11 2PL,GB
Fresno,CA,93728,US
Sunrise,FL,33326,US
Kuala Lumpur,Federal Territory of Kuala Lumpur,43200,MY
,,,
Plymouth,Plymouth,PL4 0BG,GB
Portland,OR,97232,US
Manchester,NH,3101,US
,,,US
Chicago,IL,60631,US
Salem,OR,97309,US
,,,
Melton Mowbray,Leics,LE13 0PB,GB
Montreux,VD,1820,CH
Brooklyn,NY,,US
Chicago,IL,,US
Los Angeles,,90089-2211,US
,,,
Auburn Hills,MI,48326,US
Vanderhoof,British Columbia,V0J 3A0,CA
New York,NY,10004,US
,,,
Roseville,CA,95678,US
Albuquerque,NM,87102,US
Shoreditch,London,N1 6PB,GB
Washington,DC,20009,US
Charlotte,NC,28216,US
Saint Louis Park,MN,55416,US
Victoria,BC,V8T 4L1,CA
"Washington,",DC,20017,US
Baltimore,Maryland,21201-4401,US
Cary,NC,27513,US
,,,
Robbinsville,NJ,8691,US
Sheffield,,S1 2BP,GB
Bologna,Emilia Romagna,,IT
,Gt Lon,NW1 2DB,GB
,Gwynedd,LL41 3YU,GB
Southampton,PA,18966,US
Toronto,ON,M9C 1B8,CA
Brooklyn,NY,11222,US
,,,ON
,,,
Lerwick,,ZE1 0PW,GB
,,,
,,,
Madison,WI,53714,US
,,,
Edison,NJ,8817,US
Toronto,ON,M5A 3C9,CA
Midland,TX,79706,US
,,,
Brussels,Brussels Hoofdstedelijk Gewest,1050,BE
Newcastle,WA,98059,US
,,,
,,,AQ
Seattle,WA,97086,US
Irvington,NY,10533,US
New York,NY,10023,US
,,,
Limoges,Limousin,87110,FR
Fredericton,New Brunswick,E3B 5A3,CA
Bainbridge Island,,98110,US
Angleton,TX,77515,US
Kent,WA,98032,US
Dublin,,,IE
Whittier,CA,90601,US
Sparta,NJ,7871,US
Mildura,VIC,3500,AU
Niagara-on-the-Lake,ON,L0S 1J0,CA
Austin,TX,78702,US
Queens,NY,11368,US
,,,
Spartanburg,SC,29302,US
Pasadena,CA,91101,US
New York,NY,10003,US
Tucson,AZ,85475,US
,,,
Padova,Veneto,35131,IT
Londonderry,Derry,EC1M 4AR,GB
Hialeah,FL,33013,US
Newtown,CT,6470,US
,,,
London,,WC1E 7HX,GB
London,,SE10 0EW,US
Watkins Glen,NY,14891,US
,,,
Ewing,NJ,8628,US
Glastonbury,,6033,US
,,,
Atlanta ,GA ,,US
København V,Hovedstaden,1564,DK
March Air Reserve Base,CA,92518,US
Rochester,,48307,US
Costa Mesa,CA,92626,US
McKinney,TX,75070,US
Auckland,Auckland,1010,NZ
Sierra Vista,AZ,85635,US
Atlanta,GA,,US
Toronto,Ontario,m3C 3N4,CA
London,Gt Lon,EC2M 4AA,GB
Hagen,NRW,,DE
,Gt Lon,WC1E 6AE,GB
Kingscliff,NSW,2487,AU
Kuusankoski,na,45700,FI
Southport,NC,28461,US
,,,US
San Francisco,CA,94115,US
Cleveland,OH,44114,US
Boston,MA,2215,US
,DC,20002,US
Mission Viejo,CA,92691,US
Whittier,CA,90601,US
,,,
New York,NY,10036,US
Mallory Town ,on,K0E 1R0,CA
Daytona Beach Shores,FL,32118,US
New York,NY,NY,US
,,,
,,,
,,,
Minneapolis,MN,55455,US
Cairns,QLD,4870,AU
Saint Louis,MO,63103,US
San Marcos,TX,78666,US
Redondo Beach,CA,90277,US
Mountain Home,AR,72653,US
Brooklyn,NY,11201,US
Galax,VA,,US
London,London,,GB
London,,SE1 7PZ,GB
Scottsdale,AZ,85253,US
Myrtle Beach,SC,29577,US
Albany,NY,12207,US
Harrisonburg,VA,,US
,,,
Silver Spring,MD,20906,US
Skopje,,1130,MK
,,,
Orlando,FL,32812,US
Ottawa,ON,K1Y,CA
San Francisco,CA,94115,US
,SC,29661,US
Barcelona,CT,,ES
Bayswater,VIC,3153,AU
San Francisco,CA,94129,US
,,,
Indianapolis,IL,46240,US
,,91107,
Vancouver,British Columbia,V6M 2V7,CA
Moscow,ID,83843,US
New York,NY,,US
Daresbury,Warrington,WA4 4FS,GB
Sebastopol,CA,95472,US
Swansea,Swansea,SA1 2FA,GB
Birmingham,AL,35233,US
Bronxville,NY,10708,US
Minneapolis,MN,55415,US
Mdantsane,Eastern Cape,5219,ZA
,,,
Astoria,NY,11105,US
Oakville,ON,L6H 6M3,CA
Indian Wells,CA,92210,US
Wichita,KS,67207,US
,,,
Mason,OH,,US
Buffalo,NY,14221,US
Sydney,NSW,2000,
,,,
Seattle,WA,,US
Bangkok,Krung Thep,10110,TH
Austin,TX,78753,US
Orlando,FL,32801,US
,,,
,,,
London,London,W1H 5YZ,
,,,
,New Jersey ,,
Jackson,WY,,US
Brighton,VIC,3186,AU
Arvada,CO,80005,US
Doncaster,Victoria,3108,AU
Bournemouth,Bournemouth,BH2 5BD,GB
San Diego,CA,92120,US
Jackson,MS,39201,US
Dunwoody,GA,30338,US
Seraing,Région wallonne,4100,BE
Mitchellville,MD,20721,US
Salt Lake City,UT,84111,US
San Diego,CA,92131,US
San Francisco,CA,94122,US
Newcastle upon Tyne,,NE1 8AX,GB
Bellevue,WA,98004,US
Eagle River,AK,99577,US
,,,
Chertsey,Surrey,KT16 9BE,GB
Otley,York,LS21 3DG,GB
Levittown,PA,19054,US
Tampa,FL,33647,US
El Paso,TX,79925,US
Singapore,Singapore,339407,SG
Charlotte,NC,28269,US
"Washington, D.C.",DC,20036,US
Orlando,FL,32821,US
East Kilbride,East Renfrewshire,G74 4HG,GB
,,,
,,,
Atlanta,GA,30341,US
Dennisport,MA,,US
Oak Brook,IL,60523,US
,,,
,,,
Venice,CA,90291,US
Washington,DC,20024,US
,,,
Eagle,ID,83616,US
"New Delhi, India",,,
Sacramento,,95814,US
Richmond,VA,,US
San Francisco,CA,94110,US
Lawrenceville,GA,30046,US
,,,
Montclair,NJ,,US
Saint Petersburg,Saint Petersburg,,RU
Dresden-Striesen,,1277,
New York,NY,10010,US
,,,
,,,
New Orleans,LA ,70119,US
Anoka,MN,55303,US
,,W1G 0AN,
Elkridge,MD,21075,US
,,,
Nashville,TN,37201,US
Cambridge,MA,2142,US
,,,
Maple Grove,MN,55369,US
Guttenberg,NJ,7093,US
Saugus,MA,1906,US
Lakeland,FL,33811,US
,,,
Lexington,KY,,US
Liverpool,Liverpool,,GB
Johnson City,TN,,US
London,England,EC4V,GB
College Green,City of Bristol,BS1,GB
,Lanarkshire,G4 0BA,GB
New Orleans,LA,70119,US
San Juan,San Juan,921,PR
Vancouver,WA,98661,US
Roma,Lazio,165,IT
Liverpool,Mersyd,L1 5HA,GB
Halifax,NS,,CA
Newcastle Upon Tyne,Newcastle Upon Tyne,NE2 4PT,GB
,,Zip/Postal,
Denver,CO,80205,US
Scottsdale,AZ,85262,US
Bel Air,CA,90077,US
Paisley,Scotland,,GB
Geneva,GE,1201,CH
Boston,,MA,US
Mostoles (Madrid,,28933,ES
,Hertfordshire,,GB
Philadelphia,PA,19144,US
Williamsport,PA,,US
Canterbury,Kent,CT3 1AT,GB
Tba,Samtskhe-Javakheti,,GE
"Washington, D.C.",DC,,US
Arvada,CO,,US
Chicago,IL,60608,US
El Cajon,CA,,US
Djakarta,Jakarta Capital Region,,ID
Ciudad de Buenos Aires,Capital Federal,1414,AR
Decatur,GA,30034,US
Chicago,IL,60608,US
,,,
,,,
Elburn,IL,60119,US
,,,
Washington,DC,20016,US
"London, ",,SW1Y 5AG,GB
,,,
Mulhouse,,68100,FR
Houston,TX,77025,US
,,30909,
Dallas,TX,75212,US
Jacksonville Beach,FL,32250,US
Los Angeles,CA,90037,US
Petoskey,MI,49770,US
Milwaukee,WI,53223,US
Toledo,OH,43607,US
Limerick,PA,19468,US
Philadelphia,PA,19103,US
San Antonio,TX,78201,US
,,,
Kansas City,MO,64112,US
 Amsterdam,, 1076 ER,NL
Durham,NC,27707,US
Santa Monica,CA,90401,US
Toronto,ON,M4W 3R1,CA
London,London,,GB
FLINT,MI,48502,US
Montreal,Quebec,H4K 2Z6,CA
Boca Raton,FL,33431,US
Luton,Luton,LU1 2EY,GB
Brighton,, BN1 4AN,GB
Decatur,GA,30030,US
Chieti,Italia,,IT
Brooklyn,NY,11201,US
Haleiwa,HI,96712,US
Cape Canaveral,FL,32920,US
Blue Ash,OH,45236,US
Austin,TX,78705,US
Decatur,GA,30033,US
Columbia,MD,21045,US
London,London,WC1N 1EH,GB
Toronto,ON,,CA
Chicago,IL,60618,US
London,,NW2 1LT,GB
,,M15 6,
Minneapolis,MN,55419,US
Los Angeles,CA,90038,US
Toronto,Ontario,M4B 1A8 ,CA
Charlotte,NC,28077,US
Aurora,CO,80010,US
New York,NY,,US
Issaquah,WA,98029,US
Fort Lauderdale,FL,33316,US
Carmel,IN,46074,US
London,Gt Lon,E2,GB
Glasgow,Glasgow City,G2 8BG,GB
,,,
,,85224,
Columbus,OH,43206,US
Cherry Hill,NJ,8002,US
Detroit,MI,48219,US
,,,
Ústí nad Labem,Ústí nad Labem Region,400 07,CZ
San Jose,CA,,US
,,,
Nashville,TN,37218,US
New York,NY,10020,US
New York,NY,10023,US
Hong Kong Island,Hong Kong Island,,HK
,,11211,
New York,NY,10001,US
Naperville,IL,60563,US
Norwich,Norfk,NR2 1AW,GB
Saint Augustine,FL,32084,US
Millbrook,AL,,US
Dallas,TX,75243,US
Bowie Mill Park,,20721,US
,,,
Blue Bell,PA,19422,US
Hyde Park,NY,12538,US
Warrnambool,Victoria,3280,AU
Washington,DC,22201,US
,,EH2 2AA,GB
Atlanta,GA,30339,US
Devon,PA,19333,US
New York,NY,10013,US
,,,
Phoenix,AZ,85018,US
,,,
Paris,,75001,FR
,,,
Suisun City,CA,94585,US
,,,
Hanover,MD,21076,US
Seattle,WA,98136,US
Toronto,ON,M5G 2C5,CA
Minneapolis,MN,55403,US
Valparaiso,IN,46383,US
Singapore,Singapore,764348,SG
Newport,RI,2840,US
Houston,TX,77083,US
West Midlands,,WS2 8EQ.,GB
Troy,MI,48090,US
Bloomington,MN,55431,US
Atlantic City,NJ,8401,US
Princeton,NJ,8540,US
Ottawa,Ontario,K1N 9J2,CA
New York,NY,10019,US
Tinley Park,IL,60477,US
Spokane,WA,99217,US
Hollywood,CA,90028,
London,London,W1,GB
Flower Mound,TX,75022,US
London,London,SW5 9LS,GB
San Francisco,CA,,US
Boston,MA,2127,US
Coral Gables,FL,33145,US
New York,NY,10014,US
Berkeley,CA,94705,US
Chicago,IL,60607,US
Kiev,Kyiv city,,UA
,,,
Ypsilanti,MI,48197,US
Ogden,UT,84401,US
Liverpool,Mersyd,L1 3DF,GB
New York,NY,10018,US
Lansing,MI,48910,US
Kelowna,BC,V1V 1V7,CA
,,,
Columbus,OH,43212,US
Fountain Hills,AZ,85268,US
New York,,10011,US
Namadgi National Park,ACT,,AU
Atlanta,GA,,US
Sedona,AZ,86336,US
San Jose,CA,95116-3017,US
Winnipeg,MB,,CA
Montgomery,AL,36117,US
Baltimore,MD,21223,US
San Diego,CA,,US
,,,
,MA,2125,US
Washington,DC,20037,US
,,,
San Jose,CA,95113,US
Highland Village Tx,,75077,
,,,
Istanbul,,,TR
New York,NY,10036,US
London,London,W1D 4QB,GB
Woodinville,WA,98072,US
,,,
Orlando,FL,32801,US
London,Gt Lon,EC3R 5BJ,GB
Boston,MA,2127,US
Urbana,IL,61801,US
,,92374,
Suisun City,CA,94585,US
Detroit,MI,,US
Surrey,,TW9 1AJ,GB
Lawrenceburg,IN,47025,US
Chesapeake Beach,MD,20732,US
London,London,SW10 0LE,
Bryn Mawr,PA,19010,US
Boston ,MA,2114,US
,,,
New York,NY,10017,US
Calgary,Alberta,T2G 1L1,CA
,,SL6 2RA,GB
Lewisville,TX,,US
,,,BG
Largo,MD,20774,US
Gent,Vlaams Gewest,,BE
Pleasantville,NY,,US
Santa Monica,CA,90401,US
London,Greater London,NW1 4NS,GB
Long Beach,CA,90802,US
Mechelen,Antwerpen,,BE
Scottsdale,AZ,85256,US
Seattle,WA,98105,US
,,,
Vancouver,BC,V6H 3R9,CA
San Diego,CA,92105,US
Windsor,Ontario,N8X3M5,CA
London,London,,GB
Montréal,QC,H3C 1L9,CA
Lake Forest,CA,92677,US
Davis,CA,95616,US
San Francisco,CA,94102,US
Charlotte,NC,28206,US
Chicago,IL,60602,US
Salsomaggiore Terme,,43039,
Meridian,ID,83646,US
New York,NY,10027,US
St Kilda,VIC,3182,AU
,,,
Friendswood,TX,77546,US
Jamaica,NY,11436,US
Jacksonville,FL,32246,US
Novato,CA,94947,US
Greenville,NC,27834,US
test,2300,,
Stockholm,Stockholm County,11221,SE
Texarkana,AR,71854,
,,,
Dallas,TX,,US
İstanbul,,,TR
Manchester,Manchester,M15 6BH,GB
Eastbourne,East Sussex,BN21 4TL,GB
Redondo Beach,CA,,US
Gaithersburg,MD,20877,US
,,,
Kansas City,MO,64105,US
 South San Francisco,Ca,94080,US
Columbia,SC,29204,US
,North,,LB
Philadelphia,PA,19134,US
,,,
Birmingham,England,B4 7NL,GB
Denver,CO,,US
Greensboro,NC,,US
Springfield,MO,65807,US
Peachtree City,GA,30269,US
London,England,WC1N,GB
Khobar,Eastern Province,34611,SA
Paris,IdF,75002,FR
San Francisco,CA,94132,US
Batavia,NY,14020,US
London,London,SE1 3PL,GB
Cambridge,MA,,US
,,,
Newport News,VA,23605,US
High Point,NC,27260,US
Cleveland,OH,44113,US
,,,
Cheney,WA,99004,US
,,,
Fort Collins,CO,80524,US
St Paul,MN,55102,US
Los Angeles,CA,90048,US
Orlando,FL,,US
Grapevine,TX,76051-3965,US
Distrito Federal,Distrito Federal,6080,MX
Providence,RI,2908,US
Leeds,,LS6 1LJ,GB
Orlando,FL,32819,US
Brooklyn Heights,NY,,US
Vadodara,Gujarat,390007,IN
Evanston,IL,60208,US
Seattle,WA,98109,US
Miami Beach,FL,33139,US
Great Falls,VA,22066,US
Chatham,IL,62629,US
Washington,DC,20001,US
Pearland,TX,,US
,,,
Quezon City,Quezon City,,PH
,,,
New York,NY,10014,US
,,,
,,,
San Francisco,CA,94158,US
Dallas,TX,75201,US
Seattle,WA,98118,US
Carson,CA,90745,US
Yucca Valley,CA,Ca,US
Chapel Hill,NC,27514,US
Saint Louis,MO,63125,US
Helena,MT,59601,US
Bornheim,,53332,DE
Dallas,TX,75223,US
Broadbeach,QLD,4218,AU
Ottawa,ON,K2P 1W9,CA
Washington,DC,20005,US
Dublin,Dublin,,IE
San Francisco,CA,94123,US
Wilmington,NC,28405,US
Austin,TX,78701,US
Atlanta,GA,30030,US
London,,E17 6SA,GB
New York,NY,10023,US
,,10012,
New York City,,11101,
Cambridge,Cambs,,GB
Saratoga,CA,95070,US
North Adelaide,SA,5006,AU
,,,
Indianapolis,IN,46205,US
South Perth,WA,6151,AU
,,,US
Phoenix,AZ,85004,US
Washington,DC,20004,US
Gent,Oost Vlaanderen,9000,BE
Houston,TX,,US
Oakland,CA,94607,US
Houston,TX,77002,US
Chicago,IL,60661,US
SAN FRANCISCO,CA,94103,US
,,,
Denver,CO,80221,US
Langley,British Columbia,V2Y1Y1,CA
Austin,TX,78701,US
,,,
Toronto,,,CA
Ottawa,Ontario,K1S 5R5,CA
New York,NY,10010,US
Pleasanton,CA,,US
Edinburgh,,EH8 9AG,GB
Miami,FL,,US
Dunwoody,GA,30346,US
Mount Vernon,NY,,US
Marietta,GA,30062,US
Oakland,CA,94612,US
Sacramento,CA,95817,US
Youngstown,OH,44504,US
San Francisco ,CA,94102,US
,,,
Houston,,77077,US
Springfield,IL,,US
Brisbane,QLD,4000,AU
Plant City,FL,33563,US
Memphis,TN,38115,US
Madrid,Comunidad de Madrid,28036,ES
"Willemstad, Curacao",,,CW
,,,
West Peoria,IL,61604,US
Tampa,FL,33603,US
,,,
Brooklyn,NY,,US
Minneapolis,MN,55415,US
Brussels,,1040,BE
Cleveland,OH,44113,US
Middlesbrough,Middlesbrough,TS3 6RS,GB
Bel Air,MD,21014,US
Toronto,ON,M6J 1V2,CA
Portland,OR,97230,US
New York,NY,10021,US
Minneapolis,MN,55404,US
London,Gt Lon,SW7 2HF,GB
Houston,TX,77023,US
Reading,England,,GB
Colonial Heights,VA,23834,US
,,,
Londonderry,Derry,SW5 9TA,GB
San Francisco,CA,94114,US
Mesa,AZ,85202,US
Barnard Castle,Dur,DL12 8NP,GB
,,,
Webster,MA,1570,US
Miami,FL,33132,US
Menlo Park,CA,94025,US
Saint Petersburg,Saint Petersburg,,RU
Norman,OK,73069,US
Eindhoven,NB,5611,NL
,,,
Portland,OR,97217,US
Mashpee,MA,2649,US
Monroeville,PA,15146,US
La Mirada,California,90639,US
,,,
Dallas,TX,75207,US
The Rocks,NSW,2000,AU
,,,
Miami,FL,33137,US
Richmond,Gt Lon,TW10,GB
,,,
,Leicestershire,LE67 4BG,GB
Hato Rey,San Juan,918,PR
,,,
,,,
London,Gt Lon,WC1V 7EY,GB
Steubenville,OH,43952,US
Helsingborg,,,SE
Atlanta,GA,30303,US
Bristol,Avon,BS5 0AX,GB
Goodyear,AZ,85338,US
San Diego,CA,,US
San Diego,CA,92101,US
Dublin,,3,US
Bloomingdale,IL,60108,US
Easton,PA,18040,US
Preston,Lancashire,PR255DA,GB
Los Angeles,,90017,US
Brampton,ON,L6Z 1X9,CA
Lionheart Enterprise Park,Northumberland,NE66 2EZ,GB
Phoenix,AZ,85004,US
Johnston,IA,50131,US
Raleigh,NC,27604,US
Aberdeen,Aberdeen City,AB15 4YP,GB
Brooklyn,NY,11211,US
Terre Haute,Indiana,47805,US
,,,US
Oklahoma City,OK,73102,US
Friday Harbor,WA,98250,US
Wildwood,FL,34785,US
Los Angeles,CA,90014,US
Saint Petersburg,Saint Petersburg,,RU
,,,
,,,
Langley,British Columbia,,CA
Houston,TX,tx,US
Faversham ,Kent,ME13 7BS,GB
Lexington,KY,,US
,,,
Nashville,TN,37214,US
Cambridge,MA,2138,US
Lithonia,GA,30058,US
Washington,,22036,US
Detroit,MI,48202,US
Somerset,MD,20815,US
Charlotte,NC,66340,US
,,,
Coventry,,cv3 1hb,GB
Vancouver,BC,V6B 5K3,US
Bloomingdale,il,60108,US
Los Altos,CA,94022,US
Bethesda,MD,20814,US
Santa Ana,CA,92705,US
San Francisco,CA,94103,US
Dallas,TX,75219,US
Stoke-on-Trent,England,,GB
,,,
Southend On Sea,Southend On Sea,SS1 2AL,GB
,CA,,US
Melbourne,VIC,3004,AU
London,London,SE1 2AA,GB
Rīga,Rīga galvaspilsēta,1011,LV
Virginia Beach,VA,,US
,,,
Northampton,Northamptonshire,NN11 6JT,GB
Norfolk,VA,23510,US
Madison,WI,53703,US
Salinas,CA,93901,US
,,,TH
Murfreesboro,TN,37128,US
Los Angeles,CA,90048,US
Las Vegas,NV,89109,US
,Scotland,EH6 6QN,GB
London,,N2 9HR,GB
Abu Dhabi,Abu Dhabi,,AE
,,,
Western Australia,,6284,AU
London,London,E1 6BJ,GB
Burlington,VT,5401,US
Toronto,ON,M9B 6K1,CA
Castiglione Torinese,,,IT
Arlington,TX,76011,US
Seattle,WA,98188,US
Singapore,,567720,SG
Montreal,QC,H3H 1N2,CA
,,,
Edmonton,AB,T6G,CA
New York,NY,10011,US
Castlegar,British Columbia,V1N 4L3,CA
Redmond,WA,98052,US
Burgos,Castilla Y Leon,9006,ES
Brooklyn,NY,11235,US
,,38115,
Canton,GA,30115,US
Cambridge,VT,5464,US
Los Angeles ,California ,90015,US
Laguna Hills,CA,92653,US
Rome,Lazio,6152,IT
Pleasanton,CA,94588,US
Denver,CO,80265,US
,,,
York,York,,GB
,,,
Evanston,IL,60202,US
Jersey Channel Islands,,,
Falls Church,VA,22043,US
Edmonton,Alberta,T6E1X7,CA
,,,
Edgebaston,West Midlands,B16 9NB,GB
St. Paul,MN,55114,US
San Diego,CA,,US
Philadelphia,PA,19102,US
London,London,,GB
,,,
Denver,CO,80206,US
Scotch Plains,NJ,7076,US
,,,
London,Gt Lon,W1U 1LG,GB
Halifax,,B3H 0A8,CA
,,,
,,,
Sturgeon Bay,WI,54235,US
Pasadena,CA,91107,US
Boston,MA,2115,US
Shawnee,OK,74804,US
Chicago,IL,60642,US
Cincinnati,OH,45202,US
,,,
Bogota,"Bogotá, D.C.",,CO
Atlanta,GA,30324,US
Tempe,AZ,85282,US
Lisbon,Lisbon,1990-203,PT
Phoenix,AZ,,US
New York,NY,10017,US
,,SE17TJ,
New York,NY,10013,US
Hurst,TX,76053,US
New York,New York,10025,US
Tyler,TX,75703,US
Chicago,IL,60601,US
Clinton,,20735,US
Greater Landover,MD,20785,US
Montreal,Quebec,H2L2Y7,CA
Southfield,MI,48076,US
Los Angeles,CA,90042,US
Cerdanyola del Vallés,,8290,ES
Dunedin,Otago,9016,NZ
Rancho Cucamonga,CA,91730,US
Miami Beach,FL,33139,US
,,,
Winnipeg,MB,L5T 3Y7,
Chandler,AZ,85286,US
Vancouver,BC,V6E 4M3,CA
Boston,MA,2110,US
,,,
Laguna Niguel,CA,92677,US
Twickenham,Gt Lon,TW1 4EZ,GB
Elizabeth,NJ,7202,US
New Delhi,DL,,IN
Simcoe,Ontario,,CA
Durham,NC,27705,US
New Westminster,BC,V3L 1B1,CA
Atlanta,GA,30308,US
Harbor Springs,MI,49740,US
,,,
Saint Paul,MN,55107,US
,,30332,
Kew,VIC,3101,AU
Oxford,Oxon,OX4 1LF,GB
Downers Grove,IL,60516,US
New York,NY,10032,US
Austin,TX,78701,US
Washington,DC,20059,US
Los Angeles,CA,90089,US
Sydney,New South Wales,2000,AU
Portsmouth,OH,45662,US
Menlo Park,CA,94025,US
Turlock,CA,95380,US
Giugliano in campania,Campania,80014,IT
Vancouver,BC,V6G 3E3,CA
Brooklyn New York,,,
Frisco,,94123,US
Hamilton,Ontario,,CA
Woking,England,GU22,GB
,,,US
Denver,CO,80204,US
Boston,MA,2116,US
Mid-Cambridge,MA,2141,US
Castleford,York,WF10 4JH,GB
Chicago,IL,60608,US
Yakima,WA,98908,US
,,,
Raleigh,NC,NC,US
Abbotsford,BC,,CA
Miami,FL,33130,US
Memphis,TN,38103,US
South Bend,IN,,US
Las Vegas,NV,89109,US
,,,
Chicago,IL,60616,US
Southwick,East Sussex,BN42 4DB,GB
London,London,NW2 6PG,GB
Santa Monica,CA,90405,US
Accra,Greater Accra,233,GH
Los Angeles,CA,90095,US
Vancouver,BC,V6E 4V2,CA
,,,
Maryland Heights,MO,63146,US
Houston,TX,77042,US
Reigate,Surrey,RH2 7AD,GB
Kansas City,MO,64101,US
,,,
,,,GE
,,,IN
Vancouver,British Columbia,V6T 1Z1,CA
Sonoma,CA,95476,US
Washington,DC,20012,US
Jersey City,NJ,7302,US
,,PR26 1DH,
Clarksville,IN,47129,US
,England,,GB
Santa Monica,CA,90401,US
Toronto,Ontario,,CA
London,London,SE1 9QQ,GB
Seattle,WA,,US
Cocoa Beach,FL,32931,US
Matamoras,PA,18336,US
Greensboro,NC,27407,US
Philadelphia,PA,19102,US
Chicago,IL,60637,US
Yountville,CA,94599,US
,,,
Winslow,AZ,86047,US
Quebec,QC,G1K 8R2,CA
Liverpool,Liverpool,L24 8QD,GB
,,,
Los Angeles,CA,,US
Lansdowne Park,,20176,US
,,,ST
Le Gosier,Guadeloupe,97190,GP
Boston,MA,2116,US
Wayne,PA,19087,US
Plano,TX,75093,US
Corio,Victoria,3214,AU
Vancouver,BC,,CA
Lake Forest,CA,92630,US
Chandler,AZ,85226,US
Savannah,GA,31404,US
Lafayette,LA,70501,US
San Francisco,CA,94110,US
Seattle,WA,98118,US
Santa Rosa,CA,95401,US
Naperville,IL,,US
Thiene,Vicenza,36016,IT
Troy,MI,48083,US
Ocracoke,NC,,US
San Francisco,CA,94107,US
Hanover,MN,55341,US
Liverpool,Merseyside,L18 6HF,GB
Greater Sudbury Ontario,,,
San Antonio,TX,78232,US
Marston Green,West Mids,B40,GB
Cheyenne,WY,82001,US
Missoula,MT,59808,US
Burlington,Ontario,L7R 3N2,CA
Philadelphia,PA,19122,US
Chikankata,Southern,,ZM
Chicago,IL,60601,US
Baltimore,MD,21218,US
London,Gt Lon,SE6 2TS,GB
jacksonville,Fl,32224,US
New York,NY,10014,US
Houston,TX,77063,US
Saint Louis,,,US
Montebello,CA,90640,US
Hyderabad,Andhra Pradesh,500046,IN
Santa Monica,CA,90401,US
Boston,MA,2116,US
,,233,
South Yorkshire,,S75v 1JL,GB
Snellville,GA,30078,US
London,,SW11 3RP,GB
East Maitland,NSW,2323,AU
Hazlehurst,MS,39083,US
Cicero,IL,60804,US
Chicago,IL,60603,US
Burien,WA,98166,US
,,,
Boston,MA,2116,US
,,,
Wadesboro,NC,28170,US
Lebanon,TN,37087,US
Fernley,NV,89408,US
Blackstone,VA,23834,US
Colorado Springs,CO,80906,US
Toledo,OH,43609,US
,,,
Chichester,West Sussex,PO19 6PE,GB
Kew,VIC,3101,AU
Baltimore,MD,21201,US
Edmonton,Alberta,,CA
Seaside Heights,NJ,,US
Vancouver,British Columbia,V6A 1G4,CA
Leesburg,VA,20175,US
London,,W1,
Newton,NJ,7860,US
Calgary,AB,T3A 4K4,CA
Belleville,Ontario,,CA
Raleigh,NC,27606,US
,,,
Leesburg,VA,20176,US
,,,PR
Burlington,MA,1803,US
,,,
,,75080,
Tampa,FL,33618,US
New York,NY,11211,US
Des Moines,IA,50315,US
Edmond,OK,73034,US
Palo Alto,CA,94306,US
Brooklyn,NY,11207,US
San Rafael,CA,94901,US
Honolulu,HI,96815,US
Washington,DC,20032,US
Edmonton,AB,T6G 2R3,CA
Brooklyn,NY,11217,US
· Jaipur,RAJASTHAN,302015,US
,,,
Abuja,Federal Capital Territory,,NG
Tuba City,AZ,86045,US
Fort Pierce,FL,34950,US
 Stockholm,,111  47,SE
Jacksonville Beach,FL,32250,US
Atlanta,GA,30308,US
Salem,,6420,US
Brooklyn,NY,11201-4398,US
,,,
Alpharetta,GA,30004,US
Belfast,,BT1 3LG,GB
Palatine,IL,60067,US
Washington,DC,20057,US
Bratislava,Slovakia,82104,SK
San Antonio,TX,78288,US
Gainesville,FL,32601,US
,,,
Atlanta,GA,30307,US
Vancouver,British Columbia,,CA
San Francisco,CA,94130,US
Fort Lauderdale,FL,33306,US
Oxford,England,OX4,GB
Rockford,WA,99030,US
Leyburn,North Yorkshire,DL8 5QA,GB
,,E2 9DT,
Portland,OR,97217,US
New York,NY,10023,US
McAllen,TX,78501,US
Los Angeles,CA,90027,US
Nampa,ID,83651,US
Kittanning,PA,16201,US
Halifax,NS,B3L,CA
Azusa,CA,91702,US
,,,
Tucson,AZ,85711,US
New York,NY,10013,US
Philadelphia,PA,19103,US
Conyers,GA,30013,US
Oslo,Oslo,,NO
Norwich,Norfk,,GB
Hudson,WI,54016,US
Kelowna,BC,V1Y 1Z9,CA
,,,
London,Gt Lon,SW1H OET,GB
Bondi Junction,NSW,2022,AU
Boston,MA,2110,US
Huntsville,AL,35806,US
Orlando,FL,32819,US
Las Vegas,NV,89145,US
Panama City,Panama,,PA
Fort Myers,FL,33916,US
Veracruz,Veracruz Llave,,MX
,,MA,
Philadelphia,PA,19107,US
Boulder,CO,80302,US
,,,
Raleigh,NC,27615,US
,,,
,,,
Birmingham,AL,,US
Greenwood Village,CO,,US
London,United Kingdom,EC2A 3PQ,GB
Dosson,Veneto,31030,IT
Eindhoven,Noord Brabant,,NL
Bristol,"Bristol, City Of",BS1 5QT,GB
,,,
,,,
Antioch,CA,94509,US
Lahti,Southern Finland,15140,FI
New York,,,US
London,Gt Lon,WC2N 6HH,GB
Chicago,IL,60657,US
北京,北京,,
Sydney,NSW,2000,AU
,,,
Saint Louis Park,MN,55416,US
New Rochelle,NY,,US
Little Rock,AR,72211,US
Grand Coulee,WA,99133,US
City of Bristol,,BS1 4,GB
,,,
,,,
Addison,IL,60101,US
Glenpool,OK,,US
Hattiesburg,MS,39401,US
Houston,TX,77067,US
Minneapolis,MN,,US
Minneapolis ,MN ,55407,US
Edinburgh,,EH16 5AB,GB
,,,
Canterbury,VIC,3126,AU
"New York, NY",,,US
,,,US
Milano,Lombardia,,IT
,,,
Dubai,Dubai,52244,AE
New York,NY,10019,US
Brooklyn,NY,11238,US
New York,NY,,US
Noblesville,IN,46060,US
Portage,MI,53901,US
Edmonton,Alberta,t0c 2p0,CA
Wilson,,27893,US
Dharamshala,Himachal Pradesh,,IN
London,London,SE1 8SW,GB
Edinburgh,Midlothian,EH2 4EL,GB
Newark,DE,19702,US
Philadelphia,PA,19109,US
Paddington,QLD,4064,AU
,,,
Melbourne,VIC,3000,AU
Las Vegas,NV,89117,US
Union,NJ,7083,US
London,Gt Lon,WC1N 1AB,GB
Middle Township,NJ,8242,US
New York,NY,10012,US
Salem,OR,97301,US
,,,
Shorewood,IL,60435,US
Kitty Hawk,N Carolina,,US
Stillwater,OK,,US
West Hollywood,CA,90069,US
Culver City,CA,90094,US
Taleigao,GA,403206,IN
London,England,WC1H,GB
Oxford,NC,27565,US
Oxon Hill,MD,20745,US
Warsaw,IN,46580,US
,,,
Bowie,MD,20721,US
,,,
New York,NY,11205,US
New York,NY,10019,US
Frisco,TX,75035,US
San Francisco,CA,94103,US
Penfield,NY,14526,US
South Bunbury,WA,6230,AU
Drakensberg,SOUTH AFRICA,,US
Vila Real,Vila Real,,PT
Las Vegas,NV,,US
Trento,Trentino-Alto Adige,,IT
Adelaide,SA,5000,AU
Dallas,Texas,TX 75230,US
Everett,WA,98201,US
Chicago Heights,IL,60616,US
Chicago,IL,60637,
Chicago,IL,60657,US
Copythorne,Hampshire,SO40 2PE,GB
Chicago,IL,60622,US
New York,NY,10036,US
Hastings,England,,GB
Paris,IDF,75001,FR
Baltimore,MD,,US
Cornwall,ON,,CA
,,,
,,,
,,,
San Diego,CA,92037,US
,,BT41 1JZ,
New Orleans,LA,70130,US
Middlesbrough,,TS1 1LP,GB
Phoenix,,85016,US
Washington,DC,20003,US
Adria,RO,,IT
San Francisco,CA,94103,US
Santa Rosa,CA,95401,US
Whitewater,WI,53190,US
,,,
Raritan,NJ,8869,US
The Range,QLD,4700,AU
Washington,DC,20003,US
Boston,MA,2109,US
San Francisco,CA,94123,US
,,,
Norwich,Norfk,NR3,GB
Saginaw,MI,48603,US
Surrey,,KT10 9SD,GB
Berlin,,10117,DE
Honolulu,HI,96817,US
The Woodlands,TX,77380,US
Newtown,PA,18940,US
Hollywood,FL,33019,US
Hixson,TN,37343,US
Carterville,IL,62918,US
Oakland,CA,94612,US
São Paulo,Sao Paulo,04082-000,BR
Groningen,GR,9711 HL,NL
New York,NY,10024,US
Sheffield,South York,S3 8UB,GB
Kissimmee,FL,34741,US
Mesquite,TX,75150,US
Mount Rainier,MD,20712,US
Newcastle Upon Tyne,Newcastle Upon Tyne,NE1 8ST,GB
Walterboro,SC,29488,US
Frederick,MD,,US
,,,
Jacksonville Beach,FL,32250,US
New York,NY,,US
Wheaton,IL,60187,US
Georgia  (atlanta ) In College Park Area Near Airport,,30337,
Fort Worth,TX,76164,US
Triangle,VA,22172,US
Vancouver,BC,V6B 3M7,CA
,,,
Fremont,CA,,US
Jonesboro,AR,,US
Englewood,CO,80111,US
Glendale,AZ,99299,US
Melbourne,VIC,3000,AU
Chicago,IL,60601,US
San Francisco,CA,94103,US
Sacramento,CA,95841,US
Amarillo,TX,79101,US
Noblesville,IN,46060,US
San Francisco,CA,94133,US
Talent,OR,97540,US
Miami,FL,33132,US
Riyadh,Ar Riyad,,SA
,VA,22314,US
Los Angeles,CA,90067,US
Ada,OH,45810,US
Duluth,MN,,US
Singapore,,,SG
New York,NY,11232,US
League City,TX,77573,US
Los Angeles,CA,90027,US
Bedminster,PA,18910,US
Novato,CA,,US
Porthcawl,,CF36 3YW,GB
Stanford,CA,94305,US
,,,
Manchester,Manchester,M16 0PX,GB
,,,
Honolulu,HI,96813,US
Carmel,IN,46032,US
Santiago,Santiago Metropolitan Region,,CL
Milwaukee,WI,,US
New York,NY,,US
Salford,,M3 7DW,GB
Dallas,TX,75238,US
,,,
Lostwithiel,England,PL22,GB
,,,
London,London,W2 1JU,GB
Ottawa,ON,K1K 4T4,CA
Arlington,VA,22209,US
Venice,CA,90291,US
,,,
Largo,FL,33774,US
Philadelphia,PA,,US
Anderson,IN,46016,US
,,,
,,,US
Nantgarw,Cardiff,CF15 7QQ,GB
Ottawa,ON,K1P 1J9,CA
Bethel,VT,5032,US
Syracuse,NY,13202,US
Plainfield,IN,46168-7913,US
Hartford,CT,6105,US
Lawrenceville,GA,30046,US
Indianapolis,IN,46220,US
Sacramento,CA,95814,US
Gilbert,AZ,85233,US
Omaha,NE,,US
San Francisco,CA,94103,US
Birmingham,West Mids,B9 4AA,GB
Pine Mountain Club,CA,,US
San Jose,CA,95134,US
London,London,EC1R 4TD,GB
London,London Borough of Southwark,SE1 1LB,GB
London,England,WC1E,GB
New York,NY,10009,US
Oak Park,IL,,US
San Diego,CA,92101,US
,,NY,
Geneva,NY,14456,US
Los Angeles,CA,90006,US
Longview,WA,98632,US
Cardiff,Wales,CF11,GB
,,2116,
Birmingham,AL,35212,US
alert(1),ads,,
San Francisco,,94112,US
Jacksonville Beach,FL,32250,US
Bothell,WA,98011,US
Memphis,TN,38104,US
Basel,BS,4056,CH
Redwood City,CA,94063,US
Ottawa,Ontario,K1S 5B6,CA
Atlanta,GA,30309,US
Logan,IA,51546,US
Tyler,TX,75701,US
Dublin,,,IE
Edmonton,AB,T6W 1A4,CA
Kansas City,MO,64108,US
,,,
New York,NY,,US
Melville,NY,11747,US
,,,
Hardwick,VT,5843,US
Austin,TX,78701,US
Atlanta,GA,30341,US
Kent,,ME5 9AX  ,GB
Cantley,QC,J8V 3B5,CA
Maynard,MA,,US
Laurel,MD,20723,US
,,,
,,,
,,Az,
Lancaster,CA,93536,US
Jersey City,NJ,7302,US
Huddersfield,Kirklees,,GB
New York,NY,10021,US
Geelong,VIC,3220,AU
San Jose,CA,95113,US
Winter Garden,FL,34787,US
New Orleans,LA,70118,US
Anderlecht,Brussels,1070,BE
Memphis,,38115,US
Lakeside Marblehead,OH,43440,US
,,,
,,,
,,Tacoma,
Atlanta,GA,30315,US
San Francisco,CA,94104,US
High Point,NC,,US
Walworth,WI,,US
New Haven,CT,6510,US
,,,
Detroit,MI,48201,US
Lyon,RA,69002,FR
Schaumburg,IL,60193,US
Singapore City,Singapore City,179101,SG
Sacramento,CA,95814,US
Pittsburgh,PA,15222,US
Denver,CO,80206,US
Houston,TX,77002,US
Weslaco,TX,78596,US
,Gt Lon,SW1W 0WQ,GB
Chappaqua,NY,,US
,,,
,,,
Bozeman,MT,59715,US
San Francisco,CA,94103,US
Wythall,West Midlands,B47 6AJ,GB
,,,
Red Deer,AB,T4N 6R1,CA
Holly,MI,48442,US
,,,
New York,NY,,US
Lexington,MA,2420,US
Wilmington,CA,90744,US
San Francisco,CA,94123,US
South Tangerang,Banten,15417,ID
,,,
,,,
,,,
San Francisco,CA,94102,US
,,SO17 1BJ,GB
Hollywood,CA,90028,US
San Francisco,CA,94110,US
Toronto,ON,M5A 2B9,CA
Kolkata,West Bengal,700134,IN
San Diego,CA,92101,US
Bangalore,Karnataka,560035,IN
Ladbrooke Grove,,W10 5BQ,GB
Fairfield,NJ,7004,US
West Des Moines,IA,50266,US
Co. Wicklow ,-,-,IE
Malvern,PA,19355,US
Hartford,CT,6103,US
San Francisco,CA,94105,US
Baltimore,MD,21201,US
,,,
Wellington,Wellington,6011,NZ
San Francisco,CA,94107,US
Melbourne,,32940,US
,,,
Dallas,TX,75220,US
,,,
City of London,,E2 8Q,GB
Philadelphia,PA,19123,US
Los Angeles,CA,90036,US
Venice,CA,90291,US
London,Gt Lon,EC1V 7EZ,GB
Coventry,England,,GB
San Francisco,CA,94111,US
,,,
Palo Alto,CA,,US
San Francisco,CA,ca,US
Nashville,TN,37203,US
Chicago,IL,60642,US
Laval,QC,H7T 0B3,CA
,,,
New York City,NY,10001,US
Atlanta,GA,30315,US
Glendale,CO,80246,US
Birmingham,Birmingham,B3 2NR,GB
Studio City  ,,91604,
Mississauga,ON,L5B 2G6,CA
,,,
Aurora,CO,80011,US
Liverpool,Liverpool,L1 2TU,GB
,,,US
Montréal,QC,,CA
Montreal,QC,,CA
Miami Beach,FL,33139,US
Tucson,AZ,85709,US
Boston,MA,,US
Charlotte,NC,28205,US
Memphis,TN,38134,US
San Francisco,CA,94108,US
Claremorris,Mayo,,IE
Austin,TX,,US
DeSoto,TX,75115,US
Cambridge,England,,GB
Battle Ground,WA,98604,US
New Albany,IN,47150,US
North Sydney,NSW,2060,AU
,,,
,,,
San Francisco,CA,94132,US
La Canada Flintridge,CA,91011,US
Villa di Molvena,Veneto,36060,IT
Havre De Grace,MD,21078,US
,Puerto Rico,968,PR
Cardiff,,CF10 3AL,GB
Philadelphia,PA,,US
,,,
Burlington,MA,1803,US
Grovedale,VIC,3216,AU
,,,
,,,
London,London,WC2H 7LH,GB
Torino,Piemonte,10134,IT
Waterloo,ON,,CA
Woodhaven,MI,48183,US
Stockport,Gt Man,,GB
Lusk,County Dublin,0,IE
Val Morin,QC,J0T 2R0,CA
Cambridge,Cambs,CB2 3QB,GB
Cambridge,,CB2 1TL,GB
Glenview,IL 60025,,US
,,,
Lapinjärvi,Lapinjärvi,7840,FI
Charlottetown,Prince Edward Island,C1A 4P3,CA
Gilbert,AZ,85297,US
Warren,OH,,US
Altamonte Springs,FL,32701,US
,,,
Ottawa,Ontario,k1y 0y1,CA
San Francisco,CA,94110,US
New Haven,CT,6510,US
London,Gt Lon,SW7 5LP,GB
Monroe,NJ,8831,US
Somersworth,NH,3878,US
Destin,FL,32550,US
Oporto,Porto District,4200-464,PT
Schaerbeek,Brussels,1030,BE
,,,IE
,,,GB
Stevensville,MD,21666,US
,,,
Khouribga,Chaouia-Ouardigha,,MA
Rancho Palos Verdes,CA,90275,US
Glasgow,Glasgow, G51 1DA,GB
Duluth,MN,55802,US
Lubbock,TX,79413,US
London,London,E1 6HU,GB
,Angus,DD2 5LJ,GB
Bend,OR,,US
Toronto,ON,M5G 1L7,CA
New York,NY,10036,US
,,,
Toronto,Ontario, M5G2C3,CA
,MI,48009,US
San Ramon,CA,94582,US
,,,
Liverpool,Liverpool,L9 5AS,GB
,,,
Marietta,GA,30062,US
Crystal Lake,IL,60014,US
Chattanooga,TN,37419,US
North Las Vegas,NV,89084,US
San Francisco,CA,94115,US
Mountain View,CA,94041,US
Rhodes,NSW,2138,US
Bastrop,TX,78768,US
Invermay,TAS,7248,AU
Alba,Piemonte,,IT
Tyringham,MA,1264,US
Marysville,CA,95901,US
Québec,québec,G1P 3A8,CA
,,,
Paris,IDF,75013,FR
,,,
Belfast,Belfast,BT71nn,GB
Sunnyvale,CA ,94085,US
Prescott,AZ,86301,US
Mortonville,PA,,US
New York,NY,,US
Arlington,VA,,US
Minneapolis,MN,55435,US
Oakland,CA,94608,US
Elcho,WI,54428,US
Riverside,Gt Lon,SE1 2RE,GB
,,,
Washington,DC,20004,US
Leeds,England,LS15,GB
Allston,MA,2134,US
New York,NY,10024,US
,,,
La Jolla,CA,,US
,,,
Worland,WY,,US
Cayuga   ,Ontario,,CA
,,,
,,,
,,,
Horsham,West Susx,RH12,GB
Paignton,England,TQ4,GB
Glendale,CO,,US
,,,
,,,
Montgomery,AL,36116,US
Fremont,CA,94536,US
McKinney,TX,75070,US
,,,
Hesperia,CA,92345,US
Minneapolis,MN,55455,US
Canton,OH,44718,US
,,NG2 4FD,GB
,,,
Champaign,IL,61821,US
,,,
,,,
,,,
Bologna,Emilia-Romagna,40128,IT
Chicago,,60605,US
,,,
Carlow,Carlow,,IE
Heber City,UT,84032,US
,,,
Sanford,NC,27330,US
Ixelles,Belgique,1050,BE
Chicago,IL,,US
Oakland,CA,94611,US
Atlanta,GA,30303,US
Atlanta,GA,30309,US
Los Angeles,CA,,US
,,66000,
Kahuli,HI,96732,US
Sterling,VA,20164,US
London,Gt Lon,SW11 3TN,GB
Ramseur,NC,27316,US
Crossville,TN,38555,US
Opoutere,Waikato,3691,NZ
Dingle,Kerry,,IE
Calgary,Alberta,T2Z 1W2,CA
,,,
East Boothbay,ME,4544,US
Oak Park and Chicago,,,US
Berkhamsted,Hertfordshire,HP4 1HE,GB
London,Gt Lon,EC1Y 4SA,GB
Portland,OR,97266,US
Irvington,NY,10533,US
Cebu,Cebu City,6000,PH
,,,
Austin,TX,78702,US
Reus,Catalonia,,ES
Lexington,MA,,US
Des Moines,IA,50321,US
,,,
Parsippany-Troy Hills,NJ,7034,US
Paris,Ile De France,75002,FR
Bath,Bath And North East Somerset,BA1 1SX,GB
Newcastle Upon Tyne,,NE1 2SW,GB
,,,
London,,NW5 1RS,
London,England,E1,GB
תל אביב יפו,,,IL
Knoxville,TN,37909,US
New York,NY,10001,US
,,,
Davis,CA,95616,US
Calgary  Alberta,,T2E 5T2,
,,,
San Diego,CA,92130,US
,,,
Austin,TX,78731,US
Washington,DC,20006,US
University Park,PA,16802,US
Vienna,VA,,US
Greenville,SC,29601,US
Middlebury,CT,,US
Toronto,Ontario,,CA
Oakleigh,VIC,3166,AU
Staten Island,NY,10135,US
Brighton,England,BN1,GB
Amherst,OH,44001,US
,,95032,
Boston,MA,,US
Melbourne,VIC,3000,AU
London,London,WC2H 9DP,GB
Sunnyvale,CA,94085,US
,,,
Costa Mesa,CA,92626,US
Jacksonville,FL,32256,US
,Lyneham,2602,AU
Kirkby Lonsdale,Cumbria,LA6 2GY,GB
Sugar Land,TX,77478,US
Northbrook,IL,60062,US
Holdrege,NE,68949,US
New York,NY,10018,US
Whitestone,NY,11357,US
Budapest,Budapest,1054,HU
Los Angeles,CA,90015,US
"Oklahoma City, Oklahoma",,,US
New York,NY,10014,US
Lunch Provided,,,GB
Scheeßel,NDS,27383,DE
Sykesville,MD,21784,US
Auckland,Auckland,,NZ
,,,PH
London,,,GB
Mawson Lakes,,5095,
Des Moines,WA,98198,US
State College,,16803,US
,,NW3,
Greensburg,PA,15601,US
New York,NY,10024,US
Fairchance,PA,15436,US
Los Angeles,CA,90018,US
Minneapolis,MN,55413,US
Sydney,New South Wales,,AU
,,,
Shiloh,IL,62221,US
,,90069,
Red Deer,AB,,CA
San Diego,CA,92117,US
Houston,TX,77047,US
,,,
Glasgow,Lanarkshire,G41 5BW,GB
New Port Richey,FL,34652,US
Paris,Ile De France,75008,FR
Menlo Park,CA,94025,US
Penticton,BC,V2A 5C9,CA
Amsterdam,NH,,NL
Charlotte,NC,28211,US
New York,NY,10014,US
Chicago,IL,60608,US
New York,NY,10016,US
Rancho Santa Fe,CA,92067,US
,,30313,
Vilnius,Lithuania,LT03100,LT
London,England,SW1P,GB
Barcelona,Cataluña,8025,ES
Great Meadows,NJ,7838,US
,,,
Atlanta,GA,30308,US
Santa Monica,CA,90405,US
Savannah,GA,31401,US
Toronto,ON,M5R 2H8,CA
Cravo Norte,Arauca,,CO
Richmond,VA,23220,US
Otterville,IL,62052,US
Waynesboro,VA,22980,US
Orrville,OH,44667,US
Recife,Pernambuco,,BR
,,,
Newcastle,NSW,,AU
,,,
Lima,Lima,15074,PE
Amsterdam,NH,1012 XN,NL
Portland,OR,97217,US
,,,
Philadelphia,PA,19149,US
New York,NY,10003,US
,,,
,,,
Vicenza,Veneto,,IT
,,,
Nottingham,Notts,NG1 2BL,GB
Austin,TX,,US
New York,NY,10006,US
San Antonio,TX,,US
New York,NY,10036,US
Dallas,TX,75214,US
Calgary,Alberta,,CA
Irving,TX,75062,US
Knightdale,NC,27545,US
Charlotte,NC,20207,US
Lagos,Lagos,,NG
,,,
New York,NY,10036,US
Leeds,West York,LS1,GB
Sacramento,CA,95814,US
San Francisco,CA,94107,US
Nashville,TN,43235,US
Rochester,NY,14620,US
Hanover,NH,3755,US
WELLESLEY,MA,2482,US
Eggenstein-Leopoldshafen,BW,76344,DE
Houston,TX,77030,US
Toronto,Ontario,,CA
Markham,ON,L3R 9Z7,CA
Vancouver,BC,,CA
Arlington,TX,76010,US
Nai Mueang,Phitsanulok,65000,TH
Chico,CA,95926,US
Turin,Piemonte,10100,IT
London,Gt Lon,W1W 5NB,GB
Hamburg,HH,22525,DE
Vallejo,CA,94590,US
London,,WC2N 5DN,GB
Lincoln,NE,68503,US
Atlanta,GA,30341,US
Lafayette,IN,47905,US
McDonough,GA,30253,US
Miami,FL,,US
Kuala Lumpur,Federal Territory of Kuala Lumpur,55100,MY
Paramus,NJ,7652,US
Glasgow,,,GB
Caribou,ME,4736,US
Dallas,TX,75207,US
,,,
Dallas,TX,75214,US
Atlanta,GA,30322,US
Seoul,Seoul T'ukpyolsi,,KR
Atlanta,GA,30322,US
,,,US
,,,
Oakland,CA,94619,US
Winnipeg,Manitoba,R3B 1C7,CA
Cleveland,,44106,US
New York,NY,10014,US
Danville,VA,24541,US
Bangalore,Karnataka,560037,IN
St Catharines,ON,L2S 2J4,CA
New York,NY,10019,US
Concord,NH,3301,US
Edmonton,AB,T6E 4E9,CA
Mountain View,CA,94043,US
,,,
Chicago,,60606,US
,,,
Quebec,Quebec,G1V 0A6,CA
Fairfax,CA,94930,US
Singapore,,609607,SG
Auckland,Auckland,782,NZ
Accra,Greater Accra,23,GH
Port Harcourt,Rivers,,NG
Lutherville-Timonium,MD,21093,US
Cary,NC,27518,US
Chicago,IL,60602,US
Dubai,Dubai,,AE
,,,
Muskogee,OK,74401,US
Huyton,Mersyd,L36 6AP,GB
,,,
Osage,WY,,US
Den Haag,,,NL
,,,
,,,
Dearborn,,48120,US
,,,
,,,
London,Gt Lon,WC1H 0AH,GB
Edmonton,AB,T5K 2T5,CA
,,,
,,,
New York,NY,10017,US
Manchester,,M8 0AE,GB
London,,NW1 2BJ,GB
Tulsa,OK,,US
Fuente del Jarro,Comunidad Valenciana,46988,ES
,,,
Maple Ridge,BC,V4R 2T1,CA
,,,
South Euclid,OH,,US
Saugus,MA,1906,US
St. Robert,MO,65584,US
Linthicum,MD,21090,US
Garwood,NJ,7024,US
Portsmouth,NH,3801,US
Hartford,CT,6103,US
Gent,Vlaams Gewest,9000,BE
,,40115,
Cincinnati,OH,45202,US
Chester,WV,26034,US
,,,
,,,
,Campania,,IT
Austin,TX,78701,US
East Melbourne,VIC,3002,AU
Elkridge,MD,21075,US
Edmonton,AB,T5H 3J7,CA
Philadelphia,PA,19104,US
New York,NY,10003,US
Costa Mesa,CA,92626,US
New York,NY,10004,US
Suffolk,VA,23434,US
Saint Petersburg,Saint Petersburg,,RU
Philadelphia,PA,19102,US
Toronto,ON,M4W 3X8,CA
,,85286,
Surry Hills,NSW,2010,AU
Tampa,FL,33602,US
Berkeley,CA,94703,US
Los Angeles,CA,,IL
San Antonio,TX,,US
,,,
Tesy,Homyel'skaya Voblasts',63134,BY
New Delhi,Delhi,110020,IN
Bradford,West York,BD8 9QE,GB
Davenport,IA,,US
Piedmont,OK,73078-8012,US
Castro Valley,CA,94546,US
Los Angeles,CA,90026,US
,,,
Chicago Heights,IL,60411,US
,,,
Walnut Creek,CA,94597,US
New York,NY,10002,US
,,,
,,,
Defuniak Springs,FL,32433,US
Act,,2903,
Stafford,VA,22554,US
Charleston,WV,25301,US
,,,
Tacoma,WA,98445,US
Philadelphia,PA,19103,US
,,,
San Diego,CA,92130,US
Geneva,NY,14456,US
,,,
Chilliwack,BC,V2P 7V5,CA
London,Gt Lon,N1 7LQ,GB
London,London,SE1 0QL,GB
,,,
Kuala Lumpur,Federal Territory,54100,MY
London,London,N19 3BB,GB
,,,
Adelaide,SA,5000,AU
New York,NY,10003,US
Fort Worth,TX,76102,US
Dallas,TX,75226,US
Sundbyberg,Stockholm County,17231,SE
Del Mar,CA,92104,US
Chesterfield,MO,63017,US
,,,
San Francisco,CA,,US
Marietta,GA,30067,US
Montreal,QC,H2W 1Y4,CA
,,,
Jacksonville,FL,32226,US
New Orleans,LA,70119,US
Long Beach,CA,90802,US
Geneva,GE,,CH
Padova,Italia,35128,IT
Austin,TX,78759,US
Atlanta,GA,,US
DeSoto,TX,75115,US
San Antonio,TX,78218,US
,,,
Seattle,WA,98104,US
Vancouver,WA,98662,US
New York,NY,10027,US
,,,
Tel Aviv,,,IL
San Mateo,CA,94403,US
,,BS3 1TF,
Chicago,IL,60616,US
London,London,,GB
Winnipeg,Manitoba,,CA
Leeds,Leeds,LS8 5HS,GB
Dromana,VIC,3936,AU
San Francisco,CA,94105,US
Minneapolis,MN,55455,US
London,London,WC1E 6BT,GB
,,,
West Sacramento,CA,95605,US
Oklahoma City,OK,,US
Los Angeles,CA,90012,US
,,,
Saint Paul,MN,55102,US
San Diego,CA,92101,US
Paris,IDF,,FR
Dade City,FL,33523,US
,,,
Southampton,Southampton,PO9 1J,GB
San Francisco,CA,94107,US
Henderson,NV,NV,US
Dubai,Dubai,,AE
Atlanta,GA,30346,US
,,"SEEKONK, MA.",
Santa Rosa,Ca,95403,US
,,,HK
Atlanta,GA,30363,US
Newton-le-Willows,Mersyd,WA12 9SE,GB
Loveland,CO,80538,US
Chicago,IL,60601,US
London,,E1 2AD,GB
Saskatoon,Saskatchewan,S7K 3G8,CA
London,England,NW7,GB
Irvine,CA,92612,US
,,,
Washington,DC,20036,US
,,10036,
Montreal,QC,H2T 1R4,CA
Houston,TX,77002,US
Sunnyvale,CA,94086,US
,,,
Western Springs,IL,60558,US
,,,
Santa Cruz,CA,95062,US
,,,
Montebelluna,Veneto,31044,IT
Chicago,IL,60640,US
,,WA,
Berkeley,CA,94704,US
New York,NY,10036,US
Mt Vernon,OH,43050,US
,,,
San Diego,CA,92101,US
Cardiff,Cardiff,CF24 3BA,GB
Portsmouth,NH,3801,US
Springfield,VA,22151,US
Philadelphia,PA,,US
Cairns,QLD,4870,AU
Anniston,AL,36201,US
,,,
,,,
Riverside,CA,,US
Atlanta,GA,30305,US
San Francisco,CA,94107,US
Camden,New Jersey,8102,US
Castlegar,British Columbia,,CA
Vaughan,ON,L4J 7Y3,CA
Cairns,,,AU
Paris,IDF,75011,FR
,,,
Chicago,IL,60642,US
Travelers Rest,SC,29690,US
Portsmouth,VA,23707,US
San Fracisco,Cundinamarca,94103,CO
Melbourne,Victoria,3020,AU
Olean,NY,14760,US
Hoboken,NJ,7030,US
Spring Hill,QLD,4000,AU
LaCygne,KS,66040,US
Port Talbot,Wales,SA12 6QP,GB
York,York,YO1 6DA,GB
Newark,NJ,7102,US
,,,
Carmel,CALIFORNIA,93923,US
,,"MD, 21084",
Vancouver,BC,,CA
Dublin,County Dublin,Dublin 2,IE
Columbia,SC,29209,US
,,,
St. Louis,MISSOURI,63134,US
Seattle,WA,98102,US
,,,
Bellmore,New York,11710,US
Arlington,VA,,US
San Francisco,CA,,US
Boston,MA,2110,US
Oakville,Ontario,L6K 3P1,CA
Louisville,KY,40205,US
Chicago,IL,60637,US
Rapid City,SD,,US
Quebec,Quebec,G1W 1C1,CA
Salem,MA,1970,US
Columbia,MO,65203,US
,,,
Brighton,The City of Brighton and Hove,BN1 3BA,GB
,,,
London,Gt Lon,EC1A 4HD,GB
Leigh,Gt Man,WN7 3XZ,GB
Huntingdon,Cambs,PE29 3TN,GB
Philadelphia,PA,,US
Baltimore,MD,21230,US
London,ON,N5Y 5R6,CA
Surrey,,TW20 0EX,GB
Minneapolis,MN,55403,US
,,,
Austin,TX,78717,US
Washington,DC,20009,US
Williamsburg,VA,23185,US
New York,NY,10013,US
,,,
New York,NY,10036,US
Surrey,Surrey,GU9 7SB,GB
Indianapolis,IN,46219,US
Chicago,IL,,US
Barre,VT,5641,US
Amsterdam,,1053 WP,NL
New York,NY,10003,US
San Francisco,CA,94105,US
New York,NY,10002,US
,,4006,
Moncks Corner,SC,29461,US
Atherton,CA,94027,US
San Francisco,CA,94110,US
Fort Lauderdale,,33394,US
Gravesend,Kent,DA11 0AZ,GB
Centerville,OH,45459,US
Atlanta,GA,30345,US
Kansas City,MO,,US
Raleigh,NC,,US
London,England,SW8,GB
Miami,FL,33137,US
Minneapolis,MN,55426,US
Rochester,NH,3867,US
Richmond,BC,V7C,CA
,,,
Manchester,,M2 3JL,GB
Austin,TX,,US
New York,NY,10019,US
,,,
Norman,OK,,US
Singapore City,Singapore City,238876,SG
New York,NY,10036,US
Seattle,WA,98121,US
,,,
Poplar Bluff,MO,63901,US
Orlando,FL,32810,US
Fort Lauderdale,FL,33319,US
Lorain,OH,44053,US
Georgetown,Ontario,L7G 4S7,CA
Cardiff,Cardiff,CF10 3BX,GB
Georgetown,KY,40324,US
Jupiter,FL,33477,US
Indianapolis,IN,46208,US
,Gt Lon,EC4N 8BJ,GB
Port Washington,NY,11050,US
,malaysia,50480,MY
Doncaster,VIC,3108,AU
Stratford-upon-Avon,England,CV37 9HQ,GB
Anderson,,29621,US
Hawthorn,Victoria,3122,AU
San Francisco,CA,94103,US
Southampton,,SO17 1BJ,GB
New York,NY,10010,US
Wellington,Wellington,,NZ
Chicago,IL,60606,US
Harrogate,North York,HG1 2RZ,GB
,,43205,
,,,
Livermore,CA,94551,US
,,,SG
Omaha,NE,,US
Schaumburg,IL,60193,
,,,
Kansas City,KS,66101,US
Albany,,12203,US
Boston,MA,2210,US
Philadelphia,PA,19107,US
Homestead,FL,,US
Atlanta,GA,30308,US
Phoenix,AZ,85050,US
Charlotte,NC,28202,US
,,,
Dartmouth,NS,B2X 2C5,CA
Detroit,MI,48226,US
Memphis,TN,38104,US
London,London,SE1 9BU ,GB
Chicago,IL,,US
,,,
New Orleans,LA,70119,US
Leeds,,LS10 1LB,GB
San Diego,CA,92121,US
Denver,CO,80205-4899,US
Windsor,Ontario,,CA
,,,
Temple,TX,76501,US
,,,
,,,
,,,
New York,NY,10012,US
Markham,ON,L3R 0J3,CA
Port Augusta,SA,5700,AU
Washington,DC,20500,US
Thessaloníki,Thessaloniki,59300,GR
Toronto,ON,M5T,CA
Waldorf,MD,20601,US
Washington,DC,20036,US
Northampton,PA,18966,US
,,,US
Namur,Namur,5000,BE
,,,
Deerfield Beach,FL,33442,US
Fairfax,CA,94930,US
Westerly,RI,2891,US
,,,
,,,
Lanham,MD,20706,US
Montreal,Quebec,H4W 1A6,CA
New York,NY,10018,US
Sayville,NY,11782,US
Cincinnati,OH,45202,US
London,London,SW17 8SA,GB
,,400052,
,,,
,,,TD
Stevensville,MD,,US
Anaheim,CA,92805,US
,,,
Jacksonville,FL,32211,US
Hammond,IN,46324,US
Astoria,NY,11102,US
Sun City,CA,92586,US
Miami,FL,33129,US
,,,
Birmingham,England,B15,GB
Stretford,England,M16 0RA,GB
Oakland,CA,94612,US
Detroit,MI,48202,US
San Antonio,TX,,US
Chicago,IL,,US
,,,
,,,
,,,
Puchong,Selangor,47100,MY
Glasgow,Glasgow City,G68 9AT,GB
Waverley Mount,,NG7 4ED,GB
Tempe,AZ,85287,US
,,94133,
Nipomo,CA,93444,US
Tournai,Région wallonne,7500,BE
Gijón,Principality of Asturias,33203,ES
Lake Lure,NC,28746,US
Pasadena,CA,91107,US
Portland,OR,97214,US
London,Gt Lon,E9 6JQ,GB
,,,
Austin,TX,78702,US
Joshua Tree,CA,92252,US
New York,NY,10021,US
Indian Trail,NC,28079,US
Newcastle Upon Tyne,England,,GB
San Francisco,CA,94108,US
Lisbon,Lisbon,,PT
Bellevue,WA,98004,US
New York,NY,10018,US
Topeka,KS,66614,US
Fairfield,CT,6824,US
 Randallstown,MD,21133,US
Oakville,ON,L6H 4J6,CA
Mumbai,"Maharashtra, India",400028,IN
Beverly Hills,CA,90210,US
Indianapolis,IN,46225,US
Chicago,IL,60602,US
,,,
Edmonton,AB,T6E 3W3,CA
seal beach,CA,90740,US
Fitzroy Vic ,,3065,
Philadelphia,PA,19147,US
Malabon City,PHILIPPINES,,US
Tucker,GA,30084,US
Fort Worth,TX,76134,US
Leeds,West York,LS4 2DG,GB
Studio City,CA,91604,US
San Francisco,CA,,US
Minsk Mazowiecki,Siedlce,,PL
Austin,,78701,US
Victoria,British Columbia,V8P 5C2,CA
Etterbeek,Bruxelles,1040,BE
,Gt Lon,WC1H 0EH,GB
Portland,OR,97227,US
Wigan,Wigan,WN6 0AZ,GB
,,,
Sterling,VA,20164,US
Manchester,,M13 9PR,GB
New York,NY,10154,US
Vancouver,BC,,CA
,,,US
Padstow,NSW,2211,AU
,,,
San Antonio,TX,78229,US
Nashville,TN,37205,US
,,,
Sacramento,CA,,US
Berkeley,CA,94710,US
Visalia,CA,93277,US
,,599489,SG
Berkeley,CA,94704,US
,WB,,IN
,,,
Chicago,Illinois,60611,US
,,,ES
Miami,FL,33132,US
,,,
Belmont,NC,,US
Indianapolis,Indiana,46282,US
Kelvin Grove,QLD,4059,AU
Alpharetta,GA,30009,US
Frisco,TX,,US
,,,
SF,CA,94102,US
New York,NY,10002,US
Chicago,IL,60607,US
Nairobi,Nairobi Area,,KE
Castle Rock,CO,80109,US
,,,
Oak Brook,IL,60523,US
San Diego,CA,92108,US
,,,
Riverside,CA,92501,US
Spring Green,WI,53588,US
,,,
Mosjøen,Nordland,8656,NO
,,,
Boston,MA,2115,US
Burnaby,British Columbia,V5J 3J1,CA
Montgomery,AL,36102-1950,US
Ottawa,Ontario,,CA
Walnut Creek,CA,94597,US
Overland Park,KS,66211,US
Whittier,CA,90602,US
Tuba City,AZ,86045,US
Phoenix,AZ,85003,US
Orinda,CA,94563,US
Suisun city,CA,94585,US
Palo Alto,CA,94301,US
Hampton,VA,23664,US
Newbury,West Berkshire,RG14 7TD,GB
Chicago,IL,60661,US
Calgary,Alberta,T2H 1Y3,CA
Ottawa,ON,K1P,CA
Doncaster,VIC,3108,AU
Washington,DC,20565,US
Glasgow,Glasgow City,G12 8QQ,GB
Singapore,,,SG
 San Francisco, California,94103,US
Wellsville,PA,17365,US
Adelaide,South Australia,5000,AU
Chandler,AZ,85225,US
Waldorf,MD,20603,US
Johnstown,PA,,US
Sydney,NSW,2000,AU
,,,
,England,,
San Mateo,CA,94402,US
New York,NY,10019,US
New York,NY,10016,US
,,,
Cambridge,MA,2141,US
,,,
Forest Park,GA,30297,US
Stockton,CA,95202,US
Calgary,Alberta,AB T2G,CA
Washington,DC,20001,US
Zagreb,,10000,HR
Chicago,IL,60654,US
Syosset,NY,11791,US
Petaluma,CA,,US
,,,
,,,
Renton,WA,98058,US
Mineola,NY,11501,US
Philadelphia,PA,19107,US
Manchester,Manchester,M2 3AB,GB
Decatur,IL,62521,US
Bath,Bath,BA2 9ER,GB
Ardmore,PA,,US
Columbus,OH,43235-4217,US
Birmingham,AL,,US
San Francisco,CA,94111,US
Aurora,CO,80014,US
,,,
Dublin,CA,94568,US
Pleasant Hill,CA,94523,US
Old Wolverton,,MK12 5NN,GB
,,,
Bangalore,KA,,IN
Edinburgh,"Edinburgh, City Of",EH3 5NZ,GB
League City,TX,77573,US
Jacksonville,FL,,US
West Chester,OH,45071,US
Hoboken,,7030,US
Lees Summit,MO,,US
Dublin,Dublin,18,IE
Scarborough,WA,6019,AU
Minneapolis,MN,55401,US
Raleigh,NC,27614,US
Washington,DC,20002,US
Los Angeles,CA,90071,US
Cary,NC,27513,US
New York,NY,10036,US
Newark,DE,19711,US
,,,
Halifax,NS,B3J,CA
Garberville,CA,,US
San Diego,CA,92101,US
Oak Lawn,IL,60453,US
Atlanta,GA,30339,US
,,NN6 8NN,
Forest Park,,,US
Troy,MI,48084,US
Hilliard,OH,43026,US
,,,
London,England,N14,GB
Delhi,Delhi,110008,IN
Irvine,CA,92612,US
,,98665,AX
Brigham City,UT,84302,US
Cleburne,TX,76033,US
Houston,TX,77007,US
Colchester,Essex,,GB
Palm Beach Shores,FL,33404,US
Cashmere,Canterbury,8022,NZ
Birmingham,West Midlands,B16 9EE,GB
Baltimore,MD,21217,US
Azeitão,PORTUGAL,,US
,,,
Bath,England,BA1,GB
London,London,N1 0NP,GB
,,,
,,DC,
South Padre Island,TX,,US
New York,NY,,US
Boca Raton,FL,33431,US
Berkeley,CA,94709,US
Montclair,NJ,7043,US
Superior,WI,54880,US
Salisbury,England,,GB
Los Angeles,CA,90038,US
Santa Clarita,CA,CA 91350,US
Stirling,Scotland,FK9,GB
Warwickshire,,,GB
,,92107,
Phoenix,AZ,85021,US
Canberra,ACT,2601,AU
Denver,CO,80202,US
Chicago,IL,,US
Kamloops,British Columbia,V2C 5N3,CA
Nettleham,Lincs,LN2 2LT,GB
Valrico,FL,,US
,,,
Portsmouth,Portsmouth,PO4,GB
Atlanta,GA,30309,US
Red Bank,,7701,US
London,GT-Lon,EC2A 4HJ,GB
Cedar Park,TX,78613,US
Orange County,CA,92856,US
Saint-Francois,,G0A 3S0,
Terre Haute,IN,47803,US
Muskegon,MI,49440,US
,,,
Muncie,IN,47302,US
Washington,DC,20008,US
Chicago,IL,,US
Ottawa,Ontario,KIP 5A4,CA
Hamden,CT,6517,US
,,WC2R 2LS,GB
Anzac,AB,T0P,CA
Los Angeles,,90012,US
Norfolk,NE,68701,US
Nantes,Pays de la Loire,,FR
,,,
Houston,TX,77002,US
Bromley,Kent,BR1 1HT,GB
Austin,TX,78701,US
,,"Cambridge, MA",
Washington,DC,20004,US
Atlanta,GA,30318,US
Mobile,AL,36604,US
Washington,DC,20016,US
Los Angeles,CA,,US
Seattle,WA,,US
Indianapolis,IN,46240,US
Madrid,Madrid,28045,ES
,,,
,,,
San Juan Capistrano,CA,92675,US
Worcester,MA,,US
New York,NY,10004-2205,US
Bradenton,FL,34211,US
North Little Rock,AR,72116,US
Phoenix,AZ,85029,US
,,,
Lakewood,CO,80214,US
,,,US
Athens,,15124,GR
,,,
Dorney,,SL4 6QS,GB
,,,
Calgary,Alberta,T2P 0G1,CA
,,,
,,,
Toronto,ON,M5N 1A5,CA
Ledyard,CT,6338,US
Missouri City,TX,77459,US
Ottawa,Ontario,K2G 1V8,
Ann Arbor,MI,48109,US
Makati City,NCR,,PH
,,,
Saint Louis,,63102,US
Fitzroy,VIC,3065,AU
Dublin,Dublin,,IE
New York,NY,,US
Bel Air,MD,21014,US
,,,
,,,
Barrie,ON,L4N 0Z7,CA
Boston,MA,2210,US
Hanover,MD,21076,US
New York,NY,10036,US
Beaverton,OR,97005,US
St Louis,MO,63118,US
,,IL,
Kansas City,KS,61543,US
Atlanta,GA,30337,US
London,London,E15 1JA,GB
Waterloo,ON,N2L 6G2,CA
,,,
Banff,AB,T1L,CA
Washington,DC,,US
,,,
,,30303,
Forest,Ontario,N0N 1J0,CA
,,,
,,,
Lafayette,LA,70501,US
Boulder,CO,80302,US
St. Francis,,53235,
Chicago,IL,60611,US
Carmel,IN,46032,US
Norfolk,VA,23502,US
San Angelo,TX,,US
Winston Salem,NC,27106,US
Seattle,WA,98104,US
Red Hill,QLD,4059,AU
Bend,OR,97701,US
Duncan,BC,V9L 5X4,CA
,,N1 9JY,GB
Oklahoma City,OK,73134,US
Djakarta,Jakarta Capital Region,11540,ID
STOCKHOLM,Stockholms län,111 21,SE
Tel Aviv,,,IL
Westminster,CO,80020,US
Boston,MA,2218,US
,,,
Charlotte,NC,28202,US
Lafayette,CA,94549,US
New York,NY,10012,US
,,,
Lynchburg,VA,24503,US
Chicago,IL,60605,US
Goshen,NY,10924,US
Wichita,KS,67226,US
Waco,TX,76707,US
,,,
Berlin,,10781,
,Aveiro,3810,PT
Boston,MA,2215,US
Tahoe City,CA,96145,US
Irving,TX,75063,US
Kentwood,MI,49512,US
Lake Forest,CA,92630,US
Philadelphia,PA,19131,US
Miami,FL,33172,US
Syracuse,NY,13205,US
College Park,MD,20740,US
Tacoma,WA,98404,US
Littleton,CO,80123,US
Tustin,CA,92780,US
London,London,EC4M 7DZ,GB
Oklahoma City,,,US
Winter Park,FL,32789,US
Harrisburg,PA,17102,US
Madrid,Madrid,28046,ES
Tba,Samtskhe-Javakheti,,GE
Los Angeles,CA,90046,US
Leesburg,VA,20176,US
,,,
Plano,TX,75074,US
Hervey Bay,QLD,4655,AU
Toronto,ON,L4W 4X7,CA
Sacramento,CA,95816,US
Circle Pines,MN,55014,US
Plymouth,Plymouth,PL1 2AD,GB
,,,
,,,
London,ON,N6B 1V7,CA
Pittsburgh,PA,15235,US
Kingsport,TN,37660,US
Washington,DC,20004,US
Austin,TX,78704,US
Madison,WI,,US
Greensboro,NC,27403,US
,,,
,,,
Los Angeles,CA,90024,US
Sierra Vista,AZ,85635,US
Oakland,CA,94621,US
Port Chester,NY,10573,US
Paris,IDF,75014,FR
Street,England,BA16,GB
Ames,IA,50014,US
Dover,Kent,CT17,GB
East Hampton,NY,11937,US
Atlanta,GA,30303,US
Winters,CA,95694,US
Los Angeles,CA,90014,US
Oldham,Oldham,OL8 1UA,GB
Raleigh,NC,27606,US
Beirut,,729,LB
,Gt Lon,WC1E 7HU,GB
Philadelphia,PA,19123,US
Washington,DC,20007,US
Las Vegas,NV,,US
Dublin,OH,43017,US
Leesburg,VA,20175,US
,,,
Cincinnati,OH,45248,US
Stone Mountain,GA,30083,US
Majadahonda,Comunidad de Madrid,28221,ES
Los Angeles,CA,90067,US
Cambridge,Ontario,,CA
,,,
,,33139,
Indianapolis,IN,46225,US
San Francisco,CA,94111,US
Sydney,NSW,2061,AU
Istanbul,Istanbul,34437,TR
Walsall,Walsall,,GB
Ottawa,ON,K1H 8M2,CA
McCloud,CA,96057,US
San Jose,CA,95131,US
Waterford Township,MI,48329,US
,,,
Northridge,CA,91325,US
Wichita,KS,67226,US
Las Vegas,NV,Nevada,US
Oslo,,,NO
Nashville,TN,,US
,,,
"Technology Commercialization Office, Columbus",OH,43201,US
New York,NY,10018,US
New Orleans,LA,70148,US
Woodford,Essex,E17 3PR,GB
,,,
Plantation,FL,33324,US
London,London,W1w 5pn,GB
Madison,WI,53703,US
Dallas,TX,75206,US
London,Greater London,,GB
Bellevue,WA,98004,US
,,,
New Orleans La,,70117,
,,DC,
Cincinnati,OH,45242,US
Sunderland,T & W,SR3 3XN,GB
Región de Lisboa,Distrito de Lisboa,1990-203,PT
St Catharines,,,
Milano,Lombardia,20100,IT
Bradford,Bradford,BD8 8BD,GB
Ottawa,Ontario,K1P 5M2,CA
Conwy,Conwy,,GB
Charlotte,NC,28204,US
Cairns,QLD,4870,AU
,,228516,SG
Thrapston,Northamptonshire,NN14,GB
Marshalltown,IA,50158,US
San Diego,,92101,US
Irvine,CA,,US
Washington,DC,20009,US
Binghamton,NY,13902,US
Landover,MD,20785,US
Alpharetta,GA,30009,US
East Hampton,NY,11937,US
Dallas,TX,75207,US
Kaneohe,HI,96744,US
Moscow,,,RU
,,,
Dublin,Dublin,2,IE
Desert Hot Springs,Ca,92240,US
West Hollywood,CA,90069,US
,,,
Nashville,TN,37210,US
Sacramento,CA,95814,US
Wien,ÖSTERREICH,1110,US
,,CA 90404,
Montebelluna,Veneto,31044,IT
,,,US
Minneapolis,MN,55404,US
Mountain View,CA,94035,US
New York,NY,10016,US
Emmeryville Ca,,90408,
Milwaukee,WI,53212,
Longmont,CO,80503,US
Columbus,OH,43215,US
Windsor,Ontario,,CA
Brooklyn,NY,11216,US
Dublin,Dublin,,IE
Washington,DC,20005,US
Atlanta,GA,30344,US
Olathe,KS,,US
Chickasha,OK,73018,US
,,,
Houston,TX,77056,US
Marana,AZ,85653,US
Piscataway,NJ,,US
Abbotsford,BC,V2S 3N5,CA
Jacksonville,FL,32216,US
London,London,W1D 5DH,GB
Paradise Valley,AZ,85032,US
Providence,RI,2908,US
New York,NY,10003,US
Lake Forest,CA,92630,US
Memphis,TN,38018,US
London,England,SW7 3HG,GB
Sandy Springs,GA,30328,US
Washington,DC,20024,US
Columbia,SC,29226,US
Galveston,,,US
Saint Petersburg,Saint Petersburg,,RU
Islandia,NY,11749,US
London,Gt Lon,W1K 1HF,GB
Wales,,,GB
Singapore City,Singapore City,88500,SG
 Charlotte,NC,28206,US
Whittier,CA,90603,US
East Troy,WI,53120,US
Fort Lauderdale,FL,,US
Reading,West Berkshire,RG1 4QA,GB
Chicago,IL,60607,US
Mebane,NC,,US
Cheadle Hulme,Gt Man,SK8,GB
Baltimore,MD,21214,US
St. Michael,MN,55376,US
,,,
,Ma,,US
,,,
Chicago,IL,,US
New York,NY,10011,US
,,,
Philadelphia,PA,19103,US
Charlotte,NC,28209,US
Las Vegas,NV,89146,US
Lansing,MI,48933,US
Peoria,IL,61606,US
Farmers Branch,TX,75234,US
Cambridge,MA,,US
Birmingham,Birmingham,B3 3QR,GB
Stockton,CA,95203,US
,,,
Chagrin Falls,OH,44022,US
Montreal,QC,H4C 2G1,CA
,,,
Battle,East Sussex,TN33 0SL,GB
Oklahoma City,OK,73134,US
Newaygo,MI,49337,US
Little Rock,AR,72206,US
,,,
Greensboro,NC,27408,US
Washington,DC,20004,US
Denver,CO,,US
Cottontown,TN,37048,US
Penrith,New South Wales,2750,AU
Washington,DC,20002,US
,,,
Mosman,NSW,NSW 2088,AU
,,,
,,,
,,,
,,,
,,,
Walnut Creek,CA,94596,US
London,Gt Lon,W1T 5AY,GB
,,BH25 6SY,GB
Richmond,North York,DL10 4DW,GB
Toronto,ONTARIO CANADA,,US
Leederville,WA,6076,AU
Waterbury,CT,6702,US
,,,
Sacramento,CA,95816,US
Salem,CT,6420,US
Bearsden,Glasgow City,G61,GB
Denver,CO,,US
Egg Harbor Township,NJ,8234,US
Arcadia,CA,91007,US
Paris,Ile De France,75009,FR
cartavio,ascope,0 44,PE
london,,ec2a 4bx,GB
Seattle,WA,98104,US
Cincinnati,OH,45208,US
London,London,EC1A 4EN,GB
Nashville,TN,37203,US
Plantation,FL,33317,US
,,,
,,,
Toronto,ON,M7A 2C7,CA
,,,
Burlington,NC,27215,US
,,,
Crestline,CA,92325,US
Darmstadt,HE,,DE
Yeppoon,QLD,4703,AU
Columbus,OH,43215,US
Lafayette,LA,,US
Chennai,TN,600004,IN
Minneapolis,MN,55409,US
Tavernes de la Valldigna,Valencian Community,46760,ES
,,,
Newburg,MD,20664,US
Andover,Hampshire,SP10 1BH,GB
Overland Park,KS,66212,US
Paddington,NSW,2021,AU
Toronto,Ontario,M5V1J6,CA
Concord,MA,1742,US
Newark,CA,,US
Toronto,ON,,CA
Greenbelt,MD,20770,US
Washington,DC,20001,US
Troy,AL,,US
Chandler,AZ,85226,US
,,VA,
,,CB3 9DP,
Saint Cloud,MN,56303,US
1020,Vienna,,AT
Huntington,New York,,US
Corvallis,OR,97333,US
Houston,TX,,US
 Fredonia,KS,,US
Birmingham,AL,35223,US
San Diego,CA,92101,US
Roscommon,MI,48653,US
Greenfield,IN,46140,US
Augusta,GA,30901,US
Kuala Lumpur,Kuala Lumpur,,MY
Louisville,KY,,US
,,,
Sunnyvale,CA,94087,US
Indianapolis,IN,46204,US
Muscatine,IA,52761,US
Vancouver,British Columbia,V6E 3V7,CA
Brentwood,NY,11001,US
Baiana,Lombardia,25040,IT
Cleves,OH,45002,US
Milwaukee,WI,53213,US
Yukon,OK,73099,US
Augusta,KS,67010,US
London,,E14 8HH,GB
Brooklyn,,11217,US
Solihull,England,B91 3DG,GB
,,,TD
Bowling Green,KY,42101,US
,,FLORIDA,
Paris,IDF,75008,FR
Decatur,GA,30030,US
Charlotte,NC,28202,US
Edinburgh,#NAME?,EH2 2ER,GB
Boulder,CO,80304,US
Raleigh,NC,27609,US
Sydney,NSW,,AU
North Little Rock,AR,72114,US
Toronto,ON,M5V 2W6,CA
Chattanooga,TN,,US
Charlotte,NC,28217,US
Philadelphia,PA,19132,US
Gladstone,OR,97027,US
Palermo,Italia,90128,IT
Bensalem,PA,19020,US
Santa Clara,CA,95051,US
Los Angeles,CA,90028,US
Wheaton,IL,,US
"Vasastan, Stockholm",,,SE
Enfield,England,,GB
Puyallup,WA,,US
Varsity Lakes,QLD,4227,AU
Chorley,,PR7 1DY,GB
Las Vegas Nv,,89146,
,,,
,,,
Brooklyn,NY,11201,US
Dallas,TX,,US
"Accra,",,233,
Mexico City,D.F.,6600,MX
Darlinghurst,NSW,2010,AU
PRICE REFLECTS DISCOUNT,,,
Oklahoma City,OK,73142,US
Universal City,TX,78148,US
Glasgow,Lanarkshire,G3 8LU,GB
Wappingers Falls,NY,12590,US
Memphis,TN,38120,US
,,22046,
Paris,IDF,75001,FR
Ashburn,VA,,US
Saint Louis,MO,63101,US
,,,
,,,
Rochester,NY,14607,US
Detroit,MI,48221,US
"RBS Conference Centre, Gogarburn",Edinburgh,EH12 9BH,GB
Cedar Hill,TX,75104,US
Las Vegas,NV,,US
,,,
Doha,Ad Dawhah,Qatar,QA
Austin,TX,,US
Richfield,UT,84701,US
Morristown,NJ,,US
,,,
Brooklyn,NY,11222,US
Vancouver,BC,V5Y 0C2,CA
Atlanta,GA,30316,US
Waco,,76706,US
Grand Rapids,MI,49503,US
,,WC1H 9EU,GB
,,,
Burnley,Lancs,BB11,GB
Reading,PA,19603,US
San Francisco,,94127,CA
Delft,Zuid Holland,2613 EM,NL
,,,
Vaughan,ON,L4H 0R2,CA
Castlebar,Mayo,,IE
Tallahassee,FL,32301,US
Greenville,SC,29615,US
Austin,TX,TX  78701,US
Tyler,TX,75709,US
,,,
San Juan Capistrano,CA,92675,US
Evansville,IN,47711,US
Miami,FL,,US
,,,
London,London,EC4Y 1AA,GB
,,,
Surrey,British Columbia,V4N 0J4,CA
Los Gatos,CA,,US
Campbell,CA,95008,US
,,,
Bundamab,,4304,
Memphis,TN,38018,US
Venice,CA,90291,US
Stillwater,OK,74074,US
London,London,E8 3DY,GB
Washington,DC,20036,US
London,England,WC1H,GB
Kloten,Zurich,8302,CH
St. Catharines,ON,,CA
San Francisco,CA,,US
Pisa,Toscana,,IT
,,,
New Orleans,LA,70130,US
Aurora,ON,L4G 3V7,CA
San Francisco,CA,94104,US
,,,IN
Biel,BE,2500,CH
Oldham,England,OL1,GB
Montgomery,NY,12549,US
Simcoe,Ontario,N3Y 4K3,CA
,,,
Boston,MA,2108,US
Driffield,York,YO25 9AF,GB
Toronto,ON,M4K 1P5,CA
Dallas,TX,75204,US
Malvern,PA,19355,US
,,,
,,,US
Brookline,MA,2467,US
Kelowna,British Columbia,V1Y 9P3,CA
Holmfirth,West Yorkshire,HD9 2JW,GB
,,,
,,,
Singapore,Singapore,,SG
Ridgeland,MS,39157,US
Jacksonville,FL,32218,US
,,,
New Bedford,MA,2740,US
Orlando,FL,32837,US
,,,
Meridian Idaho,,83642,
Louisville,KY,40202,US
Las Vegas,NV,89109,US
Port Charlotte,FL,,US
Charlotte,NC,NC 28269,US
San Francisco,CA,94111,US
,,,
Eindhoven,NB,5652,NL
Driggs,ID,83422,US
,,40060,
Oswaldtwistle,Lancashire,BB5 3HZ,GB
Bridgewater,MA,,US
Atlanta,GA,30310,US
Chicago Heights,IL,60411,US
,,,
,,,
Melbourne,FLORIDA 32901,,US
Jefferson City,MO,65101,US
Rockford,IL,61103,US
,,,
New York,NY,10016,US
Singapore,,229573,SG
Houston,TX,77002,US
,,80237,US
"Newark, NJ",NJ,7102,US
Newport,KY,41071,US
New York,NY,,NO
Santa Ana,CA,92701,US
All Over,Fl,32801,
Surry Hills,NSW,2010,AU
Memphis,TN,38115,US
Naples,FL,34109,US
La Défense,Ile De France,92044,FR
Fall River,MA  ,2720,US
Farmington,CT,6032,US
Louisville,KY,40206,US
Machesney Park,IL,61115,US
Kuala Lumpur,Kuala Lumpur,52100,MY
Platteville,WI,53818,US
Washington,DC,,US
Houston,TX,77088,US
Washington,DC,20017,US
San Francisco,CA,94108,US
Weare,NH,3281,US
Pickerington,OH,43147,US
London,London,W1J  0BD,GB
Bentley,WA,6102,AU
Chicago,IL,60614,US
Fort Worth,TX,76109,US
New York,NY,10013,US
,,,
Asheville,NC,28806,US
,,,
Medina,WA,,US
,,,
Pointe-Claire,QC,,CA
München,BY,80335,DE
,,,
Leeds,Leeds,ls2 8lq,GB
Coral Gables,FL,33146,US
San Francisco,CA,94103,US
Miami Beach,FL,31139,US
Toronto,ON,M6K,CA
La Jolla,CA,92037,US
Cedar Park,TX,78613,US
Newport Beach,CA,92663,US
London,London,WC1N 1JD,GB
Kingston,Jamaica,Kingston 12,US
Hobart,TAS,7000,AU
"Washington, D.C.",DC,20008,US
,,,
Chicago,IL,60657,US
Las Vegas,NV,89148,US
Houston,TX,77029,US
,, J4P 1M6,
,Kent,TN4,GB
,,,
Akron,OH,44333,US
Toronto,ON,M3J 2S5,CA
Hollywood,,,US
Los Angeles,CA,90028,US
Whitsett,NC,27377,US
Anniston,AL,36207,US
Dallas,TX,,US
Seattle,WA,98103,US
,,,
Fredericton,NB,E3B 3W8,CA
Memphis,TN,38119,US
Farifax,VA,,US
New Paltz,NY,12561,US
London,,SE1 8NJ,GB
Cleveland,OH,44106,US
New York,NY,10018,US
Tifton,GA,31793,US
London,Gt Lon,E2 9DY,GB
Round Rock,TX,78664,US
Arcadia,CA,,US
,,,
New York,NY,10001,US
Québec,QC,G1G 0A1,CA
The Rocks,NSW,2000,AU
Memphis,TN,38125,US
Charlotte,NC,28277,US
Holland,MI,49423,US
Dublin,Dublin,,IE
,,,
New York,NY,10002,
Kuopio,Eastern Finland,,FI
Miami,FL,,US
Washington,DC,20009,US
,,,
Andover,Hampshire,SP10 2EA,GB
Sydney,NSW,2000,AU
Nashville,TN,37216,US
Paris,IDF,75017,FR
Burlington,MA,1803,US
,West Mids,,GB
,,,US
London,London,,GB
Aberdeen,,AB10 1RN,GB
Pompano Beach,FL,33060,US
Los Angeles,CA,90014,US
Los Angeles,CA,90036,US
Libby,MT,,US
San Francisco,CA,94111,US
N. Las Vegas,NV,89032,US
Bolivar,MO,65613,US
,,,
,,,
Chicago,IL,60605,US
Orlando,FL,,US
Salem,OR,97301,US
,,40202,
,,,
Lima,Lima Region,,PE
,,,US
Phillipsburg,NJ,,US
Jonesboro,AR,,US
Portland,OR,97202,US
Decateur,GA,30034,US
Daly City,CA,94080,US
Atlanta,GA,,US
Milton Keynes,Milton Keynes,,GB
Atlanta,GA,30316,US
Worcester,MA,1609,US
East Lansing,MI,48823,US
Southfield,MI,48075,US
Towson,MD,,US
Bentley,Western Australia,6152,AU
Chicago,IL,60654,US
Plymouth,Devon,PL6 5ZD,GB
New York,NY,10010,US
Atlanta,GA,30338,US
,,,
,,,
Baltimore,MD,21211,US
Jacksonville,FL,32256,US
San Francisco,CA,,US
Douglas,Isle of Man,IM1 2HJ,
Mukilteo,WA,98275,US
Eddyville,KY,42038,US
San Diego,CA,92110,US
Cherry Lane West Drayton Junction 4m4 Ub7 9hb Heathrow United Kingdom Tel (+44)1895/431431 Fax (+44)1895/431221,,UB7 9HB,
Charlotte,NC,28202,US
,,,
New Orleans,LA,70130,US
Houston,TX,77002,US
Stillwater,OK,74075,US
,,11369,
Cambridge,MA,2139,US
Chicago,IL,60605,US
Miami Beach,FL,33139,US
,England,N1 5ET,GB
Brooklyn,NY,11220,US
Tacoma,WA,98402,US
Campbell,CA,95008,US
,,,
Decatur,GA,30032,US
New York,NY,10011,US
Richmond,,,US
Bilbao,Vizcaya,48013,ES
,,,
Noosa Heads,Queensland,,AU
,,,
Winnipeg,Manitoba,R3M 0W7,CA
,,,
Aguada,Puerto Rico,602,PR
London,Gt Lon,WC2R 0RN,GB
Fort Lauderdale,FL,33309,US
Swindon,Wiltshire,SN6 7,GB
,,,
,,,GB
Tempe,AZ,85283,US
Madrid,Comunidad de Madrid,,ES
Portland,OR,97204,US
Sacramento,CA,,US
,,,
Kansas City,MO,64112,US
Richmond,VA,23219,US
,,,
San Francisco,CA,,US
Bethesda,MD,20892,US
New York,NY,10036,US
Manchester,England,M1 2DB,GB
Milano,Lombardia,20158,IT
Boise,ID,83712,US
Canton,OH,44702,US
Chicago,IL,60628,US
Palo Alto,CA,94306,US
Salford,Salford,M6 6PU,GB
London,Gt Lon,EC3A 8AF,GB
,,,
,,,
Las Vegas,NV,,US
Vancouver,BC,V5L 3N7,CA
Carmel,IN,46032,US
Kissimmee,FL,34744,US
Vancouver,BC,V6T 1Z2,CA
,,,
Jupiter,FL,33477,US
Elk Grove,CA,95624,US
Fairfield,CA,94533,US
,CA,,US
Raleigh,NC,27613,US
Vaughan,ONTARIO,L4K5Z7,US
Calgary,Alberta,T2P 7N2,CA
Omaha,NE,68114,US
Chapel Hill,NC,,US
Paris,IdF,75014,FR
,,,
American Fork,UT,,US
Gloucester,Glos,GL1,GB
San Francisco,CA,94107,US
Blue Bell,PA,19422,US
Grand Rapids,MI,49503,US
Austin,TX,78731,US
Gonzales,LA,70737,US
Sheffield,England,S1,GB
Philadelphia,PA,19103,US
Geelong,Vic,,AU
Tempe,AZ,,US
Staffordshire ,England,WS14 9DE ,GB
Clarksville,TN,37043,US
Los Angeles,CA,90013,US
Chicago,IL,60707,US
Memphis,TN,38016,US
Denver,CO,80202,US
Milwaukee,WI,53209,US
Xenia,OH,45385,US
,,,
California,,94115,CA
San Francisco,CA,94105,US
Preston,VIC,3072,AU
Quebec,Quebec,G1V 2L1,CA
Columbus,OH,,US
West Hollywood,California,90069,US
New York,NY,10018,US
San Francisco,CA,94107,US
New York,NY,10019,US
New York,NY,10031,US
Woodbridge,VA,22192,US
Burswood,WA,6100,AU
Rosny-Sous-Bois,IDF,93110,FR
Frisco,TX,,US
Louisville,KY,40202,US
San Jose,CA,95113,US
New York ,NY,10018,US
Pembroke Pines,FL,33024,US
Sundre,Alberta,T0M 1X0,CA
Smithtown,NY,11787,US
Laverton,Victoria,3028,AU
,,,
,Victoria,,AU
Jacksonville,FL,,US
,,,
Springfield,VA,22151,US
South Wharf,VIC,3006,AU
New York,NY,10002,US
,,,
Blaine,MN,55449,US
Albany,NY,12204,US
Pinellas Park,FL,,US
Boise,ID,83725,US
Boston,,2110,US
New York,NY,10018,US
Los Angeles,CA,90024,US
Portland,OR,97227,US
Tauranga,Tauranga,3110,NZ
Los Angeles,CA,90012,US
Apex,NC,27539,US
Toronto,ON,M5A 1S7,CA
Cheltenham,Gloucestershire,GL50 1QA,GB
New Orleans,LA,70119,US
Charleston,SC,29409,US
Southampton,,SO17 1BJ,GB
Burgaw,NC,28425,US
Toronto,ON,M4V 2R5,CA
Orlando,FL,32801,US
Grand Rapids,MI,49506,US
Birmingham,West Mids,B1 3JR,GB
West Hollywood,CA,90069,US
Marietta,GA,,
Highland Park,IL,60035,US
,,,
,,,
Sacramento,CA,95815,US
Rio de Janeiro,RJ,,BR
Charlotte,NC,28202,US
Deptford Township,NJ,8096,US
,,94010,
Montrose,CO,81401,US
Atlanta,GA,,US
Pomona,CA,,US
,,,
Raleigh,NC,27610,US
,,,
Baltimore,MD,21218,US
London,Gt Lon,SE1 7UT,GB
Los Angeles,CA,90024,US
,,,
Paris,Ile De France,75002,FR
,,,
Arcadia,CA,91007,US
Jacksonville,NC,,US
Ann Arbor,MI,48104,US
Sterling Heights,MI,48312,US
Toronto,ON,M5V 2W6,CA
Houston,TX,77002,US
Oxford,Oxfordshire,OX4 4G,GB
Portland,OR,97210,US
Pinnacle,NC,27043,US
New York,NY,10282,US
Chicago,IL,60637,US
,,,
Ogden,UT,84414,US
Fort Worth,TX,76177,US
Minneapolis,MN,55455,US
New Paltz,NY,12561,US
Baltimore,MD,21212,US
Gatineau,QC,J9H 4W8,CA
,,,
Istanbul,Istanbul,34367,TR
Austin,TX,78759,US
Greenwood Village,CO,80111,US
Vancouver,British Columbia,,CA
,,,
Fort Myers,FL,33916,US
Bloomington,MN,55431,US
,,,
London,,SE16 3LP,GB
,Greater London,WC2H 0EB,GB
Redmond,OR,97756,US
Newbury Park,CA,91320,US
Fairfax,VA,22033,US
Calhan,CO,80808,US
Sandy,UT,84070,US
Ipswich,Suffolk,IP4 1QJ,GB
Charlottesville,VA,22904,US
,,,
San Jose,CA,95126,US
Charlotte,,28270,US
Hollywood,CA,90027,US
,,,
Cottage Grove,OR,,US
New York,NY,10013,US
Fort Lauderdale,FL,,US
Menlo Park,CA,94025,US
New York,NY,10017,US
New York,NY,,IL
Willemstad,Curaçao,,CW
Bristow,VA,20136,US
Roseville,CA,95678,US
Minneapolis,MN,55408,US
Fort Wayne,IN,46845,US
London,London,EC1Y 2BP,GB
Honolulu,HI,,US
Culver City,CA,90230,US
Greensboro,NC,27407,US
,Greater London,NW1 7AY,GB
Tulsa,OK,74146,US
San Francisco,CA,94107,US
Slidell,LA,70458,US
Glenside,PA,19038,
,,2430,
Oakland,CA,94611,US
Nashville,TN,37203,US
Edinburgh,Scotland,,GB
Miami,FL,33157,US
Carmel,IN,46033,US
,,,
,,,
Seattle,WA,WA 98101-2350,US
Redondo Beach,CA,90278,US
Dallas,TX,75204,US
,,95945,
Leicester,Leicester,LE3 2FW,GB
Nottingham,,NG1 3AL,GB
Baton Rouge | New Orlenas,,,
Stoke-on-Trent,England,,GB
New York,NY,10005,US
London,Gt Lon,SW1W 8AB,GB
London,,W12 7RH,GB
Guilford,CT,,US
Rochester,MI,48307,US
Newport,Isle of Wight,PO30 5TG,GB
Atlanta,GA,,US
,,,
Pittsburgh,PA,15222,US
Waldorf,MD,20601,US
New York,NY,NY,US
Los Angeles ,California ,90026,US
Birmingham,Birmingham,B3 2DP,GB
Huntington Beach,CA,92647,US
United Kingdom,,HP5 1UG,
San Francisco,CA,94116,US
Battle Creek,MI,49017,US
London,Gt Lon,E4 8NU,GB
,,,
Roseville,CA,95678,US
,,,
,,,
San Francisco,CA,94105,US
,,,
Galesburg,IL,61401,US
Irvine,CA,CA,US
,Penang,,MY
Dallas,TX,,US
New York,NY,10003,US
Lubbock,TX,79404,US
,,,US
St. Louis,,63108,
Tavares,FL,32778,US
Roma,Lazio,161,IT
Boone,IA,50036,US
Phoenix,AZ,,US
Cleveland,,44114,US
Wiveliscombe,Somset,TA4 2JY,GB
Waynesboro,VA,,US
,,,
,,,
Sydney,New South Wales,2000,AU
Calgary,Alberta,T3E 6K6,CA
Oxford,England,OX2,GB
Summit,IL,60501,US
Longueuil,Quebec,,CA
Tunis,Tunis,,TN
War,WV,24892,US
New York,NY,10027,US
Atlanta,GA,30324,US
London,,WC2H 7BA,GB
Jackson,MS,39209-3402,US
,,,
Kota Kemuning,Selangor,40460,MY
London,Gt Lon,SE1 1JE,GB
Fayetteville,NC,28301,US
Lake Forest,CA,92630,US
San Francisco,CA,94110,US
Denver,CO,80210,US
Kirkland,WA,98034,US
Palo Alto,CA,94301,US
,,,
Eunice,LA,70535,US
,,,
,,,GB
Washington,DC,20037,US
Atlanta,GA,,US
Toronto,ON,M5H 1Y2,CA
Ancaster,ON,L9G 3K9,CA
,,,
San Diego,CA,92101,US
Singapore,,,SG
San Francisco,CA,94102,US
Perth,WA,,AU
Tukwila,WA,98168,US
,,,
,,,
Houston,TX,77036,US
Arnsberg,NRW,59757,DE
Fairfax,VA,22032,US
Edmonton,AB,T5G 0N3,CA
Windsor,CO,80525-5823,US
Lafayette,CA,94549,US
,,,
Austin,TX,78741,US
,,,
Austin,TX,78757,US
Ottawa,Ontario,Ontario,CA
London,,SE1 5SR,GB
London,London,W1W 5PN,GB
Calgary,Alberta,,CA
Laguna Beach ,CA,92651,US
,,,US
,,,
,,B4 7DX,
Austin,TX,78722,US
San Francisco,CA,94103,US
,,,
,,,
Stirling,Stirling,FK7 7RP,GB
Philadelphia,PA,19104,US
Wilmette,IL,60091,US
Triangle,VA,22172,US
Sydney,NSW,2000,AU
Lansdowne,PA,19050,US
Hong Kong,Hong Kong,,HK
,,,
Cypress,TX,,US
Campbell,CA,95008,US
,,IM1 2LX,IM
Ouagadougou,,,BF
,,,
Akron,OH,44308,US
Leeds,Leeds,LS2 9NG,GB
San Francisco,CA,94105,US
,Glos,GL51 4UG,GB
,,,
London,,SW4 9EP,GB
Moore Park,NSW,2021,AU
Anaheim,CA,92806,US
Mawson Lakes,SA,5095,AU
Benicia,CA,94510,US
Cincinnati,OH,45236,US
Ottawa,ON,K1P 5N2,CA
Arlington,TX,76006,US
Vancouver,BC,V6A,CA
Waterloo,Ontario,N2L 3G1,CA
,,,
,,,
Washington,DC,20001,US
Chicago,IL,60661,US
Palermo,Sicilia,90100,IT
Dublin,OH,43017,US
Melbourne,VIC,3000,AU
Tauranga,,3110,NZ
North Myrtle Beach,SC,29582,US
,,,
,,,
Babson Park,MA,2457,US
LOS ANGELES ,CA,90016,US
Hempstead,NY,11550,US
Richmond,BC,V6W 0A5,CA
Tracy,CA,95376,US
Folsom,CA,95630,US
,,,
Cherry Hill,NJ,8034,US
Austin,TX,,US
Moon Township,PA,15108,US
,,,
,,,
Burnet,TX,78611,US
St Petersburg,Saint Petersburg,197375,RU
Vancouver,BC,V6H 3S4,CA
Toronto,Ontario,M5J 2T3,CA
West Columbia,SC,29169,US
Waxahachie,TX,75165,US
Chicago,IL,,US
Philadelphia,PA,19148,US
London,London,E14 4DH‎,GB
New York,NY,10027,US
,,,
Greensboro,NC,27409,US
London,City of Westminster,W1C,GB
Houston,TX,77002,US
Rockville Centre,NY,11570,US
New York,NY,10001,US
Piedmont,CA,94611,US
San Francisco,CA,94109,US
Stockholm,,11147,SE
,,,
,,,
Toronto,ON,M5V 3A8,CA
Hoboken,NJ,7030,US
Camberwell,London,SE5 8SN,GB
Vancouver,British Columbia,,CA
Bridgeport,,6606,US
Mt. Arlington,NJ,7856,US
Ashland,OH,44805,US
,,,
Tooele Ut,,,
,,,
Boston,MA,2116,US
Tampa,FL,33609,US
Chicago,IL,,US
,,,
Spokane,WA,99201,US
London,Gt Lon,WC2B 5NF,GB
West Hollywood ,CA,,US
Melville,NY,11747,US
,,,
Saint Paul,MN,55101,US
,,,
Schaumburg,IL,60173,US
New Orleans,LA,70130,US
Fremont,CA,,US
Newcastle upon Tyne ,,,
,CA,,US
Chicago,IL,60615,US
Metuchen,NJ,,US
Denver,CO,80202,US
,,,
Highland Heights,KY,41099,US
Plantation,FL,33324,US
Miami,FL,33130,US
Birmingham,Birmingham,B42 2SU,GB
Miami,FL,33127,US
Bridgewater,NEW JERSEY,8876,US
Orem,UT,,US
,,,
Grand Rapids,MN,55744,US
Atlanta,GA,30328,US
New Haven,CT,2108,US
London,London,SW1Y 4LH,GB
,,,
South Holland,IL,60473,US
Orlando,FL,,US
Milano,Lombardia,20123,IT
,,,
New York,NY,10027,US
London,Gt Lon,E8 3BQ,GB
Carina,QLD,4152,AU
New York,NY,,US
Mumbai,Maharashtra,,IN
New York,NY,10022,US
Melbourne,VIC,3000,AU
,,,
,,,
San Francisco,CA,94107,US
Shaker Heights,OH,44122,US
St. Petersburg,FL,33701,US
Carmel,NY,10512,US
,,E1 4NS ,
,,CH46 1PF,
,,,
Berkeley,CA,94705,US
"Freemason's Hall, Dublin 2",,,IE
,,,
Houston,TX,77006,US
Brighton,MA,2135,US
Maitland,NSW,,AU
North Melbourne,,3051,
Altamonte Springs,FL,32701,US
Tempe,AZ,85281,US
Glen Rock,PA,17327,US
Devon,,,GB
Burbank,CA,91502,US
Smithfield,NC,,US
Victoria,,V9B 3S7,
New York,NY,10001,US
Chicago,IL,60605,US
Sydney,New South Wales,2000,AU
New York City,,,
Icel,Mersin Province,33000,TR
McAlester,OK,74501,US
Decatur,GA,,US
Toronto,ON,L4W 4X7,CA
Dublin,Dublin,,IE
Matthews,NC,28105,US
Phoenix,AZ,85016,US
Guadalupe,NL,67100,MX
